ID,Address,City,State,Zip
1,"150 Hampden Ave, Hampden Twp, Pennsylvania, 17011",Hampden Twp,Pennsylvania,17011
2,"17011, Camp Hill, Pennsylvania",Camp Hill,Pennsylvania,17011
3,"17011, Camp Hill, Pennsylvania",Camp Hill,Pennsylvania,17011
4,"17011, Camp Hill, Pennsylvania",Camp Hill,Pennsylvania,17011
5,"150 Maple Ave, Hampden Twp, Pennsylvania, 17011",Hampden Twp,Pennsylvania,17011
6,"150 Maple Ave, Hampden Twp, Pennsylvania, 17011",Hampden Twp,Pennsylvania,17011
7,"17011, Camp Hill, Pennsylvania",Camp Hill,Pennsylvania,17011
8,"17011, Camp Hill, Pennsylvania",Camp Hill,Pennsylvania,17011
9,"17011, Camp Hill, Pennsylvania",Camp Hill,Pennsylvania,17011
10,"17011, Camp Hill, Pennsylvania",Camp Hill,Pennsylvania,17011
11,"17011, Camp Hill, Pennsylvania",Camp Hill,Pennsylvania,17011
12,"17011, Camp Hill, Pennsylvania",Camp Hill,Pennsylvania,17011
13,"150 Lynnwood Ct, Hampden Twp, Pennsylvania, 17011",Hampden Twp,Pennsylvania,17011
14,"17011, Camp Hill, Pennsylvania",Camp Hill,Pennsylvania,17011
15,,,,
16,"150 Bryce Rd, Hampden Twp, Pennsylvania, 17011",Hampden Twp,Pennsylvania,17011
17,"150 St Johns Church Rd, Hampden Twp, Pennsylvania, 17011",Hampden Twp,Pennsylvania,17011
18,"17011, Camp Hill, Pennsylvania",Camp Hill,Pennsylvania,17011
19,"17011, Camp Hill, Pennsylvania",Camp Hill,Pennsylvania,17011
20,"17011, Camp Hill, Pennsylvania",Camp Hill,Pennsylvania,17011
21,"150 Maple Ave, Hampden Twp, Pennsylvania, 17011",Hampden Twp,Pennsylvania,17011
22,"17011, Camp Hill, Pennsylvania",Camp Hill,Pennsylvania,17011
23,"150 Maple Ave, Hampden Twp, Pennsylvania, 17011",Hampden Twp,Pennsylvania,17011
24,"150 W Clearview Dr, Hampden Twp, Pennsylvania, 17011",Hampden Twp,Pennsylvania,17011
25,"17011, Camp Hill, Pennsylvania",Camp Hill,Pennsylvania,17011
26,"150 N 36th St, Hampden Twp, Pennsylvania, 17011",Hampden Twp,Pennsylvania,17011
27,"17011, Camp Hill, Pennsylvania",Camp Hill,Pennsylvania,17011
28,"17011, Camp Hill, Pennsylvania",Camp Hill,Pennsylvania,17011
29,"150 Conodoguinet Ave, Hampden Twp, Pennsylvania, 17011",Hampden Twp,Pennsylvania,17011
30,"17011, Camp Hill, Pennsylvania",Camp Hill,Pennsylvania,17011
31,"17011, Camp Hill, Pennsylvania",Camp Hill,Pennsylvania,17011
32,"250 St Johns Church Rd, Hampden Twp, Pennsylvania, 17011",Hampden Twp,Pennsylvania,17011
33,"17011, Camp Hill, Pennsylvania",Camp Hill,Pennsylvania,17011
34,"250 Hillcrest Rd, Hampden Twp, Pennsylvania, 17011",Hampden Twp,Pennsylvania,17011
35,"17011, Camp Hill, Pennsylvania",Camp Hill,Pennsylvania,17011
36,"17011, Camp Hill, Pennsylvania",Camp Hill,Pennsylvania,17011
37,"250 Orrs Bridge Rd, Hampden Twp, Pennsylvania, 17011",Hampden Twp,Pennsylvania,17011
38,"250 St Johns Church Rd, Hampden Twp, Pennsylvania, 17011",Hampden Twp,Pennsylvania,17011
39,"17011, Camp Hill, Pennsylvania",Camp Hill,Pennsylvania,17011
40,"17011, Camp Hill, Pennsylvania",Camp Hill,Pennsylvania,17011
41,"17011, Camp Hill, Pennsylvania",Camp Hill,Pennsylvania,17011
42,"Cherokee Ave, Lower Allen Twp, Pennsylvania, 17011",Lower Allen Twp,Pennsylvania,17011
43,"17011, Camp Hill, Pennsylvania",Camp Hill,Pennsylvania,17011
44,"17011, Camp Hill, Pennsylvania",Camp Hill,Pennsylvania,17011
45,"17011, Camp Hill, Pennsylvania",Camp Hill,Pennsylvania,17011
46,"17011, Camp Hill, Pennsylvania",Camp Hill,Pennsylvania,17011
47,"17011, Camp Hill, Pennsylvania",Camp Hill,Pennsylvania,17011
48,"250 Hillcrest Rd, Hampden Twp, Pennsylvania, 17011",Hampden Twp,Pennsylvania,17011
49,"17011, Camp Hill, Pennsylvania",Camp Hill,Pennsylvania,17011
50,"17011, Camp Hill, Pennsylvania",Camp Hill,Pennsylvania,17011
51,"17011, Camp Hill, Pennsylvania",Camp Hill,Pennsylvania,17011
52,"250 Northgate Dr, Hampden Twp, Pennsylvania, 17011",Hampden Twp,Pennsylvania,17011
53,"17011, Camp Hill, Pennsylvania",Camp Hill,Pennsylvania,17011
54,"250 Saint Johns Dr, Hampden Twp, Pennsylvania, 17011",Hampden Twp,Pennsylvania,17011
55,"17011, Camp Hill, Pennsylvania",Camp Hill,Pennsylvania,17011
56,"250 Lamp Post Ln, Hampden Twp, Pennsylvania, 17011",Hampden Twp,Pennsylvania,17011
57,"250 St Johns Church Rd, Hampden Twp, Pennsylvania, 17011",Hampden Twp,Pennsylvania,17011
58,"250 Maple Ave, Hampden Twp, Pennsylvania, 17011",Hampden Twp,Pennsylvania,17011
59,"17011, Camp Hill, Pennsylvania",Camp Hill,Pennsylvania,17011
60,"17011, Camp Hill, Pennsylvania",Camp Hill,Pennsylvania,17011
61,"17011, Camp Hill, Pennsylvania",Camp Hill,Pennsylvania,17011
62,"17011, Camp Hill, Pennsylvania",Camp Hill,Pennsylvania,17011
63,"17011, Camp Hill, Pennsylvania",Camp Hill,Pennsylvania,17011
64,"17011, Camp Hill, Pennsylvania",Camp Hill,Pennsylvania,17011
65,"17011, Camp Hill, Pennsylvania",Camp Hill,Pennsylvania,17011
66,"17011, Camp Hill, Pennsylvania",Camp Hill,Pennsylvania,17011
67,"17011, Camp Hill, Pennsylvania",Camp Hill,Pennsylvania,17011
68,"17011, Camp Hill, Pennsylvania",Camp Hill,Pennsylvania,17011
69,"17011, Camp Hill, Pennsylvania",Camp Hill,Pennsylvania,17011
70,"17011, Camp Hill, Pennsylvania",Camp Hill,Pennsylvania,17011
71,"17011, Camp Hill, Pennsylvania",Camp Hill,Pennsylvania,17011
72,"17011, Camp Hill, Pennsylvania",Camp Hill,Pennsylvania,17011
73,"17011, Camp Hill, Pennsylvania",Camp Hill,Pennsylvania,17011
74,"17011, Camp Hill, Pennsylvania",Camp Hill,Pennsylvania,17011
75,"17011, Camp Hill, Pennsylvania",Camp Hill,Pennsylvania,17011
76,"17011, Camp Hill, Pennsylvania",Camp Hill,Pennsylvania,17011
77,"350 Lamp Post Ln, Hampden Twp, Pennsylvania, 17011",Hampden Twp,Pennsylvania,17011
78,"17011, Camp Hill, Pennsylvania",Camp Hill,Pennsylvania,17011
79,"350 Lamp Post Ln, Hampden Twp, Pennsylvania, 17011",Hampden Twp,Pennsylvania,17011
80,"350 Lamp Post Ln, Hampden Twp, Pennsylvania, 17011",Hampden Twp,Pennsylvania,17011
81,"17011, Camp Hill, Pennsylvania",Camp Hill,Pennsylvania,17011
82,"17011, Camp Hill, Pennsylvania",Camp Hill,Pennsylvania,17011
83,"17011, Camp Hill, Pennsylvania",Camp Hill,Pennsylvania,17011
84,"17011, Camp Hill, Pennsylvania",Camp Hill,Pennsylvania,17011
85,"450 Lamp Post Ln, Hampden Twp, Pennsylvania, 17011",Hampden Twp,Pennsylvania,17011
86,"17011, Camp Hill, Pennsylvania",Camp Hill,Pennsylvania,17011
87,"17011, Camp Hill, Pennsylvania",Camp Hill,Pennsylvania,17011
88,"450 Orrs Bridge Rd, Hampden Twp, Pennsylvania, 17011",Hampden Twp,Pennsylvania,17011
89,"17011, Camp Hill, Pennsylvania",Camp Hill,Pennsylvania,17011
90,"17011, Camp Hill, Pennsylvania",Camp Hill,Pennsylvania,17011
91,"Brook Rd, Hampden Twp, Pennsylvania, 17011",Hampden Twp,Pennsylvania,17011
92,"Brook Rd, Hampden Twp, Pennsylvania, 17011",Hampden Twp,Pennsylvania,17011
93,"17011, Camp Hill, Pennsylvania",Camp Hill,Pennsylvania,17011
94,"17011, Camp Hill, Pennsylvania",Camp Hill,Pennsylvania,17011
95,"450 St Johns Church Rd, Hampden Twp, Pennsylvania, 17011",Hampden Twp,Pennsylvania,17011
96,"450 St Johns Church Rd, Hampden Twp, Pennsylvania, 17011",Hampden Twp,Pennsylvania,17011
97,"450 Orrs Bridge Rd, Hampden Twp, Pennsylvania, 17011",Hampden Twp,Pennsylvania,17011
98,"450 Orrs Bridge Rd, Hampden Twp, Pennsylvania, 17011",Hampden Twp,Pennsylvania,17011
99,"450 St Johns Church Rd, Hampden Twp, Pennsylvania, 17011",Hampden Twp,Pennsylvania,17011
100,"Cherokee Ave, Lower Allen Twp, Pennsylvania, 17011",Lower Allen Twp,Pennsylvania,17011
101,"Boxwood Ln, Lower Allen Twp, Pennsylvania, 17011",Lower Allen Twp,Pennsylvania,17011
102,"17011, Camp Hill, Pennsylvania",Camp Hill,Pennsylvania,17011
103,"Brook Rd, Hampden Twp, Pennsylvania, 17011",Hampden Twp,Pennsylvania,17011
104,"17011, Camp Hill, Pennsylvania",Camp Hill,Pennsylvania,17011
105,"17011, Camp Hill, Pennsylvania",Camp Hill,Pennsylvania,17011
106,"17011, Camp Hill, Pennsylvania",Camp Hill,Pennsylvania,17011
107,"450 Lamp Post Ln, Hampden Twp, Pennsylvania, 17011",Hampden Twp,Pennsylvania,17011
108,"450 Spring House Rd, Hampden Twp, Pennsylvania, 17011",Hampden Twp,Pennsylvania,17011
109,"17011, Camp Hill, Pennsylvania",Camp Hill,Pennsylvania,17011
110,"Cherokee Ave, Lower Allen Twp, Pennsylvania, 17011",Lower Allen Twp,Pennsylvania,17011
111,"Brook Rd, Hampden Twp, Pennsylvania, 17011",Hampden Twp,Pennsylvania,17011
112,"450 St Johns Church Rd, Hampden Twp, Pennsylvania, 17011",Hampden Twp,Pennsylvania,17011
113,"Woodcrest Ln, Hampden Twp, Pennsylvania, 17011",Hampden Twp,Pennsylvania,17011
114,"Boxwood Ln, Lower Allen Twp, Pennsylvania, 17011",Lower Allen Twp,Pennsylvania,17011
115,"450 Railroad Ave, Hampden Twp, Pennsylvania, 17011",Hampden Twp,Pennsylvania,17011
116,"450 St Johns Church Rd, Hampden Twp, Pennsylvania, 17011",Hampden Twp,Pennsylvania,17011
117,"450 Lamp Post Ln, Hampden Twp, Pennsylvania, 17011",Hampden Twp,Pennsylvania,17011
118,"450 Lamp Post Ln, Hampden Twp, Pennsylvania, 17011",Hampden Twp,Pennsylvania,17011
119,"Boxwood Ln, Lower Allen Twp, Pennsylvania, 17011",Lower Allen Twp,Pennsylvania,17011
120,"17011, Camp Hill, Pennsylvania",Camp Hill,Pennsylvania,17011
121,"17011, Camp Hill, Pennsylvania",Camp Hill,Pennsylvania,17011
122,"17011, Camp Hill, Pennsylvania",Camp Hill,Pennsylvania,17011
123,"17011, Camp Hill, Pennsylvania",Camp Hill,Pennsylvania,17011
124,"17011, Camp Hill, Pennsylvania",Camp Hill,Pennsylvania,17011
125,"17011, Camp Hill, Pennsylvania",Camp Hill,Pennsylvania,17011
126,"Brook Rd, Hampden Twp, Pennsylvania, 17011",Hampden Twp,Pennsylvania,17011
127,"17011, Camp Hill, Pennsylvania",Camp Hill,Pennsylvania,17011
128,"17011, Camp Hill, Pennsylvania",Camp Hill,Pennsylvania,17011
129,"17011, Camp Hill, Pennsylvania",Camp Hill,Pennsylvania,17011
130,"17011, Camp Hill, Pennsylvania",Camp Hill,Pennsylvania,17011
131,"17011, Camp Hill, Pennsylvania",Camp Hill,Pennsylvania,17011
132,"Brook Rd, Hampden Twp, Pennsylvania, 17011",Hampden Twp,Pennsylvania,17011
133,"17011, Camp Hill, Pennsylvania",Camp Hill,Pennsylvania,17011
134,"Woodcrest Ln, Hampden Twp, Pennsylvania, 17011",Hampden Twp,Pennsylvania,17011
135,"Bedford Dr, Hampden Twp, Pennsylvania, 17011",Hampden Twp,Pennsylvania,17011
136,"17011, Camp Hill, Pennsylvania",Camp Hill,Pennsylvania,17011
137,"17011, Camp Hill, Pennsylvania",Camp Hill,Pennsylvania,17011
138,Linne,Linne,Limburg,
139,"17011, Camp Hill, Pennsylvania",Camp Hill,Pennsylvania,17011
140,"Woodcrest Ln, Hampden Twp, Pennsylvania, 17011",Hampden Twp,Pennsylvania,17011
141,"550 Saint Johns Dr, Hampden Twp, Pennsylvania, 17011",Hampden Twp,Pennsylvania,17011
142,"17011, Camp Hill, Pennsylvania",Camp Hill,Pennsylvania,17011
143,"550 Colony Rd, Hampden Twp, Pennsylvania, 17011",Hampden Twp,Pennsylvania,17011
144,"550 Colony Rd, Hampden Twp, Pennsylvania, 17011",Hampden Twp,Pennsylvania,17011
145,"17011, Camp Hill, Pennsylvania",Camp Hill,Pennsylvania,17011
146,Linne,Linne,Limburg,
147,"550 Deubler Rd, Hampden Twp, Pennsylvania, 17011",Hampden Twp,Pennsylvania,17011
148,"17011, Camp Hill, Pennsylvania",Camp Hill,Pennsylvania,17011
149,"Bedford Dr, Hampden Twp, Pennsylvania, 17011",Hampden Twp,Pennsylvania,17011
150,"17011, Camp Hill, Pennsylvania",Camp Hill,Pennsylvania,17011
151,Linne,Linne,Limburg,
152,Linne,Linne,Limburg,
153,"17011, Camp Hill, Pennsylvania",Camp Hill,Pennsylvania,17011
154,Linne,Linne,Limburg,
155,"550 Spring House Rd, Hampden Twp, Pennsylvania, 17011",Hampden Twp,Pennsylvania,17011
156,"17011, Camp Hill, Pennsylvania",Camp Hill,Pennsylvania,17011
157,"Woodcrest Ln, Hampden Twp, Pennsylvania, 17011",Hampden Twp,Pennsylvania,17011
158,"17011, Camp Hill, Pennsylvania",Camp Hill,Pennsylvania,17011
159,"Simpson Ferry Rd, Hampden Twp, Pennsylvania, 17011",Hampden Twp,Pennsylvania,17011
160,"17011, Camp Hill, Pennsylvania",Camp Hill,Pennsylvania,17011
161,"650 N St Johns Dr, Hampden Twp, Pennsylvania, 17011",Hampden Twp,Pennsylvania,17011
162,"17011, Camp Hill, Pennsylvania",Camp Hill,Pennsylvania,17011
163,"17011, Camp Hill, Pennsylvania",Camp Hill,Pennsylvania,17011
164,"17011, Camp Hill, Pennsylvania",Camp Hill,Pennsylvania,17011
165,"Orrs Bridge Rd, Hampden Twp, Pennsylvania, 17011",Hampden Twp,Pennsylvania,17011
166,"17011, Camp Hill, Pennsylvania",Camp Hill,Pennsylvania,17011
167,"N Locust St, Shiremanstown, Pennsylvania, 17011",Shiremanstown,Pennsylvania,17011
168,"17011, Camp Hill, Pennsylvania",Camp Hill,Pennsylvania,17011
169,"Kent Dr, Lower Allen Twp, Pennsylvania, 17011",Lower Allen Twp,Pennsylvania,17011
170,,,,
171,"Orrs Bridge Rd, Hampden Twp, Pennsylvania, 17011",Hampden Twp,Pennsylvania,17011
172,"750 Brentwater Rd, East Pennsboro Twp, Pennsylvania, 17011",East Pennsboro Twp,Pennsylvania,17011
173,"17011, Camp Hill, Pennsylvania",Camp Hill,Pennsylvania,17011
174,"850 Briarwood Ln, Hampden Twp, Pennsylvania, 17011",Hampden Twp,Pennsylvania,17011
175,"17011, Camp Hill, Pennsylvania",Camp Hill,Pennsylvania,17011
176,"17011, Camp Hill, Pennsylvania",Camp Hill,Pennsylvania,17011
177,"850 Mandy Ln, Hampden Twp, Pennsylvania, 17011",Hampden Twp,Pennsylvania,17011
178,"Orrs Bridge Rd, Hampden Twp, Pennsylvania, 17011",Hampden Twp,Pennsylvania,17011
179,"850 Meadow Ln, Hampden Twp, Pennsylvania, 17011",Hampden Twp,Pennsylvania,17011
180,"850 Meadow Ln, Hampden Twp, Pennsylvania, 17011",Hampden Twp,Pennsylvania,17011
181,"850 Meadow Ln, Hampden Twp, Pennsylvania, 17011",Hampden Twp,Pennsylvania,17011
182,"Orrs Bridge Rd, Hampden Twp, Pennsylvania, 17011",Hampden Twp,Pennsylvania,17011
183,"17011, Camp Hill, Pennsylvania",Camp Hill,Pennsylvania,17011
184,"850 Meadow Ln, Hampden Twp, Pennsylvania, 17011",Hampden Twp,Pennsylvania,17011
185,"Kent Dr, Lower Allen Twp, Pennsylvania, 17011",Lower Allen Twp,Pennsylvania,17011
186,Linne,Linne,Limburg,
187,"17011, Camp Hill, Pennsylvania",Camp Hill,Pennsylvania,17011
188,"17011, Camp Hill, Pennsylvania",Camp Hill,Pennsylvania,17011
189,"17011, Camp Hill, Pennsylvania",Camp Hill,Pennsylvania,17011
190,"17011, Camp Hill, Pennsylvania",Camp Hill,Pennsylvania,17011
191,"17011, Camp Hill, Pennsylvania",Camp Hill,Pennsylvania,17011
192,1050,,,1050
193,1050,,,1050
194,1050,,,1050
195,"17011, Camp Hill, Pennsylvania",Camp Hill,Pennsylvania,17011
196,"Hope, Richmond",Richmond,,
197,1050,,,1050
198,"Hope, Richmond",Richmond,,
199,1050,,,1050
200,"17011, Camp Hill, Pennsylvania",Camp Hill,Pennsylvania,17011
201,"Mill Road, Invercargill",Invercargill,,
202,"Orrs Bridge Rd, Hampden Twp, Pennsylvania, 17011",Hampden Twp,Pennsylvania,17011
203,"17011, Camp Hill, Pennsylvania",Camp Hill,Pennsylvania,17011
204,"17011, Camp Hill, Pennsylvania",Camp Hill,Pennsylvania,17011
205,"17011, Camp Hill, Pennsylvania",Camp Hill,Pennsylvania,17011
206,"17011, Camp Hill, Pennsylvania",Camp Hill,Pennsylvania,17011
207,"17011, Camp Hill, Pennsylvania",Camp Hill,Pennsylvania,17011
208,1050,,,1050
209,"17011, Camp Hill, Pennsylvania",Camp Hill,Pennsylvania,17011
210,"17011, Camp Hill, Pennsylvania",Camp Hill,Pennsylvania,17011
211,"17011, Camp Hill, Pennsylvania",Camp Hill,Pennsylvania,17011
212,"17011, Camp Hill, Pennsylvania",Camp Hill,Pennsylvania,17011
213,"17011, Camp Hill, Pennsylvania",Camp Hill,Pennsylvania,17011
214,"17011, Camp Hill, Pennsylvania",Camp Hill,Pennsylvania,17011
215,"17011, Camp Hill, Pennsylvania",Camp Hill,Pennsylvania,17011
216,"17011, Camp Hill, Pennsylvania",Camp Hill,Pennsylvania,17011
217,"Orrs Bridge Rd, Hampden Twp, Pennsylvania, 17011",Hampden Twp,Pennsylvania,17011
218,"17011, Camp Hill, Pennsylvania",Camp Hill,Pennsylvania,17011
219,"17011, Camp Hill, Pennsylvania",Camp Hill,Pennsylvania,17011
220,"17011, Camp Hill, Pennsylvania",Camp Hill,Pennsylvania,17011
221,"Windsor Way, East Pennsboro Twp, Pennsylvania, 17011",East Pennsboro Twp,Pennsylvania,17011
222,"17011, Camp Hill, Pennsylvania",Camp Hill,Pennsylvania,17011
223,"17011, Camp Hill, Pennsylvania",Camp Hill,Pennsylvania,17011
224,"17011, Camp Hill, Pennsylvania",Camp Hill,Pennsylvania,17011
225,"17011, Camp Hill, Pennsylvania",Camp Hill,Pennsylvania,17011
226,"Kent Dr, Lower Allen Twp, Pennsylvania, 17011",Lower Allen Twp,Pennsylvania,17011
227,"17011, Camp Hill, Pennsylvania",Camp Hill,Pennsylvania,17011
228,Raat,Raat,Yug,
229,"17011, Camp Hill, Pennsylvania",Camp Hill,Pennsylvania,17011
230,"17011, Camp Hill, Pennsylvania",Camp Hill,Pennsylvania,17011
231,"Summit Ave, Camp Hill, Pennsylvania, 17011",Camp Hill,Pennsylvania,17011
232,"Summit Ave, Camp Hill, Pennsylvania, 17011",Camp Hill,Pennsylvania,17011
233,"17011, Camp Hill, Pennsylvania",Camp Hill,Pennsylvania,17011
234,"17011, Camp Hill, Pennsylvania",Camp Hill,Pennsylvania,17011
235,"17011, Camp Hill, Pennsylvania",Camp Hill,Pennsylvania,17011
236,"17011, Camp Hill, Pennsylvania",Camp Hill,Pennsylvania,17011
237,"17011, Camp Hill, Pennsylvania",Camp Hill,Pennsylvania,17011
238,"17011, Camp Hill, Pennsylvania",Camp Hill,Pennsylvania,17011
239,"17011, Camp Hill, Pennsylvania",Camp Hill,Pennsylvania,17011
240,"Summit Ave, Camp Hill, Pennsylvania, 17011",Camp Hill,Pennsylvania,17011
241,"17011, Camp Hill, Pennsylvania",Camp Hill,Pennsylvania,17011
242,"17011, Camp Hill, Pennsylvania",Camp Hill,Pennsylvania,17011
243,Raat,Raat,Yug,
244,"17011, Camp Hill, Pennsylvania",Camp Hill,Pennsylvania,17011
245,"17011, Camp Hill, Pennsylvania",Camp Hill,Pennsylvania,17011
246,"17011, Camp Hill, Pennsylvania",Camp Hill,Pennsylvania,17011
247,"17011, Camp Hill, Pennsylvania",Camp Hill,Pennsylvania,17011
248,"Summit Ave, Camp Hill, Pennsylvania, 17011",Camp Hill,Pennsylvania,17011
249,"17011, Camp Hill, Pennsylvania",Camp Hill,Pennsylvania,17011
250,"Summit Ave, Camp Hill, Pennsylvania, 17011",Camp Hill,Pennsylvania,17011
251,"17011, Camp Hill, Pennsylvania",Camp Hill,Pennsylvania,17011
252,"17011, Camp Hill, Pennsylvania",Camp Hill,Pennsylvania,17011
253,"17011, Camp Hill, Pennsylvania",Camp Hill,Pennsylvania,17011
254,"17011, Camp Hill, Pennsylvania",Camp Hill,Pennsylvania,17011
255,"17011, Camp Hill, Pennsylvania",Camp Hill,Pennsylvania,17011
256,"17011, Camp Hill, Pennsylvania",Camp Hill,Pennsylvania,17011
257,"17011, Camp Hill, Pennsylvania",Camp Hill,Pennsylvania,17011
258,"17011, Camp Hill, Pennsylvania",Camp Hill,Pennsylvania,17011
259,"17011, Camp Hill, Pennsylvania",Camp Hill,Pennsylvania,17011
260,"Orrs Bridge Rd, Hampden Twp, Pennsylvania, 17011",Hampden Twp,Pennsylvania,17011
261,"17011, Camp Hill, Pennsylvania",Camp Hill,Pennsylvania,17011
262,"Orrs Bridge Rd, Hampden Twp, Pennsylvania, 17011",Hampden Twp,Pennsylvania,17011
263,"17011, Camp Hill, Pennsylvania",Camp Hill,Pennsylvania,17011
264,"17011, Camp Hill, Pennsylvania",Camp Hill,Pennsylvania,17011
265,"17011, Camp Hill, Pennsylvania",Camp Hill,Pennsylvania,17011
266,"Spruce Cir, Shiremanstown, Pennsylvania, 17011",Shiremanstown,Pennsylvania,17011
267,"17011, Camp Hill, Pennsylvania",Camp Hill,Pennsylvania,17011
268,"17011, Camp Hill, Pennsylvania",Camp Hill,Pennsylvania,17011
269,"Hunter Ln, East Pennsboro Twp, Pennsylvania, 17011",East Pennsboro Twp,Pennsylvania,17011
270,"17011, Camp Hill, Pennsylvania",Camp Hill,Pennsylvania,17011
271,"17011, Camp Hill, Pennsylvania",Camp Hill,Pennsylvania,17011
272,"17011, Camp Hill, Pennsylvania",Camp Hill,Pennsylvania,17011
273,"17011, Camp Hill, Pennsylvania",Camp Hill,Pennsylvania,17011
274,"17011, Camp Hill, Pennsylvania",Camp Hill,Pennsylvania,17011
275,"17011, Camp Hill, Pennsylvania",Camp Hill,Pennsylvania,17011
276,"17011, Camp Hill, Pennsylvania",Camp Hill,Pennsylvania,17011
277,"17011, Camp Hill, Pennsylvania",Camp Hill,Pennsylvania,17011
278,"17011, Camp Hill, Pennsylvania",Camp Hill,Pennsylvania,17011
279,"17011, Camp Hill, Pennsylvania",Camp Hill,Pennsylvania,17011
280,"17011, Camp Hill, Pennsylvania",Camp Hill,Pennsylvania,17011
281,"17011, Camp Hill, Pennsylvania",Camp Hill,Pennsylvania,17011
282,"17011, Camp Hill, Pennsylvania",Camp Hill,Pennsylvania,17011
283,"17011, Camp Hill, Pennsylvania",Camp Hill,Pennsylvania,17011
284,"17011, Camp Hill, Pennsylvania",Camp Hill,Pennsylvania,17011
285,"17011, Camp Hill, Pennsylvania",Camp Hill,Pennsylvania,17011
286,"17011, Camp Hill, Pennsylvania",Camp Hill,Pennsylvania,17011
287,"17011, Camp Hill, Pennsylvania",Camp Hill,Pennsylvania,17011
288,"17011, Camp Hill, Pennsylvania",Camp Hill,Pennsylvania,17011
289,"17011, Camp Hill, Pennsylvania",Camp Hill,Pennsylvania,17011
290,"17011, Camp Hill, Pennsylvania",Camp Hill,Pennsylvania,17011
291,"17011, Camp Hill, Pennsylvania",Camp Hill,Pennsylvania,17011
292,"Cedar Ave, Lower Allen Twp, Pennsylvania, 17011",Lower Allen Twp,Pennsylvania,17011
293,"17011, Camp Hill, Pennsylvania",Camp Hill,Pennsylvania,17011
294,"17011, Camp Hill, Pennsylvania",Camp Hill,Pennsylvania,17011
295,"17011, Camp Hill, Pennsylvania",Camp Hill,Pennsylvania,17011
296,"17011, Camp Hill, Pennsylvania",Camp Hill,Pennsylvania,17011
297,"17011, Camp Hill, Pennsylvania",Camp Hill,Pennsylvania,17011
298,"17011, Camp Hill, Pennsylvania",Camp Hill,Pennsylvania,17011
299,"17011, Camp Hill, Pennsylvania",Camp Hill,Pennsylvania,17011
300,"17011, Camp Hill, Pennsylvania",Camp Hill,Pennsylvania,17011
301,"17011, Camp Hill, Pennsylvania",Camp Hill,Pennsylvania,17011
302,"17011, Camp Hill, Pennsylvania",Camp Hill,Pennsylvania,17011
303,"17011, Camp Hill, Pennsylvania",Camp Hill,Pennsylvania,17011
304,"17011, Camp Hill, Pennsylvania",Camp Hill,Pennsylvania,17011
305,02350-000,,,02350-000
306,"17011, Camp Hill, Pennsylvania",Camp Hill,Pennsylvania,17011
307,"17011, Camp Hill, Pennsylvania",Camp Hill,Pennsylvania,17011
308,"17011, Camp Hill, Pennsylvania",Camp Hill,Pennsylvania,17011
309,"17011, Camp Hill, Pennsylvania",Camp Hill,Pennsylvania,17011
310,"17011, Camp Hill, Pennsylvania",Camp Hill,Pennsylvania,17011
311,"17011, Camp Hill, Pennsylvania",Camp Hill,Pennsylvania,17011
312,"17011, Camp Hill, Pennsylvania",Camp Hill,Pennsylvania,17011
313,"17011, Camp Hill, Pennsylvania",Camp Hill,Pennsylvania,17011
314,"17011, Camp Hill, Pennsylvania",Camp Hill,Pennsylvania,17011
315,"17011, Camp Hill, Pennsylvania",Camp Hill,Pennsylvania,17011
316,"17011, Camp Hill, Pennsylvania",Camp Hill,Pennsylvania,17011
317,"3450 Simpson Ferry Rd, Hampden Twp, Pennsylvania, 17011",Hampden Twp,Pennsylvania,17011
318,"3450 Simpson Ferry Rd, Hampden Twp, Pennsylvania, 17011",Hampden Twp,Pennsylvania,17011
319,"3450 Simpson Ferry Rd, Hampden Twp, Pennsylvania, 17011",Hampden Twp,Pennsylvania,17011
320,"3450 Simpson Ferry Rd, Hampden Twp, Pennsylvania, 17011",Hampden Twp,Pennsylvania,17011
321,"3450 Simpson Ferry Rd, Hampden Twp, Pennsylvania, 17011",Hampden Twp,Pennsylvania,17011
322,"3450 Simpson Ferry Rd, Hampden Twp, Pennsylvania, 17011",Hampden Twp,Pennsylvania,17011
323,"3450 Simpson Ferry Rd, Hampden Twp, Pennsylvania, 17011",Hampden Twp,Pennsylvania,17011
324,"3450 Lincoln Dr, Hampden Twp, Pennsylvania, 17011",Hampden Twp,Pennsylvania,17011
325,"Coventry Close, East Pennsboro Twp, Pennsylvania, 17011",East Pennsboro Twp,Pennsylvania,17011
326,"3550 Green St, Hampden Twp, Pennsylvania, 17011",Hampden Twp,Pennsylvania,17011
327,"17011, Camp Hill, Pennsylvania",Camp Hill,Pennsylvania,17011
328,"3550 Green St, Hampden Twp, Pennsylvania, 17011",Hampden Twp,Pennsylvania,17011
329,"17011, Camp Hill, Pennsylvania",Camp Hill,Pennsylvania,17011
330,"3550 Walnut St, Hampden Twp, Pennsylvania, 17011",Hampden Twp,Pennsylvania,17011
331,"3550 Green St, Hampden Twp, Pennsylvania, 17011",Hampden Twp,Pennsylvania,17011
332,"3550 Green St, Hampden Twp, Pennsylvania, 17011",Hampden Twp,Pennsylvania,17011
333,3550,,,3550
334,"3550 Chestnut St, Hampden Twp, Pennsylvania, 17011",Hampden Twp,Pennsylvania,17011
335,"3550 Hawthorne Dr, Hampden Twp, Pennsylvania, 17011",Hampden Twp,Pennsylvania,17011
336,,,,
337,"3550 Foxcroft Dr, East Pennsboro Twp, Pennsylvania, 17011",East Pennsboro Twp,Pennsylvania,17011
338,"3550 Simpson Ferry Rd, Hampden Twp, Pennsylvania, 17011",Hampden Twp,Pennsylvania,17011
339,"3550 Walnut St, Hampden Twp, Pennsylvania, 17011",Hampden Twp,Pennsylvania,17011
340,"3550 Walnut St, Hampden Twp, Pennsylvania, 17011",Hampden Twp,Pennsylvania,17011
341,"17011, Camp Hill, Pennsylvania",Camp Hill,Pennsylvania,17011
342,"Golfview Rd, Hampden Twp, Pennsylvania, 17011",Hampden Twp,Pennsylvania,17011
343,"3650 Market St, Hampden Twp, Pennsylvania, 17011",Hampden Twp,Pennsylvania,17011
344,"3750 Market St, Hampden Twp, Pennsylvania, 17011",Hampden Twp,Pennsylvania,17011
345,"3750 Vine St, Hampden Twp, Pennsylvania, 17011",Hampden Twp,Pennsylvania,17011
346,"17011, Camp Hill, Pennsylvania",Camp Hill,Pennsylvania,17011
347,"3750 Market St, Hampden Twp, Pennsylvania, 17011",Hampden Twp,Pennsylvania,17011
348,"17011, Camp Hill, Pennsylvania",Camp Hill,Pennsylvania,17011
349,"3750 Market St, Hampden Twp, Pennsylvania, 17011",Hampden Twp,Pennsylvania,17011
350,"3750 Market St, Hampden Twp, Pennsylvania, 17011",Hampden Twp,Pennsylvania,17011
351,"3750 Chestnut St, Hampden Twp, Pennsylvania, 17011",Hampden Twp,Pennsylvania,17011
352,"3750 Trindle Rd, Hampden Twp, Pennsylvania, 17011",Hampden Twp,Pennsylvania,17011
353,"3750 Kohler Pl, Hampden Twp, Pennsylvania, 17011",Hampden Twp,Pennsylvania,17011
354,"3750 Kohler Pl, Hampden Twp, Pennsylvania, 17011",Hampden Twp,Pennsylvania,17011
355,"3850 Chestnut St, Hampden Twp, Pennsylvania, 17011",Hampden Twp,Pennsylvania,17011
356,"3850 Lamp Post Ln, Hampden Twp, Pennsylvania, 17011",Hampden Twp,Pennsylvania,17011
357,"3850 Trindle Rd, Hampden Twp, Pennsylvania, 17011",Hampden Twp,Pennsylvania,17011
358,"3850 Carriage House Dr, Hampden Twp, Pennsylvania, 17011",Hampden Twp,Pennsylvania,17011
359,"17011, Camp Hill, Pennsylvania",Camp Hill,Pennsylvania,17011
360,"17011, Camp Hill, Pennsylvania",Camp Hill,Pennsylvania,17011
361,"3850 Market St, Hampden Twp, Pennsylvania, 17011",Hampden Twp,Pennsylvania,17011
362,"Golfview Rd, Hampden Twp, Pennsylvania, 17011",Hampden Twp,Pennsylvania,17011
363,"3850 Oxbow Dr, Hampden Twp, Pennsylvania, 17011",Hampden Twp,Pennsylvania,17011
364,"17011, Camp Hill, Pennsylvania",Camp Hill,Pennsylvania,17011
365,"3850 Carriage House Dr, Hampden Twp, Pennsylvania, 17011",Hampden Twp,Pennsylvania,17011
366,"3850 Trindle Rd, Hampden Twp, Pennsylvania, 17011",Hampden Twp,Pennsylvania,17011
367,"17011, Camp Hill, Pennsylvania",Camp Hill,Pennsylvania,17011
368,"3850 Bellows Dr, Hampden Twp, Pennsylvania, 17011",Hampden Twp,Pennsylvania,17011
369,"17011, Camp Hill, Pennsylvania",Camp Hill,Pennsylvania,17011
370,"3850 Chestnut St, Hampden Twp, Pennsylvania, 17011",Hampden Twp,Pennsylvania,17011
371,"17011, Camp Hill, Pennsylvania",Camp Hill,Pennsylvania,17011
372,"17011, Camp Hill, Pennsylvania",Camp Hill,Pennsylvania,17011
373,"3850 Copper Kettle Rd, Hampden Twp, Pennsylvania, 17011",Hampden Twp,Pennsylvania,17011
374,"17011, Camp Hill, Pennsylvania",Camp Hill,Pennsylvania,17011
375,"17011, Camp Hill, Pennsylvania",Camp Hill,Pennsylvania,17011
376,"Golfview Rd, Hampden Twp, Pennsylvania, 17011",Hampden Twp,Pennsylvania,17011
377,"Valley Rd, Lower Allen Twp, Pennsylvania, 17011",Lower Allen Twp,Pennsylvania,17011
378,"17011, Camp Hill, Pennsylvania",Camp Hill,Pennsylvania,17011
379,"17011, Camp Hill, Pennsylvania",Camp Hill,Pennsylvania,17011
380,"3950 Trindle Rd, Hampden Twp, Pennsylvania, 17011",Hampden Twp,Pennsylvania,17011
381,"17011, Camp Hill, Pennsylvania",Camp Hill,Pennsylvania,17011
382,"17011, Camp Hill, Pennsylvania",Camp Hill,Pennsylvania,17011
383,"4050 Carlisle Pike, Hampden Twp, Pennsylvania, 17011",Hampden Twp,Pennsylvania,17011
384,"17011, Camp Hill, Pennsylvania",Camp Hill,Pennsylvania,17011
385,"17011, Camp Hill, Pennsylvania",Camp Hill,Pennsylvania,17011
386,"17011, Camp Hill, Pennsylvania",Camp Hill,Pennsylvania,17011
387,"17011, Camp Hill, Pennsylvania",Camp Hill,Pennsylvania,17011
388,"4050 Market St, Hampden Twp, Pennsylvania, 17011",Hampden Twp,Pennsylvania,17011
389,"17011, Camp Hill, Pennsylvania",Camp Hill,Pennsylvania,17011
390,"17011, Camp Hill, Pennsylvania",Camp Hill,Pennsylvania,17011
391,"17011, Camp Hill, Pennsylvania",Camp Hill,Pennsylvania,17011
392,"4150 Park St, Hampden Twp, Pennsylvania, 17011",Hampden Twp,Pennsylvania,17011
393,"Valley Rd, Lower Allen Twp, Pennsylvania, 17011",Lower Allen Twp,Pennsylvania,17011
394,"17011, Camp Hill, Pennsylvania",Camp Hill,Pennsylvania,17011
395,"17011, Camp Hill, Pennsylvania",Camp Hill,Pennsylvania,17011
396,"17011, Camp Hill, Pennsylvania",Camp Hill,Pennsylvania,17011
397,"17011, Camp Hill, Pennsylvania",Camp Hill,Pennsylvania,17011
398,"4150 Park St, Hampden Twp, Pennsylvania, 17011",Hampden Twp,Pennsylvania,17011
399,"17011, Camp Hill, Pennsylvania",Camp Hill,Pennsylvania,17011
400,"17011, Camp Hill, Pennsylvania",Camp Hill,Pennsylvania,17011
401,"17011, Camp Hill, Pennsylvania",Camp Hill,Pennsylvania,17011
402,"17011, Camp Hill, Pennsylvania",Camp Hill,Pennsylvania,17011
403,"17011, Camp Hill, Pennsylvania",Camp Hill,Pennsylvania,17011
404,"17011, Camp Hill, Pennsylvania",Camp Hill,Pennsylvania,17011
405,"17011, Camp Hill, Pennsylvania",Camp Hill,Pennsylvania,17011
406,"17011, Camp Hill, Pennsylvania",Camp Hill,Pennsylvania,17011
407,"17011, Camp Hill, Pennsylvania",Camp Hill,Pennsylvania,17011
408,"17011, Camp Hill, Pennsylvania",Camp Hill,Pennsylvania,17011
409,"17011, Camp Hill, Pennsylvania",Camp Hill,Pennsylvania,17011
410,"17011, Camp Hill, Pennsylvania",Camp Hill,Pennsylvania,17011
411,"4250 Trindle Rd, Hampden Twp, Pennsylvania, 17011",Hampden Twp,Pennsylvania,17011
412,"4250 Carlisle Pike, Hampden Twp, Pennsylvania, 17011",Hampden Twp,Pennsylvania,17011
413,"17011, Camp Hill, Pennsylvania",Camp Hill,Pennsylvania,17011
414,"4250 Trindle Rd, Hampden Twp, Pennsylvania, 17011",Hampden Twp,Pennsylvania,17011
415,"4250 Trindle Rd, Hampden Twp, Pennsylvania, 17011",Hampden Twp,Pennsylvania,17011
416,"17011, Camp Hill, Pennsylvania",Camp Hill,Pennsylvania,17011
417,"Valley Rd, Lower Allen Twp, Pennsylvania, 17011",Lower Allen Twp,Pennsylvania,17011
418,"4250 Chestnut St, Hampden Twp, Pennsylvania, 17011",Hampden Twp,Pennsylvania,17011
419,"17011, Camp Hill, Pennsylvania",Camp Hill,Pennsylvania,17011
420,"4350 Carlisle Pike, Hampden Twp, Pennsylvania, 17011",Hampden Twp,Pennsylvania,17011
421,"4350 Carlisle Pike, Hampden Twp, Pennsylvania, 17011",Hampden Twp,Pennsylvania,17011
422,"4350 Carlisle Pike, Hampden Twp, Pennsylvania, 17011",Hampden Twp,Pennsylvania,17011
423,"17011, Camp Hill, Pennsylvania",Camp Hill,Pennsylvania,17011
424,"4350 Carlisle Pike, Hampden Twp, Pennsylvania, 17011",Hampden Twp,Pennsylvania,17011
425,"4350 Carlisle Pike, Hampden Twp, Pennsylvania, 17011",Hampden Twp,Pennsylvania,17011
426,"4350 Park St, Hampden Twp, Pennsylvania, 17011",Hampden Twp,Pennsylvania,17011
427,"4350 Carlisle Pike, Hampden Twp, Pennsylvania, 17011",Hampden Twp,Pennsylvania,17011
428,"4450 Industrial Park Rd, Hampden Twp, Pennsylvania, 17011",Hampden Twp,Pennsylvania,17011
429,"Valley Rd, Lower Allen Twp, Pennsylvania, 17011",Lower Allen Twp,Pennsylvania,17011
430,"4550 E Trindle Rd, Hampden Twp, Pennsylvania, 17011",Hampden Twp,Pennsylvania,17011
431,"4550 E Trindle Rd, Hampden Twp, Pennsylvania, 17011",Hampden Twp,Pennsylvania,17011
432,"4550 E Trindle Rd, Hampden Twp, Pennsylvania, 17011",Hampden Twp,Pennsylvania,17011
433,"4550 E Trindle Rd, Hampden Twp, Pennsylvania, 17011",Hampden Twp,Pennsylvania,17011
434,"4650 S Clearview Dr, Hampden Twp, Pennsylvania, 17011",Hampden Twp,Pennsylvania,17011
435,"4650 S Clearview Dr, Hampden Twp, Pennsylvania, 17011",Hampden Twp,Pennsylvania,17011
436,"17011, Camp Hill, Pennsylvania",Camp Hill,Pennsylvania,17011
437,"4650 Trindle Rd, Hampden Twp, Pennsylvania, 17011",Hampden Twp,Pennsylvania,17011
438,"4650 Trindle Rd, Hampden Twp, Pennsylvania, 17011",Hampden Twp,Pennsylvania,17011
439,"4650 Trindle Rd, Hampden Twp, Pennsylvania, 17011",Hampden Twp,Pennsylvania,17011
440,"4650 Trindle Rd, Hampden Twp, Pennsylvania, 17011",Hampden Twp,Pennsylvania,17011
441,"4650 Trindle Rd, Hampden Twp, Pennsylvania, 17011",Hampden Twp,Pennsylvania,17011
442,"4650 Trindle Rd, Hampden Twp, Pennsylvania, 17011",Hampden Twp,Pennsylvania,17011
443,"4650 Trindle Rd, Hampden Twp, Pennsylvania, 17011",Hampden Twp,Pennsylvania,17011
444,"4650 S Clearview Dr, Hampden Twp, Pennsylvania, 17011",Hampden Twp,Pennsylvania,17011
445,"4650 Trindle Rd, Hampden Twp, Pennsylvania, 17011",Hampden Twp,Pennsylvania,17011
446,"17011, Camp Hill, Pennsylvania",Camp Hill,Pennsylvania,17011
447,"4650 Trindle Rd, Hampden Twp, Pennsylvania, 17011",Hampden Twp,Pennsylvania,17011
448,"17011, Camp Hill, Pennsylvania",Camp Hill,Pennsylvania,17011
449,"17011, Camp Hill, Pennsylvania",Camp Hill,Pennsylvania,17011
450,"17011, Camp Hill, Pennsylvania",Camp Hill,Pennsylvania,17011
451,"17011, Camp Hill, Pennsylvania",Camp Hill,Pennsylvania,17011
452,"17011, Camp Hill, Pennsylvania",Camp Hill,Pennsylvania,17011
453,"4750 N Clearview Dr, Hampden Twp, Pennsylvania, 17011",Hampden Twp,Pennsylvania,17011
454,"E Trindle Rd, Hampden Twp, Pennsylvania, 17011",Hampden Twp,Pennsylvania,17011
455,"E Trindle Rd, Hampden Twp, Pennsylvania, 17011",Hampden Twp,Pennsylvania,17011
456,"Carlisle Pike, Hampden Twp, Pennsylvania, 17011",Hampden Twp,Pennsylvania,17011
457,"Trindle Rd, Hampden Twp, Pennsylvania, 17011",Hampden Twp,Pennsylvania,17011
458,"Carlisle Pike, Hampden Twp, Pennsylvania, 17011",Hampden Twp,Pennsylvania,17011
459,"E Trindle Rd, Hampden Twp, Pennsylvania, 17011",Hampden Twp,Pennsylvania,17011
460,"17011, Camp Hill, Pennsylvania",Camp Hill,Pennsylvania,17011
461,"Carlisle Pike, Hampden Twp, Pennsylvania, 17011",Hampden Twp,Pennsylvania,17011
462,"Carlisle Pike, Hampden Twp, Pennsylvania, 17011",Hampden Twp,Pennsylvania,17011
463,"Carlisle Pike, Hampden Twp, Pennsylvania, 17011",Hampden Twp,Pennsylvania,17011
464,"Carlisle Pike, Hampden Twp, Pennsylvania, 17011",Hampden Twp,Pennsylvania,17011
465,"17011, Camp Hill, Pennsylvania",Camp Hill,Pennsylvania,17011
466,"E Trindle Rd, Hampden Twp, Pennsylvania, 17011",Hampden Twp,Pennsylvania,17011
467,"17011, Camp Hill, Pennsylvania",Camp Hill,Pennsylvania,17011
468,"17011, Camp Hill, Pennsylvania",Camp Hill,Pennsylvania,17011
469,"17011, Camp Hill, Pennsylvania",Camp Hill,Pennsylvania,17011
470,"E Trindle Rd, Hampden Twp, Pennsylvania, 17011",Hampden Twp,Pennsylvania,17011
471,"17011, Camp Hill, Pennsylvania",Camp Hill,Pennsylvania,17011
472,"E Trindle Rd, Hampden Twp, Pennsylvania, 17011",Hampden Twp,Pennsylvania,17011
473,"Carlisle Pike, Hampden Twp, Pennsylvania, 17011",Hampden Twp,Pennsylvania,17011
474,"Carlisle Pike, Hampden Twp, Pennsylvania, 17011",Hampden Twp,Pennsylvania,17011
475,"E Trindle Rd, Hampden Twp, Pennsylvania, 17011",Hampden Twp,Pennsylvania,17011
476,"17011, Camp Hill, Pennsylvania",Camp Hill,Pennsylvania,17011
477,"E Trindle Rd, Hampden Twp, Pennsylvania, 17011",Hampden Twp,Pennsylvania,17011
478,"Carlisle Pike, Hampden Twp, Pennsylvania, 17011",Hampden Twp,Pennsylvania,17011
479,"Carlisle Pike, Hampden Twp, Pennsylvania, 17011",Hampden Twp,Pennsylvania,17011
480,"Carlisle Pike, Hampden Twp, Pennsylvania, 17011",Hampden Twp,Pennsylvania,17011
481,"Carlisle Pike, Hampden Twp, Pennsylvania, 17011",Hampden Twp,Pennsylvania,17011
482,"E Trindle Rd, Hampden Twp, Pennsylvania, 17011",Hampden Twp,Pennsylvania,17011
483,"17011, Camp Hill, Pennsylvania",Camp Hill,Pennsylvania,17011
484,"17011, Camp Hill, Pennsylvania",Camp Hill,Pennsylvania,17011
485,"E Trindle Rd, Hampden Twp, Pennsylvania, 17011",Hampden Twp,Pennsylvania,17011
486,"E Trindle Rd, Hampden Twp, Pennsylvania, 17011",Hampden Twp,Pennsylvania,17011
487,"E Trindle Rd, Hampden Twp, Pennsylvania, 17011",Hampden Twp,Pennsylvania,17011
488,"Carlisle Pike, Hampden Twp, Pennsylvania, 17011",Hampden Twp,Pennsylvania,17011
489,"E Trindle Rd, Hampden Twp, Pennsylvania, 17011",Hampden Twp,Pennsylvania,17011
490,"Carlisle Pike, Hampden Twp, Pennsylvania, 17011",Hampden Twp,Pennsylvania,17011
491,"17011, Camp Hill, Pennsylvania",Camp Hill,Pennsylvania,17011
492,"E Trindle Rd, Hampden Twp, Pennsylvania, 17011",Hampden Twp,Pennsylvania,17011
493,"17011, Camp Hill, Pennsylvania",Camp Hill,Pennsylvania,17011
494,"17011, Camp Hill, Pennsylvania",Camp Hill,Pennsylvania,17011
495,"Carlisle Pike, Hampden Twp, Pennsylvania, 17011",Hampden Twp,Pennsylvania,17011
496,"Carlisle Pike, Hampden Twp, Pennsylvania, 17011",Hampden Twp,Pennsylvania,17011
497,"E Trindle Rd, Hampden Twp, Pennsylvania, 17011",Hampden Twp,Pennsylvania,17011
498,"E Trindle Rd, Hampden Twp, Pennsylvania, 17011",Hampden Twp,Pennsylvania,17011
499,"17011, Camp Hill, Pennsylvania",Camp Hill,Pennsylvania,17011
500,"Carlisle Pike, Hampden Twp, Pennsylvania, 17011",Hampden Twp,Pennsylvania,17011
501,"17011, Camp Hill, Pennsylvania",Camp Hill,Pennsylvania,17011
502,"Carlisle Pike, Hampden Twp, Pennsylvania, 17011",Hampden Twp,Pennsylvania,17011
503,"E Trindle Rd, Hampden Twp, Pennsylvania, 17011",Hampden Twp,Pennsylvania,17011
504,"17011, Camp Hill, Pennsylvania",Camp Hill,Pennsylvania,17011
505,"Carlisle Pike, Hampden Twp, Pennsylvania, 17011",Hampden Twp,Pennsylvania,17011
506,"Carlisle Pike, Hampden Twp, Pennsylvania, 17011",Hampden Twp,Pennsylvania,17011
507,"E Trindle Rd, Hampden Twp, Pennsylvania, 17011",Hampden Twp,Pennsylvania,17011
508,"17011, Camp Hill, Pennsylvania",Camp Hill,Pennsylvania,17011
509,"Carlisle Pike, Hampden Twp, Pennsylvania, 17011",Hampden Twp,Pennsylvania,17011
510,"17011, Camp Hill, Pennsylvania",Camp Hill,Pennsylvania,17011
511,"Carlisle Pike, Hampden Twp, Pennsylvania, 17011",Hampden Twp,Pennsylvania,17011
512,"17011, Camp Hill, Pennsylvania",Camp Hill,Pennsylvania,17011
513,"Carlisle Pike, Hampden Twp, Pennsylvania, 17011",Hampden Twp,Pennsylvania,17011
514,"Carlisle Pike, Hampden Twp, Pennsylvania, 17011",Hampden Twp,Pennsylvania,17011
515,"17011, Camp Hill, Pennsylvania",Camp Hill,Pennsylvania,17011
516,"Carlisle Pike, Hampden Twp, Pennsylvania, 17011",Hampden Twp,Pennsylvania,17011
517,"17011, Camp Hill, Pennsylvania",Camp Hill,Pennsylvania,17011
518,"17011, Camp Hill, Pennsylvania",Camp Hill,Pennsylvania,17011
519,"17011, Camp Hill, Pennsylvania",Camp Hill,Pennsylvania,17011
520,"17011, Camp Hill, Pennsylvania",Camp Hill,Pennsylvania,17011
521,"E Trindle Rd, Hampden Twp, Pennsylvania, 17011",Hampden Twp,Pennsylvania,17011
522,"17011, Camp Hill, Pennsylvania",Camp Hill,Pennsylvania,17011
523,"E Trindle Rd, Hampden Twp, Pennsylvania, 17011",Hampden Twp,Pennsylvania,17011
524,"E Trindle Rd, Hampden Twp, Pennsylvania, 17011",Hampden Twp,Pennsylvania,17011
525,"E Trindle Rd, Hampden Twp, Pennsylvania, 17011",Hampden Twp,Pennsylvania,17011
526,"17011, Camp Hill, Pennsylvania",Camp Hill,Pennsylvania,17011
527,"Seneca Ave, Lower Allen Twp, Pennsylvania, 17011",Lower Allen Twp,Pennsylvania,17011
528,"17011, Camp Hill, Pennsylvania",Camp Hill,Pennsylvania,17011
529,"17011, Camp Hill, Pennsylvania",Camp Hill,Pennsylvania,17011
530,"17011, Camp Hill, Pennsylvania",Camp Hill,Pennsylvania,17011
531,"17011, Camp Hill, Pennsylvania",Camp Hill,Pennsylvania,17011
532,"Trindle Rd, Hampden Twp, Pennsylvania, 17011",Hampden Twp,Pennsylvania,17011
533,"Carlisle Pike, Hampden Twp, Pennsylvania, 17011",Hampden Twp,Pennsylvania,17011
534,"17011, Camp Hill, Pennsylvania",Camp Hill,Pennsylvania,17011
535,"17011, Camp Hill, Pennsylvania",Camp Hill,Pennsylvania,17011
536,"17011, Camp Hill, Pennsylvania",Camp Hill,Pennsylvania,17011
537,"17011, Camp Hill, Pennsylvania",Camp Hill,Pennsylvania,17011
538,"Seneca Ave, Lower Allen Twp, Pennsylvania, 17011",Lower Allen Twp,Pennsylvania,17011
539,"17011, Camp Hill, Pennsylvania",Camp Hill,Pennsylvania,17011
540,"E Trindle Rd, Hampden Twp, Pennsylvania, 17011",Hampden Twp,Pennsylvania,17011
541,"E Trindle Rd, Hampden Twp, Pennsylvania, 17011",Hampden Twp,Pennsylvania,17011
542,"17011, Camp Hill, Pennsylvania",Camp Hill,Pennsylvania,17011
543,"17011, Camp Hill, Pennsylvania",Camp Hill,Pennsylvania,17011
544,"Simpson Ferry Rd, Hampden Twp, Pennsylvania, 17011",Hampden Twp,Pennsylvania,17011
545,"Carlisle Pike, Hampden Twp, Pennsylvania, 17011",Hampden Twp,Pennsylvania,17011
546,"Carlisle Pike, Hampden Twp, Pennsylvania, 17011",Hampden Twp,Pennsylvania,17011
547,"E Trindle Rd, Hampden Twp, Pennsylvania, 17011",Hampden Twp,Pennsylvania,17011
548,"E Trindle Rd, Hampden Twp, Pennsylvania, 17011",Hampden Twp,Pennsylvania,17011
549,"17011, Camp Hill, Pennsylvania",Camp Hill,Pennsylvania,17011
550,"E Trindle Rd, Hampden Twp, Pennsylvania, 17011",Hampden Twp,Pennsylvania,17011
551,"Deerfield Rd, Lower Allen Twp, Pennsylvania, 17011",Lower Allen Twp,Pennsylvania,17011
552,"17011, Camp Hill, Pennsylvania",Camp Hill,Pennsylvania,17011
553,"17011, Camp Hill, Pennsylvania",Camp Hill,Pennsylvania,17011
554,"Carlisle Pike, Hampden Twp, Pennsylvania, 17011",Hampden Twp,Pennsylvania,17011
555,"Carlisle Pike, Hampden Twp, Pennsylvania, 17011",Hampden Twp,Pennsylvania,17011
556,"17011, Camp Hill, Pennsylvania",Camp Hill,Pennsylvania,17011
557,"Carlisle Pike, Hampden Twp, Pennsylvania, 17011",Hampden Twp,Pennsylvania,17011
558,"Deerfield Rd, Lower Allen Twp, Pennsylvania, 17011",Lower Allen Twp,Pennsylvania,17011
559,"17011, Camp Hill, Pennsylvania",Camp Hill,Pennsylvania,17011
560,"17011, Camp Hill, Pennsylvania",Camp Hill,Pennsylvania,17011
561,"17011, Camp Hill, Pennsylvania",Camp Hill,Pennsylvania,17011
562,"Deerfield Rd, Lower Allen Twp, Pennsylvania, 17011",Lower Allen Twp,Pennsylvania,17011
563,"Simpson Ferry Rd, Hampden Twp, Pennsylvania, 17011",Hampden Twp,Pennsylvania,17011
564,"E Trindle Rd, Hampden Twp, Pennsylvania, 17011",Hampden Twp,Pennsylvania,17011
565,"E Trindle Rd, Hampden Twp, Pennsylvania, 17011",Hampden Twp,Pennsylvania,17011
566,"E Trindle Rd, Hampden Twp, Pennsylvania, 17011",Hampden Twp,Pennsylvania,17011
567,"E Trindle Rd, Hampden Twp, Pennsylvania, 17011",Hampden Twp,Pennsylvania,17011
568,"Simpson Ferry Rd, Hampden Twp, Pennsylvania, 17011",Hampden Twp,Pennsylvania,17011
569,"Simpson Ferry Rd, Hampden Twp, Pennsylvania, 17011",Hampden Twp,Pennsylvania,17011
570,"Simpson Ferry Rd, Hampden Twp, Pennsylvania, 17011",Hampden Twp,Pennsylvania,17011
571,"Simpson Ferry Rd, Hampden Twp, Pennsylvania, 17011",Hampden Twp,Pennsylvania,17011
572,"E Trindle Rd, Hampden Twp, Pennsylvania, 17011",Hampden Twp,Pennsylvania,17011
573,"E Trindle Rd, Hampden Twp, Pennsylvania, 17011",Hampden Twp,Pennsylvania,17011
574,"Simpson Ferry Rd, Hampden Twp, Pennsylvania, 17011",Hampden Twp,Pennsylvania,17011
575,"Simpson Ferry Rd, Hampden Twp, Pennsylvania, 17011",Hampden Twp,Pennsylvania,17011
576,"Simpson Ferry Rd, Hampden Twp, Pennsylvania, 17011",Hampden Twp,Pennsylvania,17011
577,"E Trindle Rd, Hampden Twp, Pennsylvania, 17011",Hampden Twp,Pennsylvania,17011
578,"E Trindle Rd, Hampden Twp, Pennsylvania, 17011",Hampden Twp,Pennsylvania,17011
579,"Simpson Ferry Rd, Hampden Twp, Pennsylvania, 17011",Hampden Twp,Pennsylvania,17011
580,"E Trindle Rd, Hampden Twp, Pennsylvania, 17011",Hampden Twp,Pennsylvania,17011
581,"Simpson Ferry Rd, Hampden Twp, Pennsylvania, 17011",Hampden Twp,Pennsylvania,17011
582,"17011, Camp Hill, Pennsylvania",Camp Hill,Pennsylvania,17011
583,"E Trindle Rd, Hampden Twp, Pennsylvania, 17011",Hampden Twp,Pennsylvania,17011
584,"E Trindle Rd, Hampden Twp, Pennsylvania, 17011",Hampden Twp,Pennsylvania,17011
585,"Carlisle Pike, Hampden Twp, Pennsylvania, 17011",Hampden Twp,Pennsylvania,17011
586,"E Trindle Rd, Hampden Twp, Pennsylvania, 17011",Hampden Twp,Pennsylvania,17011
587,"17011, Camp Hill, Pennsylvania",Camp Hill,Pennsylvania,17011
588,"17011, Camp Hill, Pennsylvania",Camp Hill,Pennsylvania,17011
589,"E Trindle Rd, Hampden Twp, Pennsylvania, 17011",Hampden Twp,Pennsylvania,17011
590,"E Trindle Rd, Hampden Twp, Pennsylvania, 17011",Hampden Twp,Pennsylvania,17011
591,"Simpson Ferry Rd, Hampden Twp, Pennsylvania, 17011",Hampden Twp,Pennsylvania,17011
592,"Simpson Ferry Rd, Hampden Twp, Pennsylvania, 17011",Hampden Twp,Pennsylvania,17011
593,"E Trindle Rd, Hampden Twp, Pennsylvania, 17011",Hampden Twp,Pennsylvania,17011
594,"E Trindle Rd, Hampden Twp, Pennsylvania, 17011",Hampden Twp,Pennsylvania,17011
595,"E Trindle Rd, Hampden Twp, Pennsylvania, 17011",Hampden Twp,Pennsylvania,17011
596,"E Trindle Rd, Hampden Twp, Pennsylvania, 17011",Hampden Twp,Pennsylvania,17011
597,"Simpson Ferry Rd, Hampden Twp, Pennsylvania, 17011",Hampden Twp,Pennsylvania,17011
598,"Simpson Ferry Rd, Hampden Twp, Pennsylvania, 17011",Hampden Twp,Pennsylvania,17011
599,"Simpson Ferry Rd, Hampden Twp, Pennsylvania, 17011",Hampden Twp,Pennsylvania,17011
600,"Simpson Ferry Rd, Hampden Twp, Pennsylvania, 17011",Hampden Twp,Pennsylvania,17011
601,"Simpson Ferry Rd, Hampden Twp, Pennsylvania, 17011",Hampden Twp,Pennsylvania,17011
602,"E Trindle Rd, Hampden Twp, Pennsylvania, 17011",Hampden Twp,Pennsylvania,17011
603,"Deerfield Rd, Lower Allen Twp, Pennsylvania, 17011",Lower Allen Twp,Pennsylvania,17011
604,"17011, Camp Hill, Pennsylvania",Camp Hill,Pennsylvania,17011
605,"E Trindle Rd, Hampden Twp, Pennsylvania, 17011",Hampden Twp,Pennsylvania,17011
606,"Simpson Ferry Rd, Hampden Twp, Pennsylvania, 17011",Hampden Twp,Pennsylvania,17011
607,"E Trindle Rd, Hampden Twp, Pennsylvania, 17011",Hampden Twp,Pennsylvania,17011
608,"E Trindle Rd, Hampden Twp, Pennsylvania, 17011",Hampden Twp,Pennsylvania,17011
609,"17011, Camp Hill, Pennsylvania",Camp Hill,Pennsylvania,17011
610,"Simpson Ferry Rd, Hampden Twp, Pennsylvania, 17011",Hampden Twp,Pennsylvania,17011
611,"E Trindle Rd, Hampden Twp, Pennsylvania, 17011",Hampden Twp,Pennsylvania,17011
612,"E Trindle Rd, Hampden Twp, Pennsylvania, 17011",Hampden Twp,Pennsylvania,17011
613,"E Trindle Rd, Hampden Twp, Pennsylvania, 17011",Hampden Twp,Pennsylvania,17011
614,"E Trindle Rd, Hampden Twp, Pennsylvania, 17011",Hampden Twp,Pennsylvania,17011
615,"E Trindle Rd, Hampden Twp, Pennsylvania, 17011",Hampden Twp,Pennsylvania,17011
616,"Carlisle Pike, Hampden Twp, Pennsylvania, 17011",Hampden Twp,Pennsylvania,17011
617,"Carlisle Pike, Hampden Twp, Pennsylvania, 17011",Hampden Twp,Pennsylvania,17011
618,"Simpson Ferry Rd, Hampden Twp, Pennsylvania, 17011",Hampden Twp,Pennsylvania,17011
619,"17011, Camp Hill, Pennsylvania",Camp Hill,Pennsylvania,17011
620,"Simpson Ferry Rd, Hampden Twp, Pennsylvania, 17011",Hampden Twp,Pennsylvania,17011
621,"E Trindle Rd, Hampden Twp, Pennsylvania, 17011",Hampden Twp,Pennsylvania,17011
622,"Simpson Ferry Rd, Hampden Twp, Pennsylvania, 17011",Hampden Twp,Pennsylvania,17011
623,"17011, Camp Hill, Pennsylvania",Camp Hill,Pennsylvania,17011
624,"Carlisle Pike, Hampden Twp, Pennsylvania, 17011",Hampden Twp,Pennsylvania,17011
625,"Westbury Ct, Lower Allen Twp, Pennsylvania, 17011",Lower Allen Twp,Pennsylvania,17011
626,"Carlisle Pike, Hampden Twp, Pennsylvania, 17011",Hampden Twp,Pennsylvania,17011
627,"Carlisle Pike, Hampden Twp, Pennsylvania, 17011",Hampden Twp,Pennsylvania,17011
628,"Carlisle Pike, Hampden Twp, Pennsylvania, 17011",Hampden Twp,Pennsylvania,17011
629,"Carlisle Pike, Hampden Twp, Pennsylvania, 17011",Hampden Twp,Pennsylvania,17011
630,"Carlisle Pike, Hampden Twp, Pennsylvania, 17011",Hampden Twp,Pennsylvania,17011
631,"Carlisle Pike, Hampden Twp, Pennsylvania, 17011",Hampden Twp,Pennsylvania,17011
632,"Carlisle Pike, Hampden Twp, Pennsylvania, 17011",Hampden Twp,Pennsylvania,17011
633,"Carlisle Pike, Hampden Twp, Pennsylvania, 17011",Hampden Twp,Pennsylvania,17011
634,"17011, Camp Hill, Pennsylvania",Camp Hill,Pennsylvania,17011
635,"Carlisle Pike, Hampden Twp, Pennsylvania, 17011",Hampden Twp,Pennsylvania,17011
636,"Carlisle Pike, Hampden Twp, Pennsylvania, 17011",Hampden Twp,Pennsylvania,17011
637,"17011, Camp Hill, Pennsylvania",Camp Hill,Pennsylvania,17011
638,"Carlisle Pike, Hampden Twp, Pennsylvania, 17011",Hampden Twp,Pennsylvania,17011
639,"17011, Camp Hill, Pennsylvania",Camp Hill,Pennsylvania,17011
640,"Carlisle Pike, Hampden Twp, Pennsylvania, 17011",Hampden Twp,Pennsylvania,17011
641,"Westbury Ct, Lower Allen Twp, Pennsylvania, 17011",Lower Allen Twp,Pennsylvania,17011
642,"Carlisle Pike, Hampden Twp, Pennsylvania, 17011",Hampden Twp,Pennsylvania,17011
643,"Carlisle Pike, Hampden Twp, Pennsylvania, 17011",Hampden Twp,Pennsylvania,17011
644,"Carlisle Pike, Hampden Twp, Pennsylvania, 17011",Hampden Twp,Pennsylvania,17011
645,"Carlisle Pike, Hampden Twp, Pennsylvania, 17011",Hampden Twp,Pennsylvania,17011
646,"Carlisle Pike, Hampden Twp, Pennsylvania, 17011",Hampden Twp,Pennsylvania,17011
647,"17011, Camp Hill, Pennsylvania",Camp Hill,Pennsylvania,17011
648,"Carlisle Pike, Hampden Twp, Pennsylvania, 17011",Hampden Twp,Pennsylvania,17011
649,"Carlisle Pike, Hampden Twp, Pennsylvania, 17011",Hampden Twp,Pennsylvania,17011
650,"Carlisle Pike, Hampden Twp, Pennsylvania, 17011",Hampden Twp,Pennsylvania,17011
651,"Carlisle Pike, Hampden Twp, Pennsylvania, 17011",Hampden Twp,Pennsylvania,17011
652,"Carlisle Pike, Hampden Twp, Pennsylvania, 17011",Hampden Twp,Pennsylvania,17011
653,"Carlisle Pike, Hampden Twp, Pennsylvania, 17011",Hampden Twp,Pennsylvania,17011
654,"Carlisle Pike, Hampden Twp, Pennsylvania, 17011",Hampden Twp,Pennsylvania,17011
655,"Charlton, Gore",Gore,,
656,"Carlisle Pike, Hampden Twp, Pennsylvania, 17011",Hampden Twp,Pennsylvania,17011
657,"17011, Camp Hill, Pennsylvania",Camp Hill,Pennsylvania,17011
658,"17011, Camp Hill, Pennsylvania",Camp Hill,Pennsylvania,17011
659,"17011, Camp Hill, Pennsylvania",Camp Hill,Pennsylvania,17011
660,"17011, Camp Hill, Pennsylvania",Camp Hill,Pennsylvania,17011
661,"Carlisle Pike, Hampden Twp, Pennsylvania, 17011",Hampden Twp,Pennsylvania,17011
662,"Westbury Ct, Lower Allen Twp, Pennsylvania, 17011",Lower Allen Twp,Pennsylvania,17011
663,"Stephen Rd, East Pennsboro Twp, Pennsylvania, 17011",East Pennsboro Twp,Pennsylvania,17011
664,"Stephen Rd, East Pennsboro Twp, Pennsylvania, 17011",East Pennsboro Twp,Pennsylvania,17011
665,"17011, Camp Hill, Pennsylvania",Camp Hill,Pennsylvania,17011
666,"Carlisle Pike, Hampden Twp, Pennsylvania, 17011",Hampden Twp,Pennsylvania,17011
667,"Carlisle Pike, Hampden Twp, Pennsylvania, 17011",Hampden Twp,Pennsylvania,17011
668,"Carlisle Pike, Hampden Twp, Pennsylvania, 17011",Hampden Twp,Pennsylvania,17011
669,"Carlisle Pike, Hampden Twp, Pennsylvania, 17011",Hampden Twp,Pennsylvania,17011
670,"Carlisle Pike, Hampden Twp, Pennsylvania, 17011",Hampden Twp,Pennsylvania,17011
671,"Carlisle Pike, Hampden Twp, Pennsylvania, 17011",Hampden Twp,Pennsylvania,17011
672,"17011, Camp Hill, Pennsylvania",Camp Hill,Pennsylvania,17011
673,"Carlisle Pike, Hampden Twp, Pennsylvania, 17011",Hampden Twp,Pennsylvania,17011
674,"Carlisle Pike, Hampden Twp, Pennsylvania, 17011",Hampden Twp,Pennsylvania,17011
675,"Carlisle Pike, Hampden Twp, Pennsylvania, 17011",Hampden Twp,Pennsylvania,17011
676,"17011, Camp Hill, Pennsylvania",Camp Hill,Pennsylvania,17011
677,"17011, Camp Hill, Pennsylvania",Camp Hill,Pennsylvania,17011
678,"17011, Camp Hill, Pennsylvania",Camp Hill,Pennsylvania,17011
679,"17011, Camp Hill, Pennsylvania",Camp Hill,Pennsylvania,17011
680,"Carlisle Pike, Hampden Twp, Pennsylvania, 17011",Hampden Twp,Pennsylvania,17011
681,"17011, Camp Hill, Pennsylvania",Camp Hill,Pennsylvania,17011
682,"17011, Camp Hill, Pennsylvania",Camp Hill,Pennsylvania,17011
683,"Locust Rd, Lower Allen Twp, Pennsylvania, 17011",Lower Allen Twp,Pennsylvania,17011
684,"Carlisle Pike, Hampden Twp, Pennsylvania, 17011",Hampden Twp,Pennsylvania,17011
685,"17011, Camp Hill, Pennsylvania",Camp Hill,Pennsylvania,17011
686,,,,
687,"17011, Camp Hill, Pennsylvania",Camp Hill,Pennsylvania,17011
688,,,,
689,"17011, Camp Hill, Pennsylvania",Camp Hill,Pennsylvania,17011
690,"Carlisle Pike, Hampden Twp, Pennsylvania, 17011",Hampden Twp,Pennsylvania,17011
691,"17011, Camp Hill, Pennsylvania",Camp Hill,Pennsylvania,17011
692,"17011, Camp Hill, Pennsylvania",Camp Hill,Pennsylvania,17011
693,"17011, Camp Hill, Pennsylvania",Camp Hill,Pennsylvania,17011
694,"Wallingford, Waipukurau",Waipukurau,,
695,"17011, Camp Hill, Pennsylvania",Camp Hill,Pennsylvania,17011
696,"Carlisle Pike, Hampden Twp, Pennsylvania, 17011",Hampden Twp,Pennsylvania,17011
697,"17011, Camp Hill, Pennsylvania",Camp Hill,Pennsylvania,17011
698,"17011, Camp Hill, Pennsylvania",Camp Hill,Pennsylvania,17011
699,"Carlisle Pike, Hampden Twp, Pennsylvania, 17011",Hampden Twp,Pennsylvania,17011
700,"17011, Camp Hill, Pennsylvania",Camp Hill,Pennsylvania,17011
701,"Carlisle Pike, Hampden Twp, Pennsylvania, 17011",Hampden Twp,Pennsylvania,17011
702,"Carlisle Pike, Hampden Twp, Pennsylvania, 17011",Hampden Twp,Pennsylvania,17011
703,"Crofton, Marton",Marton,,
704,"17011, Camp Hill, Pennsylvania",Camp Hill,Pennsylvania,17011
705,"Carlisle Pike, Hampden Twp, Pennsylvania, 17011",Hampden Twp,Pennsylvania,17011
706,"Carlisle Pike, Hampden Twp, Pennsylvania, 17011",Hampden Twp,Pennsylvania,17011
707,"Carlisle Pike, Hampden Twp, Pennsylvania, 17011",Hampden Twp,Pennsylvania,17011
708,"17011, Camp Hill, Pennsylvania",Camp Hill,Pennsylvania,17011
709,"17011, Camp Hill, Pennsylvania",Camp Hill,Pennsylvania,17011
710,"17011, Camp Hill, Pennsylvania",Camp Hill,Pennsylvania,17011
711,"17011, Camp Hill, Pennsylvania",Camp Hill,Pennsylvania,17011
712,"Crofton, Marton",Marton,,
713,"17011, Camp Hill, Pennsylvania",Camp Hill,Pennsylvania,17011
714,"17011, Camp Hill, Pennsylvania",Camp Hill,Pennsylvania,17011
715,"17011, Camp Hill, Pennsylvania",Camp Hill,Pennsylvania,17011
716,"Carlisle Pike, Hampden Twp, Pennsylvania, 17011",Hampden Twp,Pennsylvania,17011
717,"Carlisle Pike, Hampden Twp, Pennsylvania, 17011",Hampden Twp,Pennsylvania,17011
718,"Carlisle Pike, Hampden Twp, Pennsylvania, 17011",Hampden Twp,Pennsylvania,17011
719,"Locust Rd, Lower Allen Twp, Pennsylvania, 17011",Lower Allen Twp,Pennsylvania,17011
720,"Locust Rd, Lower Allen Twp, Pennsylvania, 17011",Lower Allen Twp,Pennsylvania,17011
721,"Carlisle Pike, Hampden Twp, Pennsylvania, 17011",Hampden Twp,Pennsylvania,17011
722,"17011, Camp Hill, Pennsylvania",Camp Hill,Pennsylvania,17011
723,"17011, Camp Hill, Pennsylvania",Camp Hill,Pennsylvania,17011
724,"17011, Camp Hill, Pennsylvania",Camp Hill,Pennsylvania,17011
725,"17011, Camp Hill, Pennsylvania",Camp Hill,Pennsylvania,17011
726,"Carlisle Pike, Hampden Twp, Pennsylvania, 17011",Hampden Twp,Pennsylvania,17011
727,"17011, Camp Hill, Pennsylvania",Camp Hill,Pennsylvania,17011
728,"Carlisle Pike, Hampden Twp, Pennsylvania, 17011",Hampden Twp,Pennsylvania,17011
729,"17011, Camp Hill, Pennsylvania",Camp Hill,Pennsylvania,17011
730,"17011, Camp Hill, Pennsylvania",Camp Hill,Pennsylvania,17011
731,"Brandy Cir, East Pennsboro Twp, Pennsylvania, 17011",East Pennsboro Twp,Pennsylvania,17011
732,"Stephen Rd, East Pennsboro Twp, Pennsylvania, 17011",East Pennsboro Twp,Pennsylvania,17011
733,"17011, Camp Hill, Pennsylvania",Camp Hill,Pennsylvania,17011
734,"17011, Camp Hill, Pennsylvania",Camp Hill,Pennsylvania,17011
735,"17011, Camp Hill, Pennsylvania",Camp Hill,Pennsylvania,17011
736,"17011, Camp Hill, Pennsylvania",Camp Hill,Pennsylvania,17011
737,"17011, Camp Hill, Pennsylvania",Camp Hill,Pennsylvania,17011
738,"Glenwood Ave, Lower Allen Twp, Pennsylvania, 17011",Lower Allen Twp,Pennsylvania,17011
739,"17011, Camp Hill, Pennsylvania",Camp Hill,Pennsylvania,17011
740,"Carlisle Pike, Hampden Twp, Pennsylvania, 17011",Hampden Twp,Pennsylvania,17011
741,"Glenwood Ave, Lower Allen Twp, Pennsylvania, 17011",Lower Allen Twp,Pennsylvania,17011
742,"17011, Camp Hill, Pennsylvania",Camp Hill,Pennsylvania,17011
743,"Glenwood Ave, Lower Allen Twp, Pennsylvania, 17011",Lower Allen Twp,Pennsylvania,17011
744,"17011, Camp Hill, Pennsylvania",Camp Hill,Pennsylvania,17011
745,"Glenwood Ave, Lower Allen Twp, Pennsylvania, 17011",Lower Allen Twp,Pennsylvania,17011
746,"17011, Camp Hill, Pennsylvania",Camp Hill,Pennsylvania,17011
747,,,,
748,"Old Farm Rd, Hampden Twp, Pennsylvania, 17011",Hampden Twp,Pennsylvania,17011
749,"17011, Camp Hill, Pennsylvania",Camp Hill,Pennsylvania,17011
750,"Kensington Dr, Lower Allen Twp, Pennsylvania, 17011",Lower Allen Twp,Pennsylvania,17011
751,"17011, Camp Hill, Pennsylvania",Camp Hill,Pennsylvania,17011
752,"Central Blvd, Hampden Twp, Pennsylvania, 17011",Hampden Twp,Pennsylvania,17011
753,"17011, Camp Hill, Pennsylvania",Camp Hill,Pennsylvania,17011
754,"17011, Camp Hill, Pennsylvania",Camp Hill,Pennsylvania,17011
755,"17011, Camp Hill, Pennsylvania",Camp Hill,Pennsylvania,17011
756,"Kevin Ct, Wormleysburg, Pennsylvania, 17011",Wormleysburg,Pennsylvania,17011
757,"Dogwood Ct, Hampden Twp, Pennsylvania, 17011",Hampden Twp,Pennsylvania,17011
758,,,,
759,"17011, Camp Hill, Pennsylvania",Camp Hill,Pennsylvania,17011
760,"17011, Camp Hill, Pennsylvania",Camp Hill,Pennsylvania,17011
761,"Mandy Ct, Hampden Twp, Pennsylvania, 17011",Hampden Twp,Pennsylvania,17011
762,"Kevin Ct, Wormleysburg, Pennsylvania, 17011",Wormleysburg,Pennsylvania,17011
763,"17011, Camp Hill, Pennsylvania",Camp Hill,Pennsylvania,17011
764,"Old Pioneer Rd, Hampden Twp, Pennsylvania, 17011",Hampden Twp,Pennsylvania,17011
765,"17011, Camp Hill, Pennsylvania",Camp Hill,Pennsylvania,17011
766,"17011, Camp Hill, Pennsylvania",Camp Hill,Pennsylvania,17011
767,"Sunset Way, Hampden Twp, Pennsylvania, 17011",Hampden Twp,Pennsylvania,17011
768,"17011, Camp Hill, Pennsylvania",Camp Hill,Pennsylvania,17011
769,"150 Linden Dr, Lower Allen Twp, Pennsylvania, 17011",Lower Allen Twp,Pennsylvania,17011
770,"17011, Camp Hill, Pennsylvania",Camp Hill,Pennsylvania,17011
771,"Round Hill Rd, East Pennsboro Twp, Pennsylvania, 17011",East Pennsboro Twp,Pennsylvania,17011
772,"S 39th St, Hampden Twp, Pennsylvania, 17011",Hampden Twp,Pennsylvania,17011
773,"Village Rd, Lower Allen Twp, Pennsylvania, 17011",Lower Allen Twp,Pennsylvania,17011
774,"Dogwood Ct, Hampden Twp, Pennsylvania, 17011",Hampden Twp,Pennsylvania,17011
775,"150 Oak Dr, Fairview Twp, Pennsylvania, 17011",Fairview Twp,Pennsylvania,17011
776,"Vine Cir, Hampden Twp, Pennsylvania, 17011",Hampden Twp,Pennsylvania,17011
777,"150 Oak Dr, Fairview Twp, Pennsylvania, 17011",Fairview Twp,Pennsylvania,17011
778,"17011, Camp Hill, Pennsylvania",Camp Hill,Pennsylvania,17011
779,"17011, Camp Hill, Pennsylvania",Camp Hill,Pennsylvania,17011
780,"Round Hill Rd, East Pennsboro Twp, Pennsylvania, 17011",East Pennsboro Twp,Pennsylvania,17011
781,"Kensington Dr, Lower Allen Twp, Pennsylvania, 17011",Lower Allen Twp,Pennsylvania,17011
782,"Round Hill Rd, East Pennsboro Twp, Pennsylvania, 17011",East Pennsboro Twp,Pennsylvania,17011
783,"17011, Camp Hill, Pennsylvania",Camp Hill,Pennsylvania,17011
784,"17011, Camp Hill, Pennsylvania",Camp Hill,Pennsylvania,17011
785,"17011, Camp Hill, Pennsylvania",Camp Hill,Pennsylvania,17011
786,"17011, Camp Hill, Pennsylvania",Camp Hill,Pennsylvania,17011
787,"17011, Camp Hill, Pennsylvania",Camp Hill,Pennsylvania,17011
788,"Chestnut Cir, Hampden Twp, Pennsylvania, 17011",Hampden Twp,Pennsylvania,17011
789,"17011, Camp Hill, Pennsylvania",Camp Hill,Pennsylvania,17011
790,"17011, Camp Hill, Pennsylvania",Camp Hill,Pennsylvania,17011
791,"17011, Camp Hill, Pennsylvania",Camp Hill,Pennsylvania,17011
792,"17011, Camp Hill, Pennsylvania",Camp Hill,Pennsylvania,17011
793,"17011, Camp Hill, Pennsylvania",Camp Hill,Pennsylvania,17011
794,"10, Sel?uklu, Konya",Sel?uklu,Konya,
795,"115 St Johns Church Rd, Camp Hill, Pennsylvania, 17011",Camp Hill,Pennsylvania,17011
796,"17011, Camp Hill, Pennsylvania",Camp Hill,Pennsylvania,17011
797,"17011, Camp Hill, Pennsylvania",Camp Hill,Pennsylvania,17011
798,"17011, Camp Hill, Pennsylvania",Camp Hill,Pennsylvania,17011
799,"17011, Camp Hill, Pennsylvania",Camp Hill,Pennsylvania,17011
800,"17011, Camp Hill, Pennsylvania",Camp Hill,Pennsylvania,17011
801,"301 Railroad Ave, Camp Hill, Pennsylvania, 17011",Camp Hill,Pennsylvania,17011
802,"301 Railroad Ave, Camp Hill, Pennsylvania, 17011",Camp Hill,Pennsylvania,17011
803,"17011, Camp Hill, Pennsylvania",Camp Hill,Pennsylvania,17011
804,"17011, Camp Hill, Pennsylvania",Camp Hill,Pennsylvania,17011
805,"405 St Johns Church Rd, Camp Hill, Pennsylvania, 17011",Camp Hill,Pennsylvania,17011
806,"405 St Johns Church Rd, Camp Hill, Pennsylvania, 17011",Camp Hill,Pennsylvania,17011
807,"410 Fallowfield Rd, Camp Hill, Pennsylvania, 17011",Camp Hill,Pennsylvania,17011
808,"410 Fallowfield Rd, Camp Hill, Pennsylvania, 17011",Camp Hill,Pennsylvania,17011
809,"410 Fallowfield Rd, Camp Hill, Pennsylvania, 17011",Camp Hill,Pennsylvania,17011
810,"410 Fallowfield Rd, Camp Hill, Pennsylvania, 17011",Camp Hill,Pennsylvania,17011
811,"17011, Camp Hill, Pennsylvania",Camp Hill,Pennsylvania,17011
812,"410 Fallowfield Rd, Camp Hill, Pennsylvania, 17011",Camp Hill,Pennsylvania,17011
813,"17011, Camp Hill, Pennsylvania",Camp Hill,Pennsylvania,17011
814,"17011, Camp Hill, Pennsylvania",Camp Hill,Pennsylvania,17011
815,"410 Fallowfield Rd, Camp Hill, Pennsylvania, 17011",Camp Hill,Pennsylvania,17011
816,"410 Fallowfield Rd, Camp Hill, Pennsylvania, 17011",Camp Hill,Pennsylvania,17011
817,"410 Fallowfield Rd, Camp Hill, Pennsylvania, 17011",Camp Hill,Pennsylvania,17011
818,"410 Fallowfield Rd, Camp Hill, Pennsylvania, 17011",Camp Hill,Pennsylvania,17011
819,"410 Fallowfield Rd, Camp Hill, Pennsylvania, 17011",Camp Hill,Pennsylvania,17011
820,"410 Fallowfield Rd, Camp Hill, Pennsylvania, 17011",Camp Hill,Pennsylvania,17011
821,"410 Fallowfield Rd, Camp Hill, Pennsylvania, 17011",Camp Hill,Pennsylvania,17011
822,"410 Fallowfield Rd, Hampden Twp, Pennsylvania, 17011",Hampden Twp,Pennsylvania,17011
823,"17011, Camp Hill, Pennsylvania",Camp Hill,Pennsylvania,17011
824,"415 St Johns Church Rd, Camp Hill, Pennsylvania, 17011",Camp Hill,Pennsylvania,17011
825,"17011, Camp Hill, Pennsylvania",Camp Hill,Pennsylvania,17011
826,"420 St Johns Church Rd, Hampden Twp, Pennsylvania, 17011",Hampden Twp,Pennsylvania,17011
827,"431 Railroad Ave, Hampden Twp, Pennsylvania, 17011",Hampden Twp,Pennsylvania,17011
828,"451 Freight St, Camp Hill, Pennsylvania, 17011",Camp Hill,Pennsylvania,17011
829,"17011, Camp Hill, Pennsylvania",Camp Hill,Pennsylvania,17011
830,"17011, Camp Hill, Pennsylvania",Camp Hill,Pennsylvania,17011
831,"460 Sterling St, Camp Hill, Pennsylvania, 17011",Camp Hill,Pennsylvania,17011
832,"460 Sterling St, Camp Hill, Pennsylvania, 17011",Camp Hill,Pennsylvania,17011
833,"17011, Camp Hill, Pennsylvania",Camp Hill,Pennsylvania,17011
834,"17011, Camp Hill, Pennsylvania",Camp Hill,Pennsylvania,17011
835,"17011, Camp Hill, Pennsylvania",Camp Hill,Pennsylvania,17011
836,"17011, Camp Hill, Pennsylvania",Camp Hill,Pennsylvania,17011
837,"17011, Camp Hill, Pennsylvania",Camp Hill,Pennsylvania,17011
838,"17011, Camp Hill, Pennsylvania",Camp Hill,Pennsylvania,17011
839,"17011, Camp Hill, Pennsylvania",Camp Hill,Pennsylvania,17011
840,"17011, Camp Hill, Pennsylvania",Camp Hill,Pennsylvania,17011
841,"17011, Camp Hill, Pennsylvania",Camp Hill,Pennsylvania,17011
842,"17011, Camp Hill, Pennsylvania",Camp Hill,Pennsylvania,17011
843,"17011, Camp Hill, Pennsylvania",Camp Hill,Pennsylvania,17011
844,"17011, Camp Hill, Pennsylvania",Camp Hill,Pennsylvania,17011
845,"17011, Camp Hill, Pennsylvania",Camp Hill,Pennsylvania,17011
846,"17011, Camp Hill, Pennsylvania",Camp Hill,Pennsylvania,17011
847,"17011, Camp Hill, Pennsylvania",Camp Hill,Pennsylvania,17011
848,"17011, Camp Hill, Pennsylvania",Camp Hill,Pennsylvania,17011
849,"17011, Camp Hill, Pennsylvania",Camp Hill,Pennsylvania,17011
850,"17011, Camp Hill, Pennsylvania",Camp Hill,Pennsylvania,17011
851,"3431 Simpson Ferry Rd, Camp Hill, Pennsylvania, 17011",Camp Hill,Pennsylvania,17011
852,"3431 Simpson Ferry Rd, Camp Hill, Pennsylvania, 17011",Camp Hill,Pennsylvania,17011
853,"3431 Simpson Ferry Rd, Lower Allen Twp, Pennsylvania, 17011",Lower Allen Twp,Pennsylvania,17011
854,"3431 Simpson Ferry Rd, Lower Allen Twp, Pennsylvania, 17011",Lower Allen Twp,Pennsylvania,17011
855,"3431 Simpson Ferry Rd, Camp Hill, Pennsylvania, 17011",Camp Hill,Pennsylvania,17011
856,"3431 Simpson Ferry Rd, Camp Hill, Pennsylvania, 17011",Camp Hill,Pennsylvania,17011
857,"3442 Simpson Ferry Rd, Camp Hill, Pennsylvania, 17011",Camp Hill,Pennsylvania,17011
858,"3442 Simpson Ferry Rd, Camp Hill, Pennsylvania, 17011",Camp Hill,Pennsylvania,17011
859,"3447 Simpson Ferry Rd, Camp Hill, Pennsylvania, 17011",Camp Hill,Pennsylvania,17011
860,"3449 Simpson Ferry Rd, Lower Allen Twp, Pennsylvania, 17011",Lower Allen Twp,Pennsylvania,17011
861,"3451 Simpson Ferry Rd, Camp Hill, Pennsylvania, 17011",Camp Hill,Pennsylvania,17011
862,"17011, Camp Hill, Pennsylvania",Camp Hill,Pennsylvania,17011
863,"3512 Market St, Camp Hill, Pennsylvania, 17011",Camp Hill,Pennsylvania,17011
864,"3512 Market St, Camp Hill, Pennsylvania, 17011",Camp Hill,Pennsylvania,17011
865,"3512 Market St, Camp Hill, Pennsylvania, 17011",Camp Hill,Pennsylvania,17011
866,"3512 Market St, Camp Hill, Pennsylvania, 17011",Camp Hill,Pennsylvania,17011
867,"3512 Market St, Camp Hill, Pennsylvania, 17011",Camp Hill,Pennsylvania,17011
868,"3512 Market St, Camp Hill, Pennsylvania, 17011",Camp Hill,Pennsylvania,17011
869,"3512 Market St, Camp Hill, Pennsylvania, 17011",Camp Hill,Pennsylvania,17011
870,"3512 Market St, Camp Hill, Pennsylvania, 17011",Camp Hill,Pennsylvania,17011
871,"3512 Market St, Camp Hill, Pennsylvania, 17011",Camp Hill,Pennsylvania,17011
872,"3512 Market St, Camp Hill, Pennsylvania, 17011",Camp Hill,Pennsylvania,17011
873,"3512 Market St, Camp Hill, Pennsylvania, 17011",Camp Hill,Pennsylvania,17011
874,"3512 Market St, Camp Hill, Pennsylvania, 17011",Camp Hill,Pennsylvania,17011
875,"3512 Trindle Rd, Camp Hill, Pennsylvania, 17011",Camp Hill,Pennsylvania,17011
876,"3512 Market St, Camp Hill, Pennsylvania, 17011",Camp Hill,Pennsylvania,17011
877,"3543 Simpson Ferry Rd, Camp Hill, Pennsylvania, 17011",Camp Hill,Pennsylvania,17011
878,"3543 Simpson Ferry Rd, Camp Hill, Pennsylvania, 17011",Camp Hill,Pennsylvania,17011
879,"3543 Simpson Ferry Rd, Camp Hill, Pennsylvania, 17011",Camp Hill,Pennsylvania,17011
880,"3543 Simpson Ferry Rd, Camp Hill, Pennsylvania, 17011",Camp Hill,Pennsylvania,17011
881,"3543 Simpson Ferry Rd, Camp Hill, Pennsylvania, 17011",Camp Hill,Pennsylvania,17011
882,"E Trindle Rd, Camp Hill, Pennsylvania, 17011",Camp Hill,Pennsylvania,17011
883,"3721 Market St, Camp Hill, Pennsylvania, 17011",Camp Hill,Pennsylvania,17011
884,"3730 Market St, Camp Hill, Pennsylvania, 17011",Camp Hill,Pennsylvania,17011
885,"3780 Trindle Rd, Camp Hill, Pennsylvania, 17011",Camp Hill,Pennsylvania,17011
886,"3806 Market St, Camp Hill, Pennsylvania, 17011",Camp Hill,Pennsylvania,17011
887,"17011, Camp Hill, Pennsylvania",Camp Hill,Pennsylvania,17011
888,"3901 Trindle Rd, Camp Hill, Pennsylvania, 17011",Camp Hill,Pennsylvania,17011
889,"3901 Trindle Rd, Camp Hill, Pennsylvania, 17011",Camp Hill,Pennsylvania,17011
890,"3907 Market St, Camp Hill, Pennsylvania, 17011",Camp Hill,Pennsylvania,17011
891,3925,,,3925
892,3925,,,3925
893,"4230 Trindle Rd, Camp Hill, Pennsylvania, 17011",Camp Hill,Pennsylvania,17011
894,"4230 Trindle Rd, Camp Hill, Pennsylvania, 17011",Camp Hill,Pennsylvania,17011
895,"17011, Camp Hill, Pennsylvania",Camp Hill,Pennsylvania,17011
896,04401-000,,,04401-000
897,"4415 Carlisle Pike, Camp Hill, Pennsylvania, 17011",Camp Hill,Pennsylvania,17011
898,"4501 E Trindle Rd, Camp Hill, Pennsylvania, 17011",Camp Hill,Pennsylvania,17011
899,"17011, Camp Hill, Pennsylvania",Camp Hill,Pennsylvania,17011
900,"17011, Camp Hill, Pennsylvania",Camp Hill,Pennsylvania,17011
901,"17011, Camp Hill, Pennsylvania",Camp Hill,Pennsylvania,17011
902,"17011, Camp Hill, Pennsylvania",Camp Hill,Pennsylvania,17011
903,"17011, Camp Hill, Pennsylvania",Camp Hill,Pennsylvania,17011
904,"17011, Camp Hill, Pennsylvania",Camp Hill,Pennsylvania,17011
905,"17011, Camp Hill, Pennsylvania",Camp Hill,Pennsylvania,17011
906,"17011, Camp Hill, Pennsylvania",Camp Hill,Pennsylvania,17011
907,"17011, Camp Hill, Pennsylvania",Camp Hill,Pennsylvania,17011
908,"17011, Camp Hill, Pennsylvania",Camp Hill,Pennsylvania,17011
909,"17011, Camp Hill, Pennsylvania",Camp Hill,Pennsylvania,17011
910,"Carlisle Pike, Camp Hill, Pennsylvania, 17011",Camp Hill,Pennsylvania,17011
911,"Carlisle Pike, Camp Hill, Pennsylvania, 17011",Camp Hill,Pennsylvania,17011
912,"E Trindle Rd, Camp Hill, Pennsylvania, 17011",Camp Hill,Pennsylvania,17011
913,"E Trindle Rd, Camp Hill, Pennsylvania, 17011",Camp Hill,Pennsylvania,17011
914,"17011, Camp Hill, Pennsylvania",Camp Hill,Pennsylvania,17011
915,"17011, Camp Hill, Pennsylvania",Camp Hill,Pennsylvania,17011
916,"17011, Camp Hill, Pennsylvania",Camp Hill,Pennsylvania,17011
917,"17011, Camp Hill, Pennsylvania",Camp Hill,Pennsylvania,17011
918,"17011, Camp Hill, Pennsylvania",Camp Hill,Pennsylvania,17011
919,"E Trindle Rd, Camp Hill, Pennsylvania, 17011",Camp Hill,Pennsylvania,17011
920,"Carlisle Pike, Camp Hill, Pennsylvania, 17011",Camp Hill,Pennsylvania,17011
921,"17011, Camp Hill, Pennsylvania",Camp Hill,Pennsylvania,17011
922,"Carlisle Pike, Camp Hill, Pennsylvania, 17011",Camp Hill,Pennsylvania,17011
923,"Carlisle Pike, Hampden Twp, Pennsylvania, 17011",Hampden Twp,Pennsylvania,17011
924,"Carlisle Pike, Camp Hill, Pennsylvania, 17011",Camp Hill,Pennsylvania,17011
925,"Carlisle Pike, Camp Hill, Pennsylvania, 17011",Camp Hill,Pennsylvania,17011
926,"Carlisle Pike, Camp Hill, Pennsylvania, 17011",Camp Hill,Pennsylvania,17011
927,"Carlisle Pike, Camp Hill, Pennsylvania, 17011",Camp Hill,Pennsylvania,17011
928,"Carlisle Pike, Camp Hill, Pennsylvania, 17011",Camp Hill,Pennsylvania,17011
929,"Carlisle Pike, Camp Hill, Pennsylvania, 17011",Camp Hill,Pennsylvania,17011
930,"Carlisle Pike, Camp Hill, Pennsylvania, 17011",Camp Hill,Pennsylvania,17011
931,"Carlisle Pike, Camp Hill, Pennsylvania, 17011",Camp Hill,Pennsylvania,17011
932,"Carlisle Pike, Camp Hill, Pennsylvania, 17011",Camp Hill,Pennsylvania,17011
933,"Carlisle Pike, Camp Hill, Pennsylvania, 17011",Camp Hill,Pennsylvania,17011
934,"Carlisle Pike, Camp Hill, Pennsylvania, 17011",Camp Hill,Pennsylvania,17011
935,"Carlisle Pike, Camp Hill, Pennsylvania, 17011",Camp Hill,Pennsylvania,17011
936,"Carlisle Pike, Camp Hill, Pennsylvania, 17011",Camp Hill,Pennsylvania,17011
937,"17011, Camp Hill, Pennsylvania",Camp Hill,Pennsylvania,17011
938,"17011, Camp Hill, Pennsylvania",Camp Hill,Pennsylvania,17011
939,"Carlisle Pike, Camp Hill, Pennsylvania, 17011",Camp Hill,Pennsylvania,17011
940,"Carlisle Pike, Camp Hill, Pennsylvania, 17011",Camp Hill,Pennsylvania,17011
941,"17011, Camp Hill, Pennsylvania",Camp Hill,Pennsylvania,17011
942,"E Trindle Rd, Camp Hill, Pennsylvania, 17011",Camp Hill,Pennsylvania,17011
943,"Carlisle Pike, Camp Hill, Pennsylvania, 17011",Camp Hill,Pennsylvania,17011
944,"17011, Camp Hill, Pennsylvania",Camp Hill,Pennsylvania,17011
945,"17011, Camp Hill, Pennsylvania",Camp Hill,Pennsylvania,17011
946,"17011, Camp Hill, Pennsylvania",Camp Hill,Pennsylvania,17011
947,"E Trindle Rd, Camp Hill, Pennsylvania, 17011",Camp Hill,Pennsylvania,17011
948,"Carlisle Pike, Camp Hill, Pennsylvania, 17011",Camp Hill,Pennsylvania,17011
949,"E Trindle Rd, Camp Hill, Pennsylvania, 17011",Camp Hill,Pennsylvania,17011
950,"E Trindle Rd, Camp Hill, Pennsylvania, 17011",Camp Hill,Pennsylvania,17011
951,"E Trindle Rd, Camp Hill, Pennsylvania, 17011",Camp Hill,Pennsylvania,17011
952,"E Trindle Rd, Camp Hill, Pennsylvania, 17011",Camp Hill,Pennsylvania,17011
953,"E Trindle Rd, Camp Hill, Pennsylvania, 17011",Camp Hill,Pennsylvania,17011
954,"E Trindle Rd, Camp Hill, Pennsylvania, 17011",Camp Hill,Pennsylvania,17011
955,"17011, Camp Hill, Pennsylvania",Camp Hill,Pennsylvania,17011
956,"17011, Camp Hill, Pennsylvania",Camp Hill,Pennsylvania,17011
957,"17011, Camp Hill, Pennsylvania",Camp Hill,Pennsylvania,17011
958,"17011, Camp Hill, Pennsylvania",Camp Hill,Pennsylvania,17011
959,"17011, Camp Hill, Pennsylvania",Camp Hill,Pennsylvania,17011
960,"17011, Camp Hill, Pennsylvania",Camp Hill,Pennsylvania,17011
961,"17011, Camp Hill, Pennsylvania",Camp Hill,Pennsylvania,17011
962,"17011, Camp Hill, Pennsylvania",Camp Hill,Pennsylvania,17011
963,"17011, Camp Hill, Pennsylvania",Camp Hill,Pennsylvania,17011
964,"E Trindle Rd, Camp Hill, Pennsylvania, 17011",Camp Hill,Pennsylvania,17011
965,"17011, Camp Hill, Pennsylvania",Camp Hill,Pennsylvania,17011
966,"17011, Camp Hill, Pennsylvania",Camp Hill,Pennsylvania,17011
967,"Simpson Ferry Rd, Camp Hill, Pennsylvania, 17011",Camp Hill,Pennsylvania,17011
968,"Simpson Ferry Rd, Camp Hill, Pennsylvania, 17011",Camp Hill,Pennsylvania,17011
969,"Carlisle Pike, Camp Hill, Pennsylvania, 17011",Camp Hill,Pennsylvania,17011
970,"Simpson Ferry Rd, Camp Hill, Pennsylvania, 17011",Camp Hill,Pennsylvania,17011
971,"E Trindle Rd, Camp Hill, Pennsylvania, 17011",Camp Hill,Pennsylvania,17011
972,"17011, Camp Hill, Pennsylvania",Camp Hill,Pennsylvania,17011
973,"17011, Camp Hill, Pennsylvania",Camp Hill,Pennsylvania,17011
974,"17011, Camp Hill, Pennsylvania",Camp Hill,Pennsylvania,17011
975,"17011, Camp Hill, Pennsylvania",Camp Hill,Pennsylvania,17011
976,"17011, Camp Hill, Pennsylvania",Camp Hill,Pennsylvania,17011
977,"17011, Camp Hill, Pennsylvania",Camp Hill,Pennsylvania,17011
978,"17011, Camp Hill, Pennsylvania",Camp Hill,Pennsylvania,17011
979,"Simpson Ferry Rd, Camp Hill, Pennsylvania, 17011",Camp Hill,Pennsylvania,17011
980,"17011, Camp Hill, Pennsylvania",Camp Hill,Pennsylvania,17011
981,"17011, Camp Hill, Pennsylvania",Camp Hill,Pennsylvania,17011
982,"Simpson Ferry Rd, Camp Hill, Pennsylvania, 17011",Camp Hill,Pennsylvania,17011
983,"Simpson Ferry Rd, Camp Hill, Pennsylvania, 17011",Camp Hill,Pennsylvania,17011
984,"17011, Camp Hill, Pennsylvania",Camp Hill,Pennsylvania,17011
985,"17011, Camp Hill, Pennsylvania",Camp Hill,Pennsylvania,17011
986,"17011, Camp Hill, Pennsylvania",Camp Hill,Pennsylvania,17011
987,"17011, Camp Hill, Pennsylvania",Camp Hill,Pennsylvania,17011
988,"17011, Camp Hill, Pennsylvania",Camp Hill,Pennsylvania,17011
989,"Carlisle Pike, Camp Hill, Pennsylvania, 17011",Camp Hill,Pennsylvania,17011
990,"E Trindle Rd, Camp Hill, Pennsylvania, 17011",Camp Hill,Pennsylvania,17011
991,"E Trindle Rd, Camp Hill, Pennsylvania, 17011",Camp Hill,Pennsylvania,17011
992,"E Trindle Rd, Camp Hill, Pennsylvania, 17011",Camp Hill,Pennsylvania,17011
993,"E Trindle Rd, Camp Hill, Pennsylvania, 17011",Camp Hill,Pennsylvania,17011
994,"E Trindle Rd, Camp Hill, Pennsylvania, 17011",Camp Hill,Pennsylvania,17011
995,"17011, Camp Hill, Pennsylvania",Camp Hill,Pennsylvania,17011
996,"17011, Camp Hill, Pennsylvania",Camp Hill,Pennsylvania,17011
997,"17011, Camp Hill, Pennsylvania",Camp Hill,Pennsylvania,17011
998,"17011, Camp Hill, Pennsylvania",Camp Hill,Pennsylvania,17011
999,"17011, Camp Hill, Pennsylvania",Camp Hill,Pennsylvania,17011
1000,"17011, Camp Hill, Pennsylvania",Camp Hill,Pennsylvania,17011
1001,"17011, Camp Hill, Pennsylvania",Camp Hill,Pennsylvania,17011
1002,"17011, Camp Hill, Pennsylvania",Camp Hill,Pennsylvania,17011
1003,"17011, Camp Hill, Pennsylvania",Camp Hill,Pennsylvania,17011
1004,"17011, Camp Hill, Pennsylvania",Camp Hill,Pennsylvania,17011
1005,"17011, Camp Hill, Pennsylvania",Camp Hill,Pennsylvania,17011
1006,"17011, Camp Hill, Pennsylvania",Camp Hill,Pennsylvania,17011
1007,"17011, Camp Hill, Pennsylvania",Camp Hill,Pennsylvania,17011
1008,"Carlisle Pike, Camp Hill, Pennsylvania, 17011",Camp Hill,Pennsylvania,17011
1009,"Carlisle Pike, Camp Hill, Pennsylvania, 17011",Camp Hill,Pennsylvania,17011
1010,"Carlisle Pike, Camp Hill, Pennsylvania, 17011",Camp Hill,Pennsylvania,17011
1011,"Carlisle Pike, Camp Hill, Pennsylvania, 17011",Camp Hill,Pennsylvania,17011
1012,"Carlisle Pike, Camp Hill, Pennsylvania, 17011",Camp Hill,Pennsylvania,17011
1013,"17011, Camp Hill, Pennsylvania",Camp Hill,Pennsylvania,17011
1014,"17011, Camp Hill, Pennsylvania",Camp Hill,Pennsylvania,17011
1015,"17011, Camp Hill, Pennsylvania",Camp Hill,Pennsylvania,17011
1016,"17011, Camp Hill, Pennsylvania",Camp Hill,Pennsylvania,17011
1017,"17011, Camp Hill, Pennsylvania",Camp Hill,Pennsylvania,17011
1018,"17011, Camp Hill, Pennsylvania",Camp Hill,Pennsylvania,17011
1019,"17011, Camp Hill, Pennsylvania",Camp Hill,Pennsylvania,17011
1020,"17011, Camp Hill, Pennsylvania",Camp Hill,Pennsylvania,17011
1021,"17011, Camp Hill, Pennsylvania",Camp Hill,Pennsylvania,17011
1022,"17011, Camp Hill, Pennsylvania",Camp Hill,Pennsylvania,17011
1023,"17011, Camp Hill, Pennsylvania",Camp Hill,Pennsylvania,17011
1024,"17011, Camp Hill, Pennsylvania",Camp Hill,Pennsylvania,17011
1025,"17011, Camp Hill, Pennsylvania",Camp Hill,Pennsylvania,17011
1026,"17011, Camp Hill, Pennsylvania",Camp Hill,Pennsylvania,17011
1027,"17011, Camp Hill, Pennsylvania",Camp Hill,Pennsylvania,17011
1028,"17011, Camp Hill, Pennsylvania",Camp Hill,Pennsylvania,17011
1029,"17011, Camp Hill, Pennsylvania",Camp Hill,Pennsylvania,17011
1030,"17011, Camp Hill, Pennsylvania",Camp Hill,Pennsylvania,17011
1031,"17011, Camp Hill, Pennsylvania",Camp Hill,Pennsylvania,17011
1032,"17011, Camp Hill, Pennsylvania",Camp Hill,Pennsylvania,17011
1033,"17011, Camp Hill, Pennsylvania",Camp Hill,Pennsylvania,17011
1034,"17011, Camp Hill, Pennsylvania",Camp Hill,Pennsylvania,17011
1035,"17011, Camp Hill, Pennsylvania",Camp Hill,Pennsylvania,17011
1036,"17011, Camp Hill, Pennsylvania",Camp Hill,Pennsylvania,17011
1037,"17011, Camp Hill, Pennsylvania",Camp Hill,Pennsylvania,17011
1038,"17011, Camp Hill, Pennsylvania",Camp Hill,Pennsylvania,17011
1039,"17011, Camp Hill, Pennsylvania",Camp Hill,Pennsylvania,17011
1040,"17011, Camp Hill, Pennsylvania",Camp Hill,Pennsylvania,17011
1041,"17011, Camp Hill, Pennsylvania",Camp Hill,Pennsylvania,17011
1042,"17011, Camp Hill, Pennsylvania",Camp Hill,Pennsylvania,17011
1043,"17011, Camp Hill, Pennsylvania",Camp Hill,Pennsylvania,17011
1044,"17011, Camp Hill, Pennsylvania",Camp Hill,Pennsylvania,17011
1045,"17011, Camp Hill, Pennsylvania",Camp Hill,Pennsylvania,17011
1046,"17011, Camp Hill, Pennsylvania",Camp Hill,Pennsylvania,17011
1047,"17011, Camp Hill, Pennsylvania",Camp Hill,Pennsylvania,17011
1048,"17011, Camp Hill, Pennsylvania",Camp Hill,Pennsylvania,17011
1049,"17011, Camp Hill, Pennsylvania",Camp Hill,Pennsylvania,17011
1050,"17011, Camp Hill, Pennsylvania",Camp Hill,Pennsylvania,17011
1051,"17011, Camp Hill, Pennsylvania",Camp Hill,Pennsylvania,17011
1052,"17011, Camp Hill, Pennsylvania",Camp Hill,Pennsylvania,17011
1053,"17011, Camp Hill, Pennsylvania",Camp Hill,Pennsylvania,17011
1054,"17011, Camp Hill, Pennsylvania",Camp Hill,Pennsylvania,17011
1055,"17011, Camp Hill, Pennsylvania",Camp Hill,Pennsylvania,17011
1056,"17011, Camp Hill, Pennsylvania",Camp Hill,Pennsylvania,17011
1057,"17011, Camp Hill, Pennsylvania",Camp Hill,Pennsylvania,17011
1058,"17011, Camp Hill, Pennsylvania",Camp Hill,Pennsylvania,17011
1059,"17011, Camp Hill, Pennsylvania",Camp Hill,Pennsylvania,17011
1060,"17011, Camp Hill, Pennsylvania",Camp Hill,Pennsylvania,17011
1061,"17011, Camp Hill, Pennsylvania",Camp Hill,Pennsylvania,17011
1062,"17011, Camp Hill, Pennsylvania",Camp Hill,Pennsylvania,17011
1063,"17011, Camp Hill, Pennsylvania",Camp Hill,Pennsylvania,17011
1064,"17011, Camp Hill, Pennsylvania",Camp Hill,Pennsylvania,17011
1065,"17011, Camp Hill, Pennsylvania",Camp Hill,Pennsylvania,17011
1066,"17011, Camp Hill, Pennsylvania",Camp Hill,Pennsylvania,17011
1067,"17011, Camp Hill, Pennsylvania",Camp Hill,Pennsylvania,17011
1068,"17011, Camp Hill, Pennsylvania",Camp Hill,Pennsylvania,17011
1069,"17011, Camp Hill, Pennsylvania",Camp Hill,Pennsylvania,17011
1070,"17011, Camp Hill, Pennsylvania",Camp Hill,Pennsylvania,17011
1071,"17011, Camp Hill, Pennsylvania",Camp Hill,Pennsylvania,17011
1072,"17011, Camp Hill, Pennsylvania",Camp Hill,Pennsylvania,17011
1073,"17011, Camp Hill, Pennsylvania",Camp Hill,Pennsylvania,17011
1074,"17011, Camp Hill, Pennsylvania",Camp Hill,Pennsylvania,17011
1075,"17011, Camp Hill, Pennsylvania",Camp Hill,Pennsylvania,17011
1076,"17011, Camp Hill, Pennsylvania",Camp Hill,Pennsylvania,17011
1077,"17011, Camp Hill, Pennsylvania",Camp Hill,Pennsylvania,17011
1078,"17011, Camp Hill, Pennsylvania",Camp Hill,Pennsylvania,17011
1079,"17011, Camp Hill, Pennsylvania",Camp Hill,Pennsylvania,17011
1080,"17011, Camp Hill, Pennsylvania",Camp Hill,Pennsylvania,17011
1081,"17011, Camp Hill, Pennsylvania",Camp Hill,Pennsylvania,17011
1082,"17011, Camp Hill, Pennsylvania",Camp Hill,Pennsylvania,17011
1083,"17011, Camp Hill, Pennsylvania",Camp Hill,Pennsylvania,17011
1084,"17011, Camp Hill, Pennsylvania",Camp Hill,Pennsylvania,17011
1085,"17011, Camp Hill, Pennsylvania",Camp Hill,Pennsylvania,17011
1086,5510,,,5510
1087,"17011, Camp Hill, Pennsylvania",Camp Hill,Pennsylvania,17011
1088,"17011, Camp Hill, Pennsylvania",Camp Hill,Pennsylvania,17011
1089,"Carlisle Pike, Camp Hill, Pennsylvania, 17011",Camp Hill,Pennsylvania,17011
1090,"17011, Camp Hill, Pennsylvania",Camp Hill,Pennsylvania,17011
1091,"17011, Camp Hill, Pennsylvania",Camp Hill,Pennsylvania,17011
1092,"17011, Camp Hill, Pennsylvania",Camp Hill,Pennsylvania,17011
1093,"17011, Camp Hill, Pennsylvania",Camp Hill,Pennsylvania,17011
1094,"Carlisle Pike, Camp Hill, Pennsylvania, 17011",Camp Hill,Pennsylvania,17011
1095,"Carlisle Pike, Camp Hill, Pennsylvania, 17011",Camp Hill,Pennsylvania,17011
1096,"17011, Camp Hill, Pennsylvania",Camp Hill,Pennsylvania,17011
1097,"17011, Camp Hill, Pennsylvania",Camp Hill,Pennsylvania,17011
1098,"17011, Camp Hill, Pennsylvania",Camp Hill,Pennsylvania,17011
1099,"17011, Camp Hill, Pennsylvania",Camp Hill,Pennsylvania,17011
1100,"17011, Camp Hill, Pennsylvania",Camp Hill,Pennsylvania,17011
1101,"17011, Camp Hill, Pennsylvania",Camp Hill,Pennsylvania,17011
1102,"17011, Camp Hill, Pennsylvania",Camp Hill,Pennsylvania,17011
1103,"17011, Camp Hill, Pennsylvania",Camp Hill,Pennsylvania,17011
1104,"17011, Camp Hill, Pennsylvania",Camp Hill,Pennsylvania,17011
1105,"17011, Camp Hill, Pennsylvania",Camp Hill,Pennsylvania,17011
1106,"17011, Camp Hill, Pennsylvania",Camp Hill,Pennsylvania,17011
1107,"17011, Camp Hill, Pennsylvania",Camp Hill,Pennsylvania,17011
1108,"17011, Camp Hill, Pennsylvania",Camp Hill,Pennsylvania,17011
1109,"17011, Camp Hill, Pennsylvania",Camp Hill,Pennsylvania,17011
1110,"17011, Camp Hill, Pennsylvania",Camp Hill,Pennsylvania,17011
1111,"17011, Camp Hill, Pennsylvania",Camp Hill,Pennsylvania,17011
1112,"17011, Camp Hill, Pennsylvania",Camp Hill,Pennsylvania,17011
1113,"Carlisle Pike, Camp Hill, Pennsylvania, 17011",Camp Hill,Pennsylvania,17011
1114,"Carlisle Pike, Camp Hill, Pennsylvania, 17011",Camp Hill,Pennsylvania,17011
1115,"17011, Camp Hill, Pennsylvania",Camp Hill,Pennsylvania,17011
1116,"Carlisle Pike, Hampden Twp, Pennsylvania, 17011",Hampden Twp,Pennsylvania,17011
1117,"Carlisle Pike, Hampden Twp, Pennsylvania, 17011",Hampden Twp,Pennsylvania,17011
1118,"Carlisle Pike, Camp Hill, Pennsylvania, 17011",Camp Hill,Pennsylvania,17011
1119,"Carlisle Pike, Camp Hill, Pennsylvania, 17011",Camp Hill,Pennsylvania,17011
1120,"Carlisle Pike, Camp Hill, Pennsylvania, 17011",Camp Hill,Pennsylvania,17011
1121,"Carlisle Pike, Camp Hill, Pennsylvania, 17011",Camp Hill,Pennsylvania,17011
1122,"17011, Camp Hill, Pennsylvania",Camp Hill,Pennsylvania,17011
1123,"Carlisle Pike, Hampden Twp, Pennsylvania, 17011",Hampden Twp,Pennsylvania,17011
1124,"Carlisle Pike, Camp Hill, Pennsylvania, 17011",Camp Hill,Pennsylvania,17011
1125,"17011, Camp Hill, Pennsylvania",Camp Hill,Pennsylvania,17011
1126,"Carlisle Pike, Camp Hill, Pennsylvania, 17011",Camp Hill,Pennsylvania,17011
1127,"Carlisle Pike, Camp Hill, Pennsylvania, 17011",Camp Hill,Pennsylvania,17011
1128,"17011, Camp Hill, Pennsylvania",Camp Hill,Pennsylvania,17011
1129,"17011, Camp Hill, Pennsylvania",Camp Hill,Pennsylvania,17011
1130,"17011, Camp Hill, Pennsylvania",Camp Hill,Pennsylvania,17011
1131,"Carlisle Pike, Camp Hill, Pennsylvania, 17011",Camp Hill,Pennsylvania,17011
1132,"17011, Camp Hill, Pennsylvania",Camp Hill,Pennsylvania,17011
1133,"Carlisle Pike, Camp Hill, Pennsylvania, 17011",Camp Hill,Pennsylvania,17011
1134,"Carlisle Pike, Camp Hill, Pennsylvania, 17011",Camp Hill,Pennsylvania,17011
1135,"Carlisle Pike, Camp Hill, Pennsylvania, 17011",Camp Hill,Pennsylvania,17011
1136,"Carlisle Pike, Camp Hill, Pennsylvania, 17011",Camp Hill,Pennsylvania,17011
1137,"Carlisle Pike, Hampden Twp, Pennsylvania, 17011",Hampden Twp,Pennsylvania,17011
1138,"Carlisle Pike, Hampden Twp, Pennsylvania, 17011",Hampden Twp,Pennsylvania,17011
1139,"Carlisle Pike, Hampden Twp, Pennsylvania, 17011",Hampden Twp,Pennsylvania,17011
1140,"Carlisle Pike, Camp Hill, Pennsylvania, 17011",Camp Hill,Pennsylvania,17011
1141,"Carlisle Pike, Camp Hill, Pennsylvania, 17011",Camp Hill,Pennsylvania,17011
1142,"Carlisle Pike, Camp Hill, Pennsylvania, 17011",Camp Hill,Pennsylvania,17011
1143,"Carlisle Pike, Camp Hill, Pennsylvania, 17011",Camp Hill,Pennsylvania,17011
1144,"Carlisle Pike, Camp Hill, Pennsylvania, 17011",Camp Hill,Pennsylvania,17011
1145,"Carlisle Pike, Hampden Twp, Pennsylvania, 17011",Hampden Twp,Pennsylvania,17011
1146,"Carlisle Pike, Camp Hill, Pennsylvania, 17011",Camp Hill,Pennsylvania,17011
1147,"Carlisle Pike, Camp Hill, Pennsylvania, 17011",Camp Hill,Pennsylvania,17011
1148,"Carlisle Pike, Camp Hill, Pennsylvania, 17011",Camp Hill,Pennsylvania,17011
1149,"Carlisle Pike, Camp Hill, Pennsylvania, 17011",Camp Hill,Pennsylvania,17011
1150,"17011, Camp Hill, Pennsylvania",Camp Hill,Pennsylvania,17011
1151,"Carlisle Pike, Camp Hill, Pennsylvania, 17011",Camp Hill,Pennsylvania,17011
1152,"Carlisle Pike, Camp Hill, Pennsylvania, 17011",Camp Hill,Pennsylvania,17011
1153,"Carlisle Pike, Camp Hill, Pennsylvania, 17011",Camp Hill,Pennsylvania,17011
1154,"Carlisle Pike, Camp Hill, Pennsylvania, 17011",Camp Hill,Pennsylvania,17011
1155,"Carlisle Pike, Camp Hill, Pennsylvania, 17011",Camp Hill,Pennsylvania,17011
1156,"Carlisle Pike, Camp Hill, Pennsylvania, 17011",Camp Hill,Pennsylvania,17011
1157,"Carlisle Pike, Camp Hill, Pennsylvania, 17011",Camp Hill,Pennsylvania,17011
1158,"Carlisle Pike, Camp Hill, Pennsylvania, 17011",Camp Hill,Pennsylvania,17011
1159,"Carlisle Pike, Camp Hill, Pennsylvania, 17011",Camp Hill,Pennsylvania,17011
1160,"Forest Dr, Fairview Twp, Pennsylvania, 17011",Fairview Twp,Pennsylvania,17011
1161,"17011, Camp Hill, Pennsylvania",Camp Hill,Pennsylvania,17011
1162,"17011, Camp Hill, Pennsylvania",Camp Hill,Pennsylvania,17011
1163,"17011, Camp Hill, Pennsylvania",Camp Hill,Pennsylvania,17011
1164,"Carlisle Pike, Camp Hill, Pennsylvania, 17011",Camp Hill,Pennsylvania,17011
1165,"Carlisle Pike, Camp Hill, Pennsylvania, 17011",Camp Hill,Pennsylvania,17011
1166,"Carlisle Pike, Camp Hill, Pennsylvania, 17011",Camp Hill,Pennsylvania,17011
1167,"Carlisle Pike, Camp Hill, Pennsylvania, 17011",Camp Hill,Pennsylvania,17011
1168,"Carlisle Pike, Camp Hill, Pennsylvania, 17011",Camp Hill,Pennsylvania,17011
1169,"Carlisle Pike, Camp Hill, Pennsylvania, 17011",Camp Hill,Pennsylvania,17011
1170,"17011, Camp Hill, Pennsylvania",Camp Hill,Pennsylvania,17011
1171,"Carlisle Pike, Camp Hill, Pennsylvania, 17011",Camp Hill,Pennsylvania,17011
1172,"Carlisle Pike, Camp Hill, Pennsylvania, 17011",Camp Hill,Pennsylvania,17011
1173,"Carlisle Pike, Camp Hill, Pennsylvania, 17011",Camp Hill,Pennsylvania,17011
1174,"Carlisle Pike, Camp Hill, Pennsylvania, 17011",Camp Hill,Pennsylvania,17011
1175,"Carlisle Pike, Camp Hill, Pennsylvania, 17011",Camp Hill,Pennsylvania,17011
1176,"Carlisle Pike, Camp Hill, Pennsylvania, 17011",Camp Hill,Pennsylvania,17011
1177,"Carlisle Pike, Camp Hill, Pennsylvania, 17011",Camp Hill,Pennsylvania,17011
1178,"Carlisle Pike, Camp Hill, Pennsylvania, 17011",Camp Hill,Pennsylvania,17011
1179,"Carlisle Pike, Camp Hill, Pennsylvania, 17011",Camp Hill,Pennsylvania,17011
1180,"Carlisle Pike, Camp Hill, Pennsylvania, 17011",Camp Hill,Pennsylvania,17011
1181,"Carlisle Pike, Camp Hill, Pennsylvania, 17011",Camp Hill,Pennsylvania,17011
1182,"17011, Camp Hill, Pennsylvania",Camp Hill,Pennsylvania,17011
1183,"17 S 35th St, Camp Hill, Pennsylvania, 17011",Camp Hill,Pennsylvania,17011
1184,"17 S 35th St, Camp Hill, Pennsylvania, 17011",Camp Hill,Pennsylvania,17011
1185,"17011, Camp Hill, Pennsylvania",Camp Hill,Pennsylvania,17011
1186,"17011, Camp Hill, Pennsylvania",Camp Hill,Pennsylvania,17011
1187,"17011, Camp Hill, Pennsylvania",Camp Hill,Pennsylvania,17011
1188,"17011, Camp Hill, Pennsylvania",Camp Hill,Pennsylvania,17011
1189,"17011, Camp Hill, Pennsylvania",Camp Hill,Pennsylvania,17011
1190,"17011, Camp Hill, Pennsylvania",Camp Hill,Pennsylvania,17011
1191,"17011, Camp Hill, Pennsylvania",Camp Hill,Pennsylvania,17011
1192,"17011, Camp Hill, Pennsylvania",Camp Hill,Pennsylvania,17011
1193,"17011, Camp Hill, Pennsylvania",Camp Hill,Pennsylvania,17011
1194,"17011, Camp Hill, Pennsylvania",Camp Hill,Pennsylvania,17011
1195,"17011, Camp Hill, Pennsylvania",Camp Hill,Pennsylvania,17011
1196,"17011, Camp Hill, Pennsylvania",Camp Hill,Pennsylvania,17011
1197,"17011, Camp Hill, Pennsylvania",Camp Hill,Pennsylvania,17011
1198,"17011, Camp Hill, Pennsylvania",Camp Hill,Pennsylvania,17011
1199,"17011, Camp Hill, Pennsylvania",Camp Hill,Pennsylvania,17011
1200,"17011, Camp Hill, Pennsylvania",Camp Hill,Pennsylvania,17011
1201,"17011, Camp Hill, Pennsylvania",Camp Hill,Pennsylvania,17011
1202,"17011, Camp Hill, Pennsylvania",Camp Hill,Pennsylvania,17011
1203,"17011, Camp Hill, Pennsylvania",Camp Hill,Pennsylvania,17011
1204,"17011, Camp Hill, Pennsylvania",Camp Hill,Pennsylvania,17011
1205,"17011, Camp Hill, Pennsylvania",Camp Hill,Pennsylvania,17011
1206,"17011, Camp Hill, Pennsylvania",Camp Hill,Pennsylvania,17011
1207,"17011, Camp Hill, Pennsylvania",Camp Hill,Pennsylvania,17011
1208,"17011, Camp Hill, Pennsylvania",Camp Hill,Pennsylvania,17011
1209,"17011, Camp Hill, Pennsylvania",Camp Hill,Pennsylvania,17011
1210,"17011, Camp Hill, Pennsylvania",Camp Hill,Pennsylvania,17011
1211,"17011, Camp Hill, Pennsylvania",Camp Hill,Pennsylvania,17011
1212,"17011, Camp Hill, Pennsylvania",Camp Hill,Pennsylvania,17011
1213,"17011, Camp Hill, Pennsylvania",Camp Hill,Pennsylvania,17011
1214,"17011, Camp Hill, Pennsylvania",Camp Hill,Pennsylvania,17011
1215,"17011, Camp Hill, Pennsylvania",Camp Hill,Pennsylvania,17011
1216,"17011, Camp Hill, Pennsylvania",Camp Hill,Pennsylvania,17011
1217,"17011, Camp Hill, Pennsylvania",Camp Hill,Pennsylvania,17011
1218,"17011, Camp Hill, Pennsylvania",Camp Hill,Pennsylvania,17011
1219,"17011, Camp Hill, Pennsylvania",Camp Hill,Pennsylvania,17011
1220,"17011, Camp Hill, Pennsylvania",Camp Hill,Pennsylvania,17011
1221,"17011, Camp Hill, Pennsylvania",Camp Hill,Pennsylvania,17011
1222,"17011, Camp Hill, Pennsylvania",Camp Hill,Pennsylvania,17011
1223,"17011, Camp Hill, Pennsylvania",Camp Hill,Pennsylvania,17011
1224,"17011, Camp Hill, Pennsylvania",Camp Hill,Pennsylvania,17011
1225,"17011, Camp Hill, Pennsylvania",Camp Hill,Pennsylvania,17011
1226,"17011, Camp Hill, Pennsylvania",Camp Hill,Pennsylvania,17011
1227,"17011, Camp Hill, Pennsylvania",Camp Hill,Pennsylvania,17011
1228,"17011, Camp Hill, Pennsylvania",Camp Hill,Pennsylvania,17011
1229,"17011, Camp Hill, Pennsylvania",Camp Hill,Pennsylvania,17011
1230,"17011, Camp Hill, Pennsylvania",Camp Hill,Pennsylvania,17011
1231,"17011, Camp Hill, Pennsylvania",Camp Hill,Pennsylvania,17011
1232,"17011, Camp Hill, Pennsylvania",Camp Hill,Pennsylvania,17011
1233,"17011, Camp Hill, Pennsylvania",Camp Hill,Pennsylvania,17011
1234,"17011, Camp Hill, Pennsylvania",Camp Hill,Pennsylvania,17011
1235,"17011, Camp Hill, Pennsylvania",Camp Hill,Pennsylvania,17011
1236,"17011, Camp Hill, Pennsylvania",Camp Hill,Pennsylvania,17011
1237,"17011, Camp Hill, Pennsylvania",Camp Hill,Pennsylvania,17011
1238,"17011, Camp Hill, Pennsylvania",Camp Hill,Pennsylvania,17011
1239,"17011, Camp Hill, Pennsylvania",Camp Hill,Pennsylvania,17011
1240,"17011, Camp Hill, Pennsylvania",Camp Hill,Pennsylvania,17011
1241,"17011, Camp Hill, Pennsylvania",Camp Hill,Pennsylvania,17011
1242,"17011, Camp Hill, Pennsylvania",Camp Hill,Pennsylvania,17011
1243,"17011, Camp Hill, Pennsylvania",Camp Hill,Pennsylvania,17011
1244,"17011, Camp Hill, Pennsylvania",Camp Hill,Pennsylvania,17011
1245,"17011, Camp Hill, Pennsylvania",Camp Hill,Pennsylvania,17011
1246,"17011, Camp Hill, Pennsylvania",Camp Hill,Pennsylvania,17011
1247,"17011, Camp Hill, Pennsylvania",Camp Hill,Pennsylvania,17011
1248,"17011, Camp Hill, Pennsylvania",Camp Hill,Pennsylvania,17011
1249,"17011, Camp Hill, Pennsylvania",Camp Hill,Pennsylvania,17011
1250,"17011, Camp Hill, Pennsylvania",Camp Hill,Pennsylvania,17011
1251,"17011, Camp Hill, Pennsylvania",Camp Hill,Pennsylvania,17011
1252,"17011, Camp Hill, Pennsylvania",Camp Hill,Pennsylvania,17011
1253,"17011, Camp Hill, Pennsylvania",Camp Hill,Pennsylvania,17011
1254,"17011, Camp Hill, Pennsylvania",Camp Hill,Pennsylvania,17011
1255,"17011, Camp Hill, Pennsylvania",Camp Hill,Pennsylvania,17011
1256,"17011, Camp Hill, Pennsylvania",Camp Hill,Pennsylvania,17011
1257,"17011, Camp Hill, Pennsylvania",Camp Hill,Pennsylvania,17011
1258,"17011, Camp Hill, Pennsylvania",Camp Hill,Pennsylvania,17011
1259,"17011, Camp Hill, Pennsylvania",Camp Hill,Pennsylvania,17011
1260,"17011, Camp Hill, Pennsylvania",Camp Hill,Pennsylvania,17011
1261,"17011, Camp Hill, Pennsylvania",Camp Hill,Pennsylvania,17011
1262,"17011, Camp Hill, Pennsylvania",Camp Hill,Pennsylvania,17011
1263,"17011, Camp Hill, Pennsylvania",Camp Hill,Pennsylvania,17011
1264,"17011, Camp Hill, Pennsylvania",Camp Hill,Pennsylvania,17011
1265,"17011, Camp Hill, Pennsylvania",Camp Hill,Pennsylvania,17011
1266,"17011, Camp Hill, Pennsylvania",Camp Hill,Pennsylvania,17011
1267,"17011, Camp Hill, Pennsylvania",Camp Hill,Pennsylvania,17011
1268,"17011, Camp Hill, Pennsylvania",Camp Hill,Pennsylvania,17011
1269,"17011, Camp Hill, Pennsylvania",Camp Hill,Pennsylvania,17011
1270,"17011, Camp Hill, Pennsylvania",Camp Hill,Pennsylvania,17011
1271,"17011, Camp Hill, Pennsylvania",Camp Hill,Pennsylvania,17011
1272,"17011, Camp Hill, Pennsylvania",Camp Hill,Pennsylvania,17011
1273,"17011, Camp Hill, Pennsylvania",Camp Hill,Pennsylvania,17011
1274,"17011, Camp Hill, Pennsylvania",Camp Hill,Pennsylvania,17011
1275,"17011, Camp Hill, Pennsylvania",Camp Hill,Pennsylvania,17011
1276,"17011, Camp Hill, Pennsylvania",Camp Hill,Pennsylvania,17011
1277,"17011, Camp Hill, Pennsylvania",Camp Hill,Pennsylvania,17011
1278,"17011, Camp Hill, Pennsylvania",Camp Hill,Pennsylvania,17011
1279,"17011, Camp Hill, Pennsylvania",Camp Hill,Pennsylvania,17011
1280,"17011, Camp Hill, Pennsylvania",Camp Hill,Pennsylvania,17011
1281,"17011, Camp Hill, Pennsylvania",Camp Hill,Pennsylvania,17011
1282,"17011, Camp Hill, Pennsylvania",Camp Hill,Pennsylvania,17011
1283,,,,
1284,"17011, Camp Hill, Pennsylvania",Camp Hill,Pennsylvania,17011
1285,"17011, Camp Hill, Pennsylvania",Camp Hill,Pennsylvania,17011
1286,"17011, Camp Hill, Pennsylvania",Camp Hill,Pennsylvania,17011
1287,"17011, Camp Hill, Pennsylvania",Camp Hill,Pennsylvania,17011
1288,"PA-581 E, Wormleysburg, Pennsylvania, 17011",Wormleysburg,Pennsylvania,17011
1289,"17011, Camp Hill, Pennsylvania",Camp Hill,Pennsylvania,17011
1290,"17011, Camp Hill, Pennsylvania",Camp Hill,Pennsylvania,17011
1291,"17011, Camp Hill, Pennsylvania",Camp Hill,Pennsylvania,17011
1292,"17011, Camp Hill, Pennsylvania",Camp Hill,Pennsylvania,17011
1293,"17011, Camp Hill, Pennsylvania",Camp Hill,Pennsylvania,17011
1294,"17011, Camp Hill, Pennsylvania",Camp Hill,Pennsylvania,17011
1295,"17011, Camp Hill, Pennsylvania",Camp Hill,Pennsylvania,17011
1296,"17011, Camp Hill, Pennsylvania",Camp Hill,Pennsylvania,17011
1297,"17011, Camp Hill, Pennsylvania",Camp Hill,Pennsylvania,17011
1298,"17011, Camp Hill, Pennsylvania",Camp Hill,Pennsylvania,17011
1299,"17011, Camp Hill, Pennsylvania",Camp Hill,Pennsylvania,17011
1300,"17011, Camp Hill, Pennsylvania",Camp Hill,Pennsylvania,17011
1301,"17011, Camp Hill, Pennsylvania",Camp Hill,Pennsylvania,17011
1302,"17011, Camp Hill, Pennsylvania",Camp Hill,Pennsylvania,17011
1303,"17011, Camp Hill, Pennsylvania",Camp Hill,Pennsylvania,17011
1304,"17011, Camp Hill, Pennsylvania",Camp Hill,Pennsylvania,17011
1305,"17011, Camp Hill, Pennsylvania",Camp Hill,Pennsylvania,17011
1306,"17011, Camp Hill, Pennsylvania",Camp Hill,Pennsylvania,17011
1307,"17011, Camp Hill, Pennsylvania",Camp Hill,Pennsylvania,17011
1308,"17011, Camp Hill, Pennsylvania",Camp Hill,Pennsylvania,17011
1309,"17011, Camp Hill, Pennsylvania",Camp Hill,Pennsylvania,17011
1310,"17011, Camp Hill, Pennsylvania",Camp Hill,Pennsylvania,17011
1311,"17011, Camp Hill, Pennsylvania",Camp Hill,Pennsylvania,17011
1312,"17011, Camp Hill, Pennsylvania",Camp Hill,Pennsylvania,17011
1313,"17011, Camp Hill, Pennsylvania",Camp Hill,Pennsylvania,17011
1314,"17011, Camp Hill, Pennsylvania",Camp Hill,Pennsylvania,17011
1315,"17011, Camp Hill, Pennsylvania",Camp Hill,Pennsylvania,17011
1316,"17011, Camp Hill, Pennsylvania",Camp Hill,Pennsylvania,17011
1317,"17011, Camp Hill, Pennsylvania",Camp Hill,Pennsylvania,17011
1318,"17011, Camp Hill, Pennsylvania",Camp Hill,Pennsylvania,17011
1319,"17011, Camp Hill, Pennsylvania",Camp Hill,Pennsylvania,17011
1320,"17011, Camp Hill, Pennsylvania",Camp Hill,Pennsylvania,17011
1321,"17011, Camp Hill, Pennsylvania",Camp Hill,Pennsylvania,17011
1322,"17011, Camp Hill, Pennsylvania",Camp Hill,Pennsylvania,17011
1323,"17011, Camp Hill, Pennsylvania",Camp Hill,Pennsylvania,17011
1324,"17011, Camp Hill, Pennsylvania",Camp Hill,Pennsylvania,17011
1325,"17011, Camp Hill, Pennsylvania",Camp Hill,Pennsylvania,17011
1326,"17011, Camp Hill, Pennsylvania",Camp Hill,Pennsylvania,17011
