ID,Address,City,State,ZIP
1,150 Hampden Avenue 17011,Hampden Twp,PA,17011
2,150 Louisa Lane 17011,Camp Hill,PA,17011
3,150 Louisa Lane 17011,Camp Hill,PA,17011
4,150 South Sporting Hill Road 17011,Camp Hill,PA,17011
5,150 Maple Avenue 17011,Hampden Twp,PA,17011
6,150 Maple Avenue 17011,Hampden Twp,PA,17011
7,150 Salem Church Road 17011,Camp Hill,PA,17011
8,150 Salem Church Road 17011,Camp Hill,PA,17011
9,150 S Sporting Hill Road 17011,Camp Hill,PA,17011
10,150 Gateway Drive 17011,Camp Hill,PA,17011
11,150 South Sporting Hill Road 17011,Camp Hill,PA,17011
12,150 Lighthouse Drive 17011,Camp Hill,PA,17011
13,150 Lynnwood Court 17011,Hampden Twp,PA,17011
14,150 Salem Church Road 17011,Camp Hill,PA,17011
15,0,,PA,
16,150 Bryce Road 17011,Hampden Twp,PA,17011
17,150 St Johns Church Road 17011,Hampden Twp,PA,17011
18,150 Salem Church Road 17011,Camp Hill,PA,17011
19,150 S Sporting Hill Road 17011,Camp Hill,PA,17011
20,150 S Sporting Hill Road 17011,Camp Hill,PA,17011
21,150 Maple Avenue 17011,Hampden Twp,PA,17011
22,150 S Sporting Hill Road 17011,Camp Hill,PA,17011
23,150 Maple Avenue 17011,Hampden Twp,PA,17011
24,150 West Clearview Drive 17011,Hampden Twp,PA,17011
25,150 North Sporting Hill Road 17011,Camp Hill,PA,17011
26,150 N 36th Street 17011,Hampden Twp,PA,17011
27,150 Gateway Drive 17011,Camp Hill,PA,17011
28,150 Salem Church Road 17011,Camp Hill,PA,17011
29,150 Conodoguinet Avenue 17011,Hampden Twp,PA,17011
30,250 Salem Church Road 17011,Camp Hill,PA,17011
31,250 Salem Church Road 17011,Camp Hill,PA,17011
32,250 St Johns Church Road 17011,Hampden Twp,PA,17011
33,250 Lambs Gap Road 17011,Camp Hill,PA,17011
34,250 Hillcrest Road 17011,Hampden Twp,PA,17011
35,250 St James Court 17011,Camp Hill,PA,17011
36,250 Salem Church Road 17011,Camp Hill,PA,17011
37,250 Orrs Bridge Road 17011,Hampden Twp,PA,17011
38,250 St Johns Church Road 17011,Hampden Twp,PA,17011
39,250 Lambs Gap Road 17011,Camp Hill,PA,17011
40,250 Silver Spring Road 17011,Camp Hill,PA,17011
41,250 Fox Drive 17011,Camp Hill,PA,17011
42,250 Cherokee Drive 17011,Lower Allen Twp,PA,17011
43,250 Indian Creek Drive 17011,Camp Hill,PA,17011
44,250 Silver Spring Road 17011,Camp Hill,PA,17011
45,250 Silver Spring Road 17011,Camp Hill,PA,17011
46,250 Lambs Gap Road 17011,Camp Hill,PA,17011
47,250 South Sporting Hill Road 17011,Camp Hill,PA,17011
48,250 Hillcrest Road 17011,Hampden Twp,PA,17011
49,250 Lambs Gap Road 17011,Camp Hill,PA,17011
50,250 Old Silver Spring Road 17011,Camp Hill,PA,17011
51,250 Lambs Gap Road 17011,Camp Hill,PA,17011
52,250 Northgate Drive 17011,Hampden Twp,PA,17011
53,250 Salem Church Road 17011,Camp Hill,PA,17011
54,250 St Johns Drive 17011,Hampden Twp,PA,17011
55,250 Gull Court 17011,Camp Hill,PA,17011
56,250 Lamp Post Lane 17011,Hampden Twp,PA,17011
57,250 St Johns Church Road 17011,Hampden Twp,PA,17011
58,250 Maple Avenue 17011,Hampden Twp,PA,17011
59,350 Virginia Road 17011,Camp Hill,PA,17011
60,350 Raven Court 17011,Camp Hill,PA,17011
61,350 Silver Spring Road 17011,Camp Hill,PA,17011
62,350 Sheely Lane 17011,Camp Hill,PA,17011
63,350 Hempt Drive 17011,Camp Hill,PA,17011
64,350 Hempt Drive 17011,Camp Hill,PA,17011
65,350 Indian Creek Drive 17011,Camp Hill,PA,17011
66,350 Charles Road 17011,Camp Hill,PA,17011
67,350 Raven Court 17011,Camp Hill,PA,17011
68,350 South Sporting Hill Road 17011,Camp Hill,PA,17011
69,350 Charles Road 17011,Camp Hill,PA,17011
70,350 Raven Court 17011,Camp Hill,PA,17011
71,350 Raven Court 17011,Camp Hill,PA,17011
72,350 Charles Road 17011,Camp Hill,PA,17011
73,350 Indian Creek Drive 17011,Camp Hill,PA,17011
74,350 Indian Creek Drive 17011,Camp Hill,PA,17011
75,350 Kay Road 17011,Camp Hill,PA,17011
76,350 Indian Creek Drive 17011,Camp Hill,PA,17011
77,350 Lamp Post Lane 17011,Hampden Twp,PA,17011
78,350 Kay Road 17011,Camp Hill,PA,17011
79,350 Lamp Post Lane 17011,Hampden Twp,PA,17011
80,350 Lamp Post Lane 17011,Hampden Twp,PA,17011
81,350 Indian Creek Drive 17011,Camp Hill,PA,17011
82,350 Indian Creek Drive 17011,Camp Hill,PA,17011
83,350 Mercury Drive 17011,Camp Hill,PA,17011
84,350 Salem Church Road 17011,Camp Hill,PA,17011
85,450 Lamp Post Lane 17011,Hampden Twp,PA,17011
86,450 Berkshire Lane 17011,Camp Hill,PA,17011
87,450 Pawnee Drive 17011,Camp Hill,PA,17011
88,450 Orrs Bridge Road 17011,Hampden Twp,PA,17011
89,450 Mercury Drive 17011,Camp Hill,PA,17011
90,450 Barbara Drive 17011,Camp Hill,PA,17011
91,450 Brook Circle 17011,Hampden Twp,PA,17011
92,450 Brook Circle 17011,Hampden Twp,PA,17011
93,450 Pawnee Drive 17011,Camp Hill,PA,17011
94,450 Berkshire Lane 17011,Camp Hill,PA,17011
95,450 St Johns Church Road 17011,Hampden Twp,PA,17011
96,450 St Johns Church Road 17011,Hampden Twp,PA,17011
97,450 Orrs Bridge Road 17011,Hampden Twp,PA,17011
98,450 Orrs Bridge Road 17011,Hampden Twp,PA,17011
99,450 St Johns Church Road 17011,Hampden Twp,PA,17011
100,450 Cherokee Drive 17011,Lower Allen Twp,PA,17011
101,450 Boxwood Court 17011,Lower Allen Twp,PA,17011
102,450 Wren Court 17011,Camp Hill,PA,17011
103,450 Brook Circle 17011,Hampden Twp,PA,17011
104,450 Hopi Drive 17011,Camp Hill,PA,17011
105,450 Pawnee Drive 17011,Camp Hill,PA,17011
106,450 Jarod Court 17011,Camp Hill,PA,17011
107,450 Lamp Post Lane 17011,Hampden Twp,PA,17011
108,450 Spring House Road 17011,Hampden Twp,PA,17011
109,450 Pawnee Drive 17011,Camp Hill,PA,17011
110,450 Cherokee Drive 17011,Lower Allen Twp,PA,17011
111,450 Brook Circle 17011,Hampden Twp,PA,17011
112,450 St Johns Church Road 17011,Hampden Twp,PA,17011
113,450 Woodcrest Drive 17011,Hampden Twp,PA,17011
114,450 Boxwood Court 17011,Lower Allen Twp,PA,17011
115,450 Railroad Avenue 17011,Hampden Twp,PA,17011
116,450 St Johns Church Road 17011,Hampden Twp,PA,17011
117,450 Lamp Post Lane 17011,Hampden Twp,PA,17011
118,450 Lamp Post Lane 17011,Hampden Twp,PA,17011
119,450 Boxwood Court 17011,Lower Allen Twp,PA,17011
120,450 Salem Church Road 17011,Camp Hill,PA,17011
121,450 Sioux Drive 17011,Camp Hill,PA,17011
122,450 Sioux Drive 17011,Camp Hill,PA,17011
123,450 Salem Church Road 17011,Camp Hill,PA,17011
124,450 Barbara Drive 17011,Camp Hill,PA,17011
125,450 Berkshire Lane 17011,Camp Hill,PA,17011
126,450 Brook Circle 17011,Hampden Twp,PA,17011
127,450 Barbara Drive 17011,Camp Hill,PA,17011
128,450 Jarod Court 17011,Camp Hill,PA,17011
129,450 Mercury Drive 17011,Camp Hill,PA,17011
130,450 Waterleaf Court 17011,Camp Hill,PA,17011
131,450 Waterleaf Court 17011,Camp Hill,PA,17011
132,450 Brook Circle 17011,Hampden Twp,PA,17011
133,450 Salem Church Road 17011,Camp Hill,PA,17011
134,450 Woodcrest Drive 17011,Hampden Twp,PA,17011
135,550 Bedford Court 17011,Hampden Twp,PA,17011
136,550 Sarah Court 17011,Camp Hill,PA,17011
137,550 Salmon Road 17011,Camp Hill,PA,17011
138,550 Jacob Lane 17011,Linne,PA,
139,550 Joel Drive 17011,Camp Hill,PA,17011
140,550 Woodcrest Drive 17011,Hampden Twp,PA,17011
141,550 St Johns Drive 17011,Hampden Twp,PA,17011
142,550 Breezewood Court 17011,Camp Hill,PA,17011
143,550 Colony Road 17011,Hampden Twp,PA,17011
144,550 Colony Road 17011,Hampden Twp,PA,17011
145,550 Salmon Road 17011,Camp Hill,PA,17011
146,550 Jacob Lane 17011,Linne,PA,
147,550 Deubler Road 17011,Hampden Twp,PA,17011
148,550 Breezewood Court 17011,Camp Hill,PA,17011
149,550 Bedford Court 17011,Hampden Twp,PA,17011
150,550 Quail Court 17011,Camp Hill,PA,17011
151,550 Jacob Lane 17011,Linne,PA,
152,550 Jacob Lane 17011,Linne,PA,
153,550 Barry Court 17011,Camp Hill,PA,17011
154,550 Jacob Lane 17011,Linne,PA,
155,550 Spring House Road 17011,Hampden Twp,PA,17011
156,550 Joel Drive 17011,Camp Hill,PA,17011
157,550 Woodcrest Drive 17011,Hampden Twp,PA,17011
158,550 Barry Court 17011,Camp Hill,PA,17011
159,650 Simpson Ferry Road 17011,Hampden Twp,PA,17011
160,650 Good Hope Road 17011,Camp Hill,PA,17011
161,650 North St Johns Drive 17011,Hampden Twp,PA,17011
162,650 Good Hope Road 17011,Camp Hill,PA,17011
163,750 Florence Circle 17011,Camp Hill,PA,17011
164,750 Alberta Avenue 17011,Camp Hill,PA,17011
165,750 Orrs Bridge Road 17011,Hampden Twp,PA,17011
166,750 East Simpson Street 17011,Camp Hill,PA,17011
167,750 East Locust Street 17011,Shiremanstown,PA,17011
168,750 Salem Park Circle 17011,Camp Hill,PA,17011
169,750 Kent Drive 17011,Lower Allen Twp,PA,17011
170,750 Admirals Quay 17011,,PA,
171,750 Orrs Bridge Road 17011,Hampden Twp,PA,17011
172,750 Brentwater Road 17011,East Pennsboro Twp,PA,17011
173,850 Anthony Drive 17011,Camp Hill,PA,17011
174,850 Briarwood Lane 17011,Hampden Twp,PA,17011
175,850 Tavy Court 17011,Camp Hill,PA,17011
176,850 Pamelas Lane West 17011,Camp Hill,PA,17011
177,850 Mandy Lane 17011,Hampden Twp,PA,17011
178,850 Orr?ÇÖs Bridge Road 17011,Hampden Twp,PA,17011
179,850 Meadow Lane 17011,Hampden Twp,PA,17011
180,850 Meadow Lane 17011,Hampden Twp,PA,17011
181,850 Meadow Lane 17011,Hampden Twp,PA,17011
182,850 Orrs Bridge Road 17011,Hampden Twp,PA,17011
183,850 Schooner Lane 17011,Camp Hill,PA,17011
184,850 Meadow Lane 17011,Hampden Twp,PA,17011
185,950 Kent Drive 17011,Lower Allen Twp,PA,17011
186,950 Cyprus Lane 17011,Linne,PA,
187,950 Willcliff Drive 17011,Camp Hill,PA,17011
188,950 Willshire 17011,Camp Hill,PA,17011
189,950 Shiremont Drive 17011,Camp Hill,PA,17011
190,950 Shiremont Drive 17011,Camp Hill,PA,17011
191,950 Mill Road 17011,Camp Hill,PA,17011
192,1050 Chippenham Road 17011,,PA,1050
193,1050 Baythorne Road 17011,,PA,1050
194,1050 Louisa Lane 17011,,PA,1050
195,1050 Baythorne Drive 17011,Camp Hill,PA,17011
196,1050 Good Hope Road 17011,Richmond,PA,
197,1050 Chippenham Road 17011,,PA,1050
198,1050 Good Hope Road 17011,Richmond,PA,
199,1050 Pebble Court 17011,,PA,1050
200,1050 Tunbridge Lane 17011,Camp Hill,PA,17011
201,1050 Mill Road 17011,Invercargill,PA,
202,1050 Orrs Bridge Road 17011,Hampden Twp,PA,17011
203,1050 Baythorne Drive 17011,Camp Hill,PA,17011
204,1050 Tunbridge Lane 17011,Camp Hill,PA,17011
205,1050 Baythorne Drive 17011,Camp Hill,PA,17011
206,1050 Devereaux Lane 17011,Camp Hill,PA,17011
207,1050 Baythorne Drive 17011,Camp Hill,PA,17011
208,1050 Chippenham Road 17011,,PA,1050
209,1150 Dry Powder Circle 17011,Camp Hill,PA,17011
210,1150 Gunstock Lane 17011,Camp Hill,PA,17011
211,1150 Musket Lane 17011,Camp Hill,PA,17011
212,1150 Dry Powder Circle 17011,Camp Hill,PA,17011
213,1150 Newbold Lane 17011,Camp Hill,PA,17011
214,1150 Dry Powder Circle 17011,Camp Hill,PA,17011
215,1150 Gunstock Lane 17011,Camp Hill,PA,17011
216,1150 Gunstock Lane 17011,Camp Hill,PA,17011
217,1150 Orrs Bridge Road 17011,Hampden Twp,PA,17011
218,1150 West Powderhorn Road 17011,Camp Hill,PA,17011
219,1150 East Powderhorn Road 17011,Camp Hill,PA,17011
220,1150 Lambs Gap Road 17011,Camp Hill,PA,17011
221,1150 Windsor Road 17011,East Pennsboro Twp,PA,17011
222,1150 Wansford Road 17011,Camp Hill,PA,17011
223,1150 Dry Powder Circle 17011,Camp Hill,PA,17011
224,1150 Carrington Court East 17011,Camp Hill,PA,17011
225,1150 Cross Creek Drive 17011,Camp Hill,PA,17011
226,1150 Kent Drive 17011,Lower Allen Twp,PA,17011
227,1150 Saffron Drive 17011,Camp Hill,PA,17011
228,1150 Jerusalem Road 17011,Raat,PA,
229,1150 Gunstock Lane 17011,Camp Hill,PA,17011
230,1150 West Powderhorn Road 17011,Camp Hill,PA,17011
231,1250 Summit Way 17011,Camp Hill,PA,17011
232,1250 Summit Way 17011,Camp Hill,PA,17011
233,1250 East Powderhorn Road 17011,Camp Hill,PA,17011
234,1250 Chelsen Cross 17011,Camp Hill,PA,17011
235,1250 Highlander Way 17011,Camp Hill,PA,17011
236,1250 Kings Circle 17011,Camp Hill,PA,17011
237,1250 Kings Circle 17011,Camp Hill,PA,17011
238,1250 Kings Circle 17011,Camp Hill,PA,17011
239,1250 Chelsen Cross 17011,Camp Hill,PA,17011
240,1250 Summit Way 17011,Camp Hill,PA,17011
241,1250 Timber View Drive 17011,Camp Hill,PA,17011
242,1350 Concord Road 17011,Camp Hill,PA,17011
243,1350 Jerusalem Road 17011,Raat,PA,
244,1350 Concord Road 17011,Camp Hill,PA,17011
245,1350 Abington Way 17011,Camp Hill,PA,17011
246,1350 Silvercreek Drive 17011,Camp Hill,PA,17011
247,1350 Abington Way 17011,Camp Hill,PA,17011
248,1450 Summit Way 17011,Camp Hill,PA,17011
249,1450 Armitage Way 17011,Camp Hill,PA,17011
250,1450 Summit Way 17011,Camp Hill,PA,17011
251,1450 Concord Road 17011,Camp Hill,PA,17011
252,1450 Olde Oak Court 17011,Camp Hill,PA,17011
253,1450 Armitage Way 17011,Camp Hill,PA,17011
254,1550 Inverness Drive 17011,Camp Hill,PA,17011
255,1550 Inverness Drive 17011,Camp Hill,PA,17011
256,1550 Inverness Drive 17011,Camp Hill,PA,17011
257,1550 Timber Chase Drive 17011,Camp Hill,PA,17011
258,1550 Inverness Drive 17011,Camp Hill,PA,17011
259,1650 Airport Drive 17011,Camp Hill,PA,17011
260,1750 Orrs Bridge Road 17011,Hampden Twp,PA,17011
261,1750 Eliza Way 17011,Camp Hill,PA,17011
262,1750 Orrs Bridge Road 17011,Hampden Twp,PA,17011
263,1750 Sawyer Lane 17011,Camp Hill,PA,17011
264,1750 Good Hope Road 17011,Camp Hill,PA,17011
265,1850 Silver Pine Circle 17011,Camp Hill,PA,17011
266,1850 Red Spruce Lane 17011,Shiremanstown,PA,17011
267,1850 Signal Hill Drive 17011,Camp Hill,PA,17011
268,1850 Good Hope Road 17011,Camp Hill,PA,17011
269,1850 Hunter Drive 17011,East Pennsboro Twp,PA,17011
270,1850 Good Hope Road 17011,Camp Hill,PA,17011
271,1850 Silver Pine Circle 17011,Camp Hill,PA,17011
272,1850 Silver Pine Circle 17011,Camp Hill,PA,17011
273,1950 Wentz Road 17011,Camp Hill,PA,17011
274,1950 Monterey Drive 17011,Camp Hill,PA,17011
275,1950 Dawn Road 17011,Camp Hill,PA,17011
276,1950 Monterey Drive 17011,Camp Hill,PA,17011
277,1950 Wentz Lane 17011,Camp Hill,PA,17011
278,2050 Mountain Pine Drive 17011,Camp Hill,PA,17011
279,2050 Good Hope Road 17011,Camp Hill,PA,17011
280,2050 Good Hope Road 17011,Camp Hill,PA,17011
281,2050 Technology Parkway 17011,Camp Hill,PA,17011
282,2050 Good Hope Road 17011,Camp Hill,PA,17011
283,2050 Mountain Pine Drive 17011,Camp Hill,PA,17011
284,2050 Technology Parkway 17011,Camp Hill,PA,17011
285,2050 Good Hope Road 17011,Camp Hill,PA,17011
286,2050 Good Hope Road 17011,Camp Hill,PA,17011
287,2050 Mountain Pine Drive 17011,Camp Hill,PA,17011
288,2050 Mountain Pine Drive 17011,Camp Hill,PA,17011
289,2150 Englewood Court 17011,Camp Hill,PA,17011
290,2150 East Coventry Lane 17011,Camp Hill,PA,17011
291,2150 Englewood Court 17011,Camp Hill,PA,17011
292,2150 Cedar Lane 17011,Lower Allen Twp,PA,17011
293,2150 Gleim Court 17011,Camp Hill,PA,17011
294,2150 Warren Way 17011,Camp Hill,PA,17011
295,2250 Gleim Court 17011,Camp Hill,PA,17011
296,2250 Earth Road 17011,Camp Hill,PA,17011
297,2250 Earth Road 17011,Camp Hill,PA,17011
298,2250 Gleim Court 17011,Camp Hill,PA,17011
299,2250 Millennium Way 17011,Camp Hill,PA,17011
300,2250 Gleim Court 17011,Camp Hill,PA,17011
301,2250 Lambs Gap Road 17011,Camp Hill,PA,17011
302,2250 Gleim Court 17011,Camp Hill,PA,17011
303,2250 Millennium Way 17011,Camp Hill,PA,17011
304,2350 Lambs Gap Road 17011,Camp Hill,PA,17011
305,2350 Wertz Lane 17011,,PA,02350-000
306,2350 Claridge Court 17011,Camp Hill,PA,17011
307,2350 Woodstream Way 17011,Camp Hill,PA,17011
308,2450 Spring Lane 17011,Camp Hill,PA,17011
309,2450 Dewey Lane 17011,Camp Hill,PA,17011
310,2450 Hume Lane 17011,Camp Hill,PA,17011
311,2550 Mountainside Way 17011,Camp Hill,PA,17011
312,2550 Warren Way 17011,Camp Hill,PA,17011
313,2650 Warren Way 17011,Camp Hill,PA,17011
314,2750 Warren Way 17011,Camp Hill,PA,17011
315,3250 Louisa Lane 17011,Camp Hill,PA,17011
316,3250 Louisa Lane 17011,Camp Hill,PA,17011
317,3450 Simpson Ferry Road 17011,Hampden Twp,PA,17011
318,3450 Simpson Ferry Road 17011,Hampden Twp,PA,17011
319,3450 Simpson Ferry Road 17011,Hampden Twp,PA,17011
320,3450 Simpson Ferry Road 17011,Hampden Twp,PA,17011
321,3450 Simpson Ferry Road 17011,Hampden Twp,PA,17011
322,3450 Simpson Ferry Road 17011,Hampden Twp,PA,17011
323,3450 Simpson Ferry Road 17011,Hampden Twp,PA,17011
324,3450 Lincoln Drive 17011,Hampden Twp,PA,17011
325,3550 Coventry Lane 17011,East Pennsboro Twp,PA,17011
326,3550 Green Street 17011,Hampden Twp,PA,17011
327,3550 Beech Run Lane 17011,Camp Hill,PA,17011
328,3550 Green Street 17011,Hampden Twp,PA,17011
329,3550 Beech Run Lane 17011,Camp Hill,PA,17011
330,3550 Walnut Street 17011,Hampden Twp,PA,17011
331,3550 Green Street 17011,Hampden Twp,PA,17011
332,3550 Green Street 17011,Hampden Twp,PA,17011
333,3550 Louisa Lane 17011,,PA,3550
334,3550 Chestnut Street 17011,Hampden Twp,PA,17011
335,3550 Hawthorne Drive 17011,Hampden Twp,PA,17011
336,#VALUE!,,PA,
337,3550 Foxcroft Drive 17011,East Pennsboro Twp,PA,17011
338,3550 Simpson Ferry Road 17011,Hampden Twp,PA,17011
339,3550 Walnut Street 17011,Hampden Twp,PA,17011
340,3550 Walnut Street 17011,Hampden Twp,PA,17011
341,3650 Dwayne Avenue 17011,Camp Hill,PA,17011
342,3650 Golfview Drive 17011,Hampden Twp,PA,17011
343,3650 Market Street 17011,Hampden Twp,PA,17011
344,3750 Market Street 17011,Hampden Twp,PA,17011
345,3750 Vine Street 17011,Hampden Twp,PA,17011
346,3750 Leyland Drive 17011,Camp Hill,PA,17011
347,3750 Market Street 17011,Hampden Twp,PA,17011
348,3750 Falkstone Drive 17011,Camp Hill,PA,17011
349,3750 Market Street 17011,Hampden Twp,PA,17011
350,3750 Market Street 17011,Hampden Twp,PA,17011
351,3750 Chestnut Street 17011,Hampden Twp,PA,17011
352,3750 Trindle Road 17011,Hampden Twp,PA,17011
353,3750 Kohler Place 17011,Hampden Twp,PA,17011
354,3750 Kohler Place 17011,Hampden Twp,PA,17011
355,3850 Chestnut Street 17011,Hampden Twp,PA,17011
356,3850 Lamp Post Lane 17011,Hampden Twp,PA,17011
357,3850 Trindle Road 17011,Hampden Twp,PA,17011
358,3850 Carriage House Drive 17011,Hampden Twp,PA,17011
359,3850 Claverton Road 17011,Camp Hill,PA,17011
360,3850 Pamay Drive 17011,Camp Hill,PA,17011
361,3850 Market Street 17011,Hampden Twp,PA,17011
362,3850 Golfview Drive 17011,Hampden Twp,PA,17011
363,3850 Oxbow Drive 17011,Hampden Twp,PA,17011
364,3850 Pamay Drive 17011,Camp Hill,PA,17011
365,3850 Carriage House Drive 17011,Hampden Twp,PA,17011
366,3850 Trindle Road 17011,Hampden Twp,PA,17011
367,3850 Pamay Drive 17011,Camp Hill,PA,17011
368,3850 Bellows Drive 17011,Hampden Twp,PA,17011
369,3850 Leyland Drive 17011,Camp Hill,PA,17011
370,3850 Chestnut Street 17011,Hampden Twp,PA,17011
371,3850 Pamay Drive 17011,Camp Hill,PA,17011
372,3850 Pamay Drive 17011,Camp Hill,PA,17011
373,3850 Copperkettle Road 17011,Hampden Twp,PA,17011
374,3950 Brookridge Drive 17011,Camp Hill,PA,17011
375,3950 Brookridge Drive 17011,Camp Hill,PA,17011
376,3950 Golfview Drive 17011,Hampden Twp,PA,17011
377,3950 Valley Road 17011,Lower Allen Twp,PA,17011
378,3950 Silverbrook Drive 17011,Camp Hill,PA,17011
379,3950 Emilridge Drive 17011,Camp Hill,PA,17011
380,3950 East Trindle Road 17011,Hampden Twp,PA,17011
381,4050 Caissons Court 17011,Camp Hill,PA,17011
382,4050 Darius Drive 17011,Camp Hill,PA,17011
383,4050 Carlisle Pike 17011,Hampden Twp,PA,17011
384,4050 Darius Drive 17011,Camp Hill,PA,17011
385,4050 Darius Drive 17011,Camp Hill,PA,17011
386,4050 Darius Drive 17011,Camp Hill,PA,17011
387,4050 Caissons Court 17011,Camp Hill,PA,17011
388,4050 Market Street 17011,Hampden Twp,PA,17011
389,4150 Kittatinny Drive 17011,Camp Hill,PA,17011
390,4150 Nantucket Drive 17011,Camp Hill,PA,17011
391,4150 Nantucket Drive 17011,Camp Hill,PA,17011
392,4150 Park Street 17011,Hampden Twp,PA,17011
393,4150 Valley Road 17011,Lower Allen Twp,PA,17011
394,4150 Kittatinny Drive 17011,Camp Hill,PA,17011
395,4150 Kittatinny Drive 17011,Camp Hill,PA,17011
396,4150 Mountain View Road 17011,Camp Hill,PA,17011
397,4150 Nantucket Drive 17011,Camp Hill,PA,17011
398,4150 Park Street 17011,Hampden Twp,PA,17011
399,4150 Elk Court 17011,Camp Hill,PA,17011
400,4150 Cove Court 17011,Camp Hill,PA,17011
401,4150 Nantucket Drive 17011,Camp Hill,PA,17011
402,4150 Mountain View Road 17011,Camp Hill,PA,17011
403,4150 Kittatinny Drive 17011,Camp Hill,PA,17011
404,4150 Kittatinny Drive 17011,Camp Hill,PA,17011
405,4150 Kittatinny Drive 17011,Camp Hill,PA,17011
406,4150 Mountain View Road 17011,Camp Hill,PA,17011
407,4150 Grouse Court 17011,Camp Hill,PA,17011
408,4250 Nantucket Drive 17011,Camp Hill,PA,17011
409,4250 Roth Lane 17011,Camp Hill,PA,17011
410,4250 Nantucket Drive 17011,Camp Hill,PA,17011
411,4250 Trindle Road 17011,Hampden Twp,PA,17011
412,4250 Carlisle Pike 17011,Hampden Twp,PA,17011
413,4250 Nantucket Drive 17011,Camp Hill,PA,17011
414,4250 East Trindle Road 17011,Hampden Twp,PA,17011
415,4250 Trindle Road 17011,Hampden Twp,PA,17011
416,4250 Nantucket Drive 17011,Camp Hill,PA,17011
417,4250 Valley Road 17011,Lower Allen Twp,PA,17011
418,4250 Chestnut Street 17011,Hampden Twp,PA,17011
419,4350 Roth Farm Village Circle 17011,Camp Hill,PA,17011
420,4350 Carlisle Pike 17011,Hampden Twp,PA,17011
421,4350 Carlisle Pike 17011,Hampden Twp,PA,17011
422,4350 Carlisle Pike 17011,Hampden Twp,PA,17011
423,4350 Roth Farm Village Circle 17011,Camp Hill,PA,17011
424,4350 Carlisle Pike 17011,Hampden Twp,PA,17011
425,4350 Carlisle Pike 17011,Hampden Twp,PA,17011
426,4350 Park Street 17011,Hampden Twp,PA,17011
427,4350 Carlisle Pike 17011,Hampden Twp,PA,17011
428,4450 Industrial Park Road 17011,Hampden Twp,PA,17011
429,4550 Valley Road 17011,Lower Allen Twp,PA,17011
430,4550 East Trindle Road 17011,Hampden Twp,PA,17011
431,4550 East Trindle Road 17011,Hampden Twp,PA,17011
432,4550 East Trindle Road 17011,Hampden Twp,PA,17011
433,4550 East Trindle Road 17011,Hampden Twp,PA,17011
434,4650 South Clearview Drive 17011,Hampden Twp,PA,17011
435,4650 South Clearview Drive 17011,Hampden Twp,PA,17011
436,4650 Mt Zion Drive 17011,Camp Hill,PA,17011
437,4650 East Trindle Road 17011,Hampden Twp,PA,17011
438,4650 East Trindle Road 17011,Hampden Twp,PA,17011
439,4650 East Trindle Road 17011,Hampden Twp,PA,17011
440,4650 East Trindle Road 17011,Hampden Twp,PA,17011
441,4650 East Trindle Road 17011,Hampden Twp,PA,17011
442,4650 Trindle Road 17011,Hampden Twp,PA,17011
443,4650 East Trindle Road 17011,Hampden Twp,PA,17011
444,4650 South Clearview Drive 17011,Hampden Twp,PA,17011
445,4650 East Trindle Road 17011,Hampden Twp,PA,17011
446,4650 Creekview Road 17011,Camp Hill,PA,17011
447,4650 East Trindle Road 17011,Hampden Twp,PA,17011
448,4650 Creekview Road 17011,Camp Hill,PA,17011
449,4650 Creekview Road 17011,Camp Hill,PA,17011
450,4750 Brian Road 17011,Camp Hill,PA,17011
451,4750 Brian Road 17011,Camp Hill,PA,17011
452,4750 Brian Road 17011,Camp Hill,PA,17011
453,4750 North Clearview 17011,Hampden Twp,PA,17011
454,4750 East Trindle Road 17011,Hampden Twp,PA,17011
455,4750 East Trindle Road 17011,Hampden Twp,PA,17011
456,4750 Carlisle Pike 17011,Hampden Twp,PA,17011
457,4750 Trindle Road 17011,Hampden Twp,PA,17011
458,4750 Carlisle Pike 17011,Hampden Twp,PA,17011
459,4750 East Trindle Road 17011,Hampden Twp,PA,17011
460,4750 Charles Road 17011,Camp Hill,PA,17011
461,4750 Carlisle Pike 17011,Hampden Twp,PA,17011
462,4750 Carlisle Pike 17011,Hampden Twp,PA,17011
463,4750 Carlisle Pike 17011,Hampden Twp,PA,17011
464,4750 Carlisle Pike 17011,Hampden Twp,PA,17011
465,4750 Brian Road 17011,Camp Hill,PA,17011
466,4750 East Trindle Road 17011,Hampden Twp,PA,17011
467,4750 Brian Road 17011,Camp Hill,PA,17011
468,4750 Brian Road 17011,Camp Hill,PA,17011
469,4750 Delbrook Road 17011,Camp Hill,PA,17011
470,4750 East Trindle Road 17011,Hampden Twp,PA,17011
471,4850 Virginia Road 17011,Camp Hill,PA,17011
472,4850 East Trindle Road 17011,Hampden Twp,PA,17011
473,4850 Carlisle Pike 17011,Hampden Twp,PA,17011
474,4850 Carlisle Pike 17011,Hampden Twp,PA,17011
475,4850 East Trindle Road 17011,Hampden Twp,PA,17011
476,4850 Creekview Road 17011,Camp Hill,PA,17011
477,4850 East Trindle Road 17011,Hampden Twp,PA,17011
478,4850 Carlisle Pike 17011,Hampden Twp,PA,17011
479,4850 Carlisle Pike 17011,Hampden Twp,PA,17011
480,4850 Carlisle Pike 17011,Hampden Twp,PA,17011
481,4850 Carlisle Pike 17011,Hampden Twp,PA,17011
482,4850 East Trindle Road 17011,Hampden Twp,PA,17011
483,4850 Brian Road 17011,Camp Hill,PA,17011
484,4850 Charles Road 17011,Camp Hill,PA,17011
485,4850 East Trindle Road 17011,Hampden Twp,PA,17011
486,4850 East Trindle Road 17011,Hampden Twp,PA,17011
487,4850 East Trindle Road 17011,Hampden Twp,PA,17011
488,4850 Carlisle Pike 17011,Hampden Twp,PA,17011
489,4850 East Trindle Road 17011,Hampden Twp,PA,17011
490,4850 Carlisle Pike 17011,Hampden Twp,PA,17011
491,4850 Brian Road 17011,Camp Hill,PA,17011
492,4850 East Trindle Road 17011,Hampden Twp,PA,17011
493,4850 Brian Road 17011,Camp Hill,PA,17011
494,4850 Delbrook Road 17011,Camp Hill,PA,17011
495,4850 Carlisle Pike 17011,Hampden Twp,PA,17011
496,4850 Carlisle Pike 17011,Hampden Twp,PA,17011
497,4850 East Trindle Road 17011,Hampden Twp,PA,17011
498,4850 East Trindle Road 17011,Hampden Twp,PA,17011
499,4850 Delbrook Road 17011,Camp Hill,PA,17011
500,4850 Carlisle Pike 17011,Hampden Twp,PA,17011
501,4850 Charles Road 17011,Camp Hill,PA,17011
502,4850 Carlisle Pike 17011,Hampden Twp,PA,17011
503,4850 East Trindle Road 17011,Hampden Twp,PA,17011
504,4950 Charles Road 17011,Camp Hill,PA,17011
505,4950 Carlisle Pike 17011,Hampden Twp,PA,17011
506,4950 Carlisle Pike 17011,Hampden Twp,PA,17011
507,4950 East Trindle Road 17011,Hampden Twp,PA,17011
508,4950 Woodland Drive 17011,Camp Hill,PA,17011
509,4950 Carlisle Pike 17011,Hampden Twp,PA,17011
510,4950 Erb?ÇÖs Bridge Road 17011,Camp Hill,PA,17011
511,4950 Carlisle Pike 17011,Hampden Twp,PA,17011
512,4950 Woodland Drive 17011,Camp Hill,PA,17011
513,4950 Carlisle Pike 17011,Hampden Twp,PA,17011
514,4950 Carlisle Pike 17011,Hampden Twp,PA,17011
515,4950 Woodland Drive 17011,Camp Hill,PA,17011
516,4950 Carlisle Pike 17011,Hampden Twp,PA,17011
517,5050 Apache Drive 17011,Camp Hill,PA,17011
518,5050 Apache Drive 17011,Camp Hill,PA,17011
519,5050 Shetland Court 17011,Camp Hill,PA,17011
520,5050 Erb?ÇÖs Bridge Road 17011,Camp Hill,PA,17011
521,5050 East Trindle Road 17011,Hampden Twp,PA,17011
522,5050 Pellingham Circle 17011,Camp Hill,PA,17011
523,5050 East Trindle Road 17011,Hampden Twp,PA,17011
524,5050 East Trindle Road 17011,Hampden Twp,PA,17011
525,5050 East Trindle Road 17011,Hampden Twp,PA,17011
526,5050 Turtle Lane 17011,Camp Hill,PA,17011
527,5050 Seneca Drive 17011,Lower Allen Twp,PA,17011
528,5050 Inverness Drive 17011,Camp Hill,PA,17011
529,5050 Amelias Path West 17011,Camp Hill,PA,17011
530,5050 Hampden Park Drive 17011,Camp Hill,PA,17011
531,5050 Greenwood Circle 17011,Camp Hill,PA,17011
532,5050 Trindle Road 17011,Hampden Twp,PA,17011
533,5050 Carlisle Pike 17011,Hampden Twp,PA,17011
534,5050 Hampden Park Drive 17011,Camp Hill,PA,17011
535,5050 Pellingham Circle 17011,Camp Hill,PA,17011
536,5050 Amelias Path West 17011,Camp Hill,PA,17011
537,5050 Amelias Path West 17011,Camp Hill,PA,17011
538,5050 Seneca Drive 17011,Lower Allen Twp,PA,17011
539,5050 Greenwood Circle 17011,Camp Hill,PA,17011
540,5150 East Trindle Road 17011,Hampden Twp,PA,17011
541,5150 East Trindle Road 17011,Hampden Twp,PA,17011
542,5150 Mendenhall Drive 17011,Camp Hill,PA,17011
543,5150 Jennifer Circle 17011,Camp Hill,PA,17011
544,5150 Simpson Ferry Road 17011,Hampden Twp,PA,17011
545,5150 Carlisle Pike 17011,Hampden Twp,PA,17011
546,5150 Carlisle Pike 17011,Hampden Twp,PA,17011
547,5150 East Trindle Road 17011,Hampden Twp,PA,17011
548,5150 East Trindle Road 17011,Hampden Twp,PA,17011
549,5150 Erbs Bridge Road 17011,Camp Hill,PA,17011
550,5150 East Trindle Road 17011,Hampden Twp,PA,17011
551,5150 Deerfield Avenue 17011,Lower Allen Twp,PA,17011
552,5150 South Deerfield Avenue 17011,Camp Hill,PA,17011
553,5150 Cambridge Boulevard 17011,Camp Hill,PA,17011
554,5150 Carlisle Pike 17011,Hampden Twp,PA,17011
555,5150 Carlisle Pike 17011,Hampden Twp,PA,17011
556,5150 Inverness Drive 17011,Camp Hill,PA,17011
557,5150 Carlisle Pike 17011,Hampden Twp,PA,17011
558,5250 Deerfield Avenue 17011,Lower Allen Twp,PA,17011
559,5250 Meadowbrook Drive 17011,Camp Hill,PA,17011
560,5250 Aldersgate Circle 17011,Camp Hill,PA,17011
561,5250 Meadowbrook Drive 17011,Camp Hill,PA,17011
562,5250 Deerfield Lane 17011,Lower Allen Twp,PA,17011
563,5250 Simpson Ferry Road 17011,Hampden Twp,PA,17011
564,5250 East Trindle Road 17011,Hampden Twp,PA,17011
565,5250 East Trindle Road 17011,Hampden Twp,PA,17011
566,5250 East Trindle Road 17011,Hampden Twp,PA,17011
567,5250 East Trindle Road 17011,Hampden Twp,PA,17011
568,5250 Simpson Ferry Road 17011,Hampden Twp,PA,17011
569,5250 Simpson Ferry Road 17011,Hampden Twp,PA,17011
570,5250 Simpson Ferry Road 17011,Hampden Twp,PA,17011
571,5250 Simpson Ferry Road 17011,Hampden Twp,PA,17011
572,5250 East Trindle Road 17011,Hampden Twp,PA,17011
573,5250 East Trindle Road 17011,Hampden Twp,PA,17011
574,5250 Simpson Ferry Road 17011,Hampden Twp,PA,17011
575,5250 Simpson Ferry Road 17011,Hampden Twp,PA,17011
576,5250 Simpson Ferry Road 17011,Hampden Twp,PA,17011
577,5250 East Trindle Road 17011,Hampden Twp,PA,17011
578,5250 East Trindle Road 17011,Hampden Twp,PA,17011
579,5250 Simpson Ferry Road 17011,Hampden Twp,PA,17011
580,5250 East Trindle Road 17011,Hampden Twp,PA,17011
581,5250 Simpson Ferry Road 17011,Hampden Twp,PA,17011
582,5250 Strathmore Drive 17011,Camp Hill,PA,17011
583,5250 East Trindle Road 17011,Hampden Twp,PA,17011
584,5250 East Trindle Road 17011,Hampden Twp,PA,17011
585,5250 Carlisle Pike 17011,Hampden Twp,PA,17011
586,5250 East Trindle Road 17011,Hampden Twp,PA,17011
587,5250 Meadowbrook Drive 17011,Camp Hill,PA,17011
588,5250 Meadowbrook Drive 17011,Camp Hill,PA,17011
589,5250 East Trindle Road 17011,Hampden Twp,PA,17011
590,5250 East Trindle Road 17011,Hampden Twp,PA,17011
591,5250 Simpson Ferry Road 17011,Hampden Twp,PA,17011
592,5250 Simpson Ferry Road 17011,Hampden Twp,PA,17011
593,5250 East Trindle Road 17011,Hampden Twp,PA,17011
594,5250 East Trindle Road 17011,Hampden Twp,PA,17011
595,5250 East Trindle Road 17011,Hampden Twp,PA,17011
596,5250 East Trindle Road 17011,Hampden Twp,PA,17011
597,5250 Simpson Ferry Road 17011,Hampden Twp,PA,17011
598,5250 Simpson Ferry Road 17011,Hampden Twp,PA,17011
599,5250 Simpson Ferry Road 17011,Hampden Twp,PA,17011
600,5250 Simpson Ferry Road 17011,Hampden Twp,PA,17011
601,5250 Simpson Ferry Road 17011,Hampden Twp,PA,17011
602,5250 East Trindle Road 17011,Hampden Twp,PA,17011
603,5250 Deerfield Avenue 17011,Lower Allen Twp,PA,17011
604,5250 Strathmore Drive 17011,Camp Hill,PA,17011
605,5250 East Trindle Road 17011,Hampden Twp,PA,17011
606,5250 Simpson Ferry Road 17011,Hampden Twp,PA,17011
607,5250 East Trindle Road 17011,Hampden Twp,PA,17011
608,5250 East Trindle Road 17011,Hampden Twp,PA,17011
609,5250 Meadowbrook Drive 17011,Camp Hill,PA,17011
610,5350 Simpson Ferry Road 17011,Hampden Twp,PA,17011
611,5350 East Trindle Road 17011,Hampden Twp,PA,17011
612,5350 East Trindle Road 17011,Hampden Twp,PA,17011
613,5350 East Trindle Road 17011,Hampden Twp,PA,17011
614,5350 East Trindle Road 17011,Hampden Twp,PA,17011
615,5350 East Trindle Road 17011,Hampden Twp,PA,17011
616,5350 Carlisle Pike 17011,Hampden Twp,PA,17011
617,5350 Carlisle Pike 17011,Hampden Twp,PA,17011
618,5350 Simpson Ferry Road 17011,Hampden Twp,PA,17011
619,5350 Creekview Road 17011,Camp Hill,PA,17011
620,5350 Simpson Ferry Road 17011,Hampden Twp,PA,17011
621,5350 East Trindle Road 17011,Hampden Twp,PA,17011
622,5350 Simpson Ferry Road 17011,Hampden Twp,PA,17011
623,5450 Laurie Lane 17011,Camp Hill,PA,17011
624,5450 Carlisle Pike 17011,Hampden Twp,PA,17011
625,5450 Westbury Drive 17011,Lower Allen Twp,PA,17011
626,5450 Carlisle Pike 17011,Hampden Twp,PA,17011
627,5450 Carlisle Pike 17011,Hampden Twp,PA,17011
628,5450 Carlisle Pike 17011,Hampden Twp,PA,17011
629,5450 Carlisle Pike 17011,Hampden Twp,PA,17011
630,5450 Carlisle Pike 17011,Hampden Twp,PA,17011
631,5450 Carlisle Pike 17011,Hampden Twp,PA,17011
632,5450 Carlisle Pike 17011,Hampden Twp,PA,17011
633,5450 Carlisle Pike 17011,Hampden Twp,PA,17011
634,5450 Eagles Ridge Lane 17011,Camp Hill,PA,17011
635,5450 Carlisle Pike 17011,Hampden Twp,PA,17011
636,5450 Carlisle Pike 17011,Hampden Twp,PA,17011
637,5450 Rivendale Boulevard 17011,Camp Hill,PA,17011
638,5550 Carlisle Pike 17011,Hampden Twp,PA,17011
639,5550 General Jenkins Drive 17011,Camp Hill,PA,17011
640,5550 Carlisle Pike 17011,Hampden Twp,PA,17011
641,5550 Westbury Drive 17011,Lower Allen Twp,PA,17011
642,5550 Carlisle Pike 17011,Hampden Twp,PA,17011
643,5550 Carlisle Pike 17011,Hampden Twp,PA,17011
644,5550 Carlisle Pike 17011,Hampden Twp,PA,17011
645,5550 Carlisle Pike 17011,Hampden Twp,PA,17011
646,5550 Carlisle Pike 17011,Hampden Twp,PA,17011
647,5550 Bearcreek Drive 17011,Camp Hill,PA,17011
648,5550 Carlisle Pike 17011,Hampden Twp,PA,17011
649,5550 Carlisle Pike 17011,Hampden Twp,PA,17011
650,5550 Carlisle Pike 17011,Hampden Twp,PA,17011
651,5550 Carlisle Pike 17011,Hampden Twp,PA,17011
652,5550 Carlisle Pike 17011,Hampden Twp,PA,17011
653,5550 Carlisle Pike 17011,Hampden Twp,PA,17011
654,5550 Carlisle Pike 17011,Hampden Twp,PA,17011
655,5650 Charlton Way 17011,Gore,PA,
656,5650 Carlisle Pike 17011,Hampden Twp,PA,17011
657,5650 Pinehurst Way 17011,Camp Hill,PA,17011
658,5650 Creekview Road 17011,Camp Hill,PA,17011
659,5650 Barbara Drive 17011,Camp Hill,PA,17011
660,5750 Heatherwood Court 17011,Camp Hill,PA,17011
661,5850 Carlisle Pike 17011,Hampden Twp,PA,17011
662,5850 Westbury Drive 17011,Lower Allen Twp,PA,17011
663,5950 Stephens Crossing 17011,East Pennsboro Twp,PA,17011
664,5950 Stephens Crossing 17011,East Pennsboro Twp,PA,17011
665,5950 Westover Drive 17011,Camp Hill,PA,17011
666,6050 Carlisle Pike 17011,Hampden Twp,PA,17011
667,6050 Carlisle Pike 17011,Hampden Twp,PA,17011
668,6050 Carlisle Pike 17011,Hampden Twp,PA,17011
669,6050 Carlisle Pike 17011,Hampden Twp,PA,17011
670,6050 Carlisle Pike 17011,Hampden Twp,PA,17011
671,6050 Carlisle Pike 17011,Hampden Twp,PA,17011
672,6050 Sommerton Drive 17011,Camp Hill,PA,17011
673,6050 Carlisle Pike 17011,Hampden Twp,PA,17011
674,6050 Carlisle Pike 17011,Hampden Twp,PA,17011
675,6050 Carlisle Pike 17011,Hampden Twp,PA,17011
676,6050 Wertzville Road 17011,Camp Hill,PA,17011
677,6050 Hummingbird Drive 17011,Camp Hill,PA,17011
678,6050 William Drive 17011,Camp Hill,PA,17011
679,6050 Mockingbird Drive 17011,Camp Hill,PA,17011
680,6050 Carlisle Pike 17011,Hampden Twp,PA,17011
681,6150 Galleon Drive 17011,Camp Hill,PA,17011
682,6150 Charing Cross 17011,Camp Hill,PA,17011
683,6150 Locust Lane 17011,Lower Allen Twp,PA,17011
684,6150 Carlisle Pike 17011,Hampden Twp,PA,17011
685,6150 Sommerton Drive 17011,Camp Hill,PA,17011
686,6150 Stephens Crossing 17011,,PA,
687,6150 Haymarket Way 17011,Camp Hill,PA,17011
688,6150 Stephens Crossing 17011,,PA,
689,6150 Haymarket Way 17011,Camp Hill,PA,17011
690,6150 Carlisle Pike 17011,Hampden Twp,PA,17011
691,6150 Westover Drive 17011,Camp Hill,PA,17011
692,6150 Moorgate Circle 17011,Camp Hill,PA,17011
693,6150 Souvenir Drive 17011,Camp Hill,PA,17011
694,6150 Wallingford Way 17011,Waipukurau,PA,
695,6150 Log Cabin Trail 17011,Camp Hill,PA,17011
696,6150 Carlisle Pike 17011,Hampden Twp,PA,17011
697,6250 Stanford Court 17011,Camp Hill,PA,17011
698,6250 Galleon Drive 17011,Camp Hill,PA,17011
699,6250 Carlisle Pike 17011,Hampden Twp,PA,17011
700,6250 Rivendale Court 17011,Camp Hill,PA,17011
701,6250 Carlisle Pike 17011,Hampden Twp,PA,17011
702,6250 Carlisle Pike 17011,Hampden Twp,PA,17011
703,6250 Crofton Court 17011,Marton,PA,
704,6250 Galleon Drive 17011,Camp Hill,PA,17011
705,6250 Carlisle Pike 17011,Hampden Twp,PA,17011
706,6250 Carlisle Pike 17011,Hampden Twp,PA,17011
707,6250 Carlisle Pike 17011,Hampden Twp,PA,17011
708,6250 Stanford Court 17011,Camp Hill,PA,17011
709,6250 Westover Drive 17011,Camp Hill,PA,17011
710,6250 Charing Cross 17011,Camp Hill,PA,17011
711,6250 Smith Drive 17011,Camp Hill,PA,17011
712,6250 Crofton Court 17011,Marton,PA,
713,6350 Chesterfield Lane 17011,Camp Hill,PA,17011
714,6350 Chesterfield Lane 17011,Camp Hill,PA,17011
715,6350 Creekbend Drive 17011,Camp Hill,PA,17011
716,6350 Carlisle Pike 17011,Hampden Twp,PA,17011
717,6350 Carlisle Pike 17011,Hampden Twp,PA,17011
718,6350 Carlisle Pike 17011,Hampden Twp,PA,17011
719,6350 Locust Lane 17011,Lower Allen Twp,PA,17011
720,6350 Locust Lane 17011,Lower Allen Twp,PA,17011
721,6350 Carlisle Pike 17011,Hampden Twp,PA,17011
722,6350 Galleon Drive 17011,Camp Hill,PA,17011
723,6350 Galleon Drive 17011,Camp Hill,PA,17011
724,6350 North Powderhorn Road 17011,Camp Hill,PA,17011
725,6350 Mercury Drive 17011,Camp Hill,PA,17011
726,6350 Carlisle Pike 17011,Hampden Twp,PA,17011
727,6350 Mercury Drive 17011,Camp Hill,PA,17011
728,6350 Carlisle Pike 17011,Hampden Twp,PA,17011
729,6350 Wertzville Road 17011,Camp Hill,PA,17011
730,6350 Galleon Drive 17011,Camp Hill,PA,17011
731,6350 Brandy Lane 17011,East Pennsboro Twp,PA,17011
732,6350 Stephens Crossing 17011,East Pennsboro Twp,PA,17011
733,6350 Galleon Drive 17011,Camp Hill,PA,17011
734,6350 Peregrine Way 17011,Camp Hill,PA,17011
735,6350 Galleon Drive 17011,Camp Hill,PA,17011
736,6350 Run Cross Lane 17011,Camp Hill,PA,17011
737,6450 Creekbend Drive 17011,Camp Hill,PA,17011
738,6450 Glenwood Street 17011,Lower Allen Twp,PA,17011
739,6450 Cannon Drive 17011,Camp Hill,PA,17011
740,6450 Carlisle Pike 17011,Hampden Twp,PA,17011
741,6450 Glenwood Street 17011,Lower Allen Twp,PA,17011
742,6450 Wertzville Road 17011,Camp Hill,PA,17011
743,6450 Glenwood Street 17011,Lower Allen Twp,PA,17011
744,6450 Creekbend Drive 17011,Camp Hill,PA,17011
745,6450 Glenwood Street 17011,Lower Allen Twp,PA,17011
746,6550 Salem Park Circle 17011,Camp Hill,PA,17011
747,150 Devonshire Square 17011,,PA,
748,150 Old Farm Road 17011,Hampden Twp,PA,17011
749,150 Lori Circle 17011,Camp Hill,PA,17011
750,150 Kensington Square 17011,Lower Allen Twp,PA,17011
751,150 Skyport Road 17011,Camp Hill,PA,17011
752,150 Central Boulevard 17011,Hampden Twp,PA,17011
753,150 Salem Church Road 17011,Camp Hill,PA,17011
754,150 Salem Church Road 17011,Camp Hill,PA,17011
755,150 Salem Church Road 17011,Camp Hill,PA,17011
756,150 Kevin Road 17011,Wormleysburg,PA,17011
757,150 Dogwood Court 17011,Hampden Twp,PA,17011
758,150 Devonshire Square 17011,,PA,
759,150 Salem Church Road 17011,Camp Hill,PA,17011
760,150 Lois Lane 17011,Camp Hill,PA,17011
761,150 Mandy Court 17011,Hampden Twp,PA,17011
762,150 Kevin Road 17011,Wormleysburg,PA,17011
763,150 Shireton Place 17011,Camp Hill,PA,17011
764,150 Old Pioneer Road 17011,Hampden Twp,PA,17011
765,150 Salem Church Road 17011,Camp Hill,PA,17011
766,150 Skyport Road 17011,Camp Hill,PA,17011
767,150 Sunset Circle 17011,Hampden Twp,PA,17011
768,150 Salem Church Road 17011,Camp Hill,PA,17011
769,150 Linden Court 17011,Lower Allen Twp,PA,17011
770,150 Holtz Road 17011,Camp Hill,PA,17011
771,150 Round Hill Road 17011,East Pennsboro Twp,PA,17011
772,150 S 39th Street 17011,Hampden Twp,PA,17011
773,150 Village Court 17011,Lower Allen Twp,PA,17011
774,150 Dogwood Court 17011,Hampden Twp,PA,17011
775,150 Oak Avenue 17011,Fairview Twp,PA,17011
776,150 Vine Circle 17011,Hampden Twp,PA,17011
777,150 Oak Avenue 17011,Fairview Twp,PA,17011
778,150 Salem Church Road 17011,Camp Hill,PA,17011
779,150 Salem Church Road 17011,Camp Hill,PA,17011
780,150 Round Hill Road 17011,East Pennsboro Twp,PA,17011
781,150 Kensington Square 17011,Lower Allen Twp,PA,17011
782,150 Round Hill Road 17011,East Pennsboro Twp,PA,17011
783,150 Gateway Drive 17011,Camp Hill,PA,17011
784,150 Salem Church Road 17011,Camp Hill,PA,17011
785,150 Salem Church Road 17011,Camp Hill,PA,17011
786,150 Jamestown Square 17011,Camp Hill,PA,17011
787,150 Maybelle Court 17011,Camp Hill,PA,17011
788,150 Chestnut Circle 17011,Hampden Twp,PA,17011
789,150 Gateway Drive 17011,Camp Hill,PA,17011
790,150 Salem Church Road 17011,Camp Hill,PA,17011
791,101 Lambs Gap Road (Twin Ponds) 17011,Camp Hill,PA,17011
792,105 South Sporting Hill Road (CVS) 17011,Camp Hill,PA,17011
793,105 South Sporting Hill Road (CVS) 17011,Camp Hill,PA,17011
794,105 S Sporting Hill Road (CVS) 17011,Sel?ºuklu,PA,
795,115 St Johns Church Road (Euphoria Hair and Salon) 17011,Camp Hill,PA,17011
796,125 Gateway Drive (Bankok Wok) 17011,Camp Hill,PA,17011
797,125 Gateway Drive (Bankok Wok) 17011,Camp Hill,PA,17011
798,141 Salem Church Road (Fetrow Electric) 17011,Camp Hill,PA,17011
799,146 Salem Church Road (Edo?ÇÖs Trucking) 17011,Camp Hill,PA,17011
800,230 South Sporting Hill Road (Capital Area Regional Council of Governments) 17011,Camp Hill,PA,17011
801,301 Railroad Avenue (Site One Landscaping) 17011,Camp Hill,PA,17011
802,301 Railroad Avenue (John Deere Landscape) 17011,Camp Hill,PA,17011
803,301 Railroad Avenue (Palogix) 17011,Camp Hill,PA,17011
804,301 Railroad Avenue (Palogix) 17011,Camp Hill,PA,17011
805,405 St Johns Church Road (Apria Healthcare) 17011,Camp Hill,PA,17011
806,405 St Johns Church Road (Apria Healthcare) 17011,Camp Hill,PA,17011
807,410 Fallowfield Road (YMCA) 17011,Camp Hill,PA,17011
808,410 Fallowfield Road (YMCA) 17011,Camp Hill,PA,17011
809,410 Fallowfield Road (YMCA) 17011,Camp Hill,PA,17011
810,410 Fallowfield Road (YMCA) 17011,Camp Hill,PA,17011
811,410 St Johns Church Road (Coliseum) 17011,Camp Hill,PA,17011
812,410 Fallowfield Road (YMCA) 17011,Camp Hill,PA,17011
813,410 St Johns Church Road (Coliseum) 17011,Camp Hill,PA,17011
814,410 St Johns Church Road (Coliseum) 17011,Camp Hill,PA,17011
815,410 Fallowfield Road (YMCA) 17011,Camp Hill,PA,17011
816,410 Fallowfield Road (YMCA) 17011,Camp Hill,PA,17011
817,410 Fallowfield Road (YMCA) 17011,Camp Hill,PA,17011
818,410 Fallowfield Road (YMCA) 17011,Camp Hill,PA,17011
819,410 Fallowfield Road (YMCA) 17011,Camp Hill,PA,17011
820,410 Fallowfield Road (YMCA) 17011,Camp Hill,PA,17011
821,410 Fallowfield Road (YMCA) 17011,Camp Hill,PA,17011
822,410 Fallowfield Road 17011,Hampden Twp,PA,17011
823,410 St Johns Church Road (Coliseum) 17011,Camp Hill,PA,17011
824,415 St Johns Church Road (Method 3) 17011,Camp Hill,PA,17011
825,420 Salem Church Road (Glosser Steel) 17011,Camp Hill,PA,17011
826,420 St Johns Church Road (Westys) 17011,Hampden Twp,PA,17011
827,431 Railroad Avenue (Rite Aid) 17011,Hampden Twp,PA,17011
828,451 Freight Street (Paul Miller Trucking) 17011,Camp Hill,PA,17011
829,451 Skyport Road (Good Hope Middle School) 17011,Camp Hill,PA,17011
830,458 Pawnee Drive (Indian Creek Pool) 17011,Camp Hill,PA,17011
831,460 Sterling Street (ECD) 17011,Camp Hill,PA,17011
832,460 Sterling Street (Damco) 17011,Camp Hill,PA,17011
833,699 East Simpson Street (Palmer Automotive) 17011,Camp Hill,PA,17011
834,701 East Locust Street (Spankys) 17011,Camp Hill,PA,17011
835,1100 Grandon Way (Brookdale Retirement Home) 17011,Camp Hill,PA,17011
836,1100 of Grandon Way 17011,Camp Hill,PA,17011
837,1410 Good Hope Road (Faith Tabernacle School) 17011,Camp Hill,PA,17011
838,1700 Adeline Drive 17011,Camp Hill,PA,17011
839,1806 Lambs Gap Road (Lambs Gap Animal Hospital) 17011,Camp Hill,PA,17011
840,1995 Technology Parkway (West Shore Hospital) 17011,Camp Hill,PA,17011
841,1995 Technology Parkway (West Shore Hospital) 17011,Camp Hill,PA,17011
842,1995 Technology Parkway (West Shore Hospital) 17011,Camp Hill,PA,17011
843,2020 Technology Parkway (Novitas Solutions) 17011,Camp Hill,PA,17011
844,2025 Technology Parkway (Good Day Pharmacy) 17011,Camp Hill,PA,17011
845,2055 Technology Parkway (Holiday Inn Express) 17011,Camp Hill,PA,17011
846,2060 Good Hope Road (Turkey Hill) 17011,Camp Hill,PA,17011
847,2060 Good Hope Road (Turkey Hill) 17011,Camp Hill,PA,17011
848,2060 Good Hope Road (Turkey Hill) 17011,Camp Hill,PA,17011
849,2240 Millenium Way (Als of Hampden) 17011,Camp Hill,PA,17011
850,2385 Wertz Lane (Kreitzers Automotive) 17011,Camp Hill,PA,17011
851,3431 Simpson Ferry Road (Cinema Center) 17011,Camp Hill,PA,17011
852,3431 Simpson Ferry Road (Cinema Center) 17011,Camp Hill,PA,17011
853,3431 Simpson Ferry Road (Aarons) 17011,Lower Allen Twp,PA,17011
854,3431 Simpson Ferry Road (Aarons) 17011,Lower Allen Twp,PA,17011
855,3431 Simpson Ferry Road (Cinema Center) 17011,Camp Hill,PA,17011
856,3431 Simpson Ferry Road (Cinema Center) 17011,Camp Hill,PA,17011
857,3442 Simpson Ferry Road (John H Myers) 17011,Camp Hill,PA,17011
858,3442 Simpson Ferry Road (John H Myers) 17011,Camp Hill,PA,17011
859,3447 Simpson Ferry Road (Play and Trade Video) 17011,Camp Hill,PA,17011
860,3449 Simpson Ferry Road (Lower Allen Diner) 17011,Lower Allen Twp,PA,17011
861,3451 Simpson Ferry Road (Mid South Building Supply) 17011,Camp Hill,PA,17011
862,3500 East Trindle Road (Belco) 17011,Camp Hill,PA,17011
863,3512 Market Street (Members 1st) 17011,Camp Hill,PA,17011
864,3512 Market Street (Members 1st) 17011,Camp Hill,PA,17011
865,3512 Market Street (Members 1st) 17011,Camp Hill,PA,17011
866,3512 Market Street (Members 1st) 17011,Camp Hill,PA,17011
867,3512 Market Street (Members 1st) 17011,Camp Hill,PA,17011
868,3512 Market Street (Members 1st) 17011,Camp Hill,PA,17011
869,3512 Market Street (Members 1st) 17011,Camp Hill,PA,17011
870,3512 Market Street (Members 1st) 17011,Camp Hill,PA,17011
871,3512 Market Street (Members 1st) 17011,Camp Hill,PA,17011
872,3512 Market Street (Members 1st) 17011,Camp Hill,PA,17011
873,3512 Market Street (Members 1st) 17011,Camp Hill,PA,17011
874,3512 Market Street (Members 1st) 17011,Camp Hill,PA,17011
875,3512 Trindle Road (West Shore Hearing Center) 17011,Camp Hill,PA,17011
876,3512 Market Street (Members 1st) 17011,Camp Hill,PA,17011
877,3543 Simpson Ferry Road (Foot Locker) 17011,Camp Hill,PA,17011
878,3543 Simpson Ferry Road (Foot Locker) 17011,Camp Hill,PA,17011
879,3543 Simpson Ferry Road (Foot Locker) 17011,Camp Hill,PA,17011
880,3543 Simpson Ferry Road (Foot Locker) 17011,Camp Hill,PA,17011
881,3543 Simpson Ferry Road (Foot Locker) 17011,Camp Hill,PA,17011
882,3705 East Trindle Road (Glace Associates) 17011,Camp Hill,PA,17011
883,3721 Market Street (ABC Brewery) 17011,Camp Hill,PA,17011
884,3730 Market Street (Hello Gorgeous) 17011,Camp Hill,PA,17011
885,3780 Trindle Road (Mountz Jewelers) 17011,Camp Hill,PA,17011
886,3806 Market Street (Susquehanna Seniors LLC) 17011,Camp Hill,PA,17011
887,3809 East Trindle Road (Jack Williams Tire and Auto) 17011,Camp Hill,PA,17011
888,3901 Trindle Road (Salvation Army) 17011,Camp Hill,PA,17011
889,3901 Trindle Road (Salvation Army) 17011,Camp Hill,PA,17011
890,3907 Market Street (Members 1st) 17011,Camp Hill,PA,17011
891,3925 Trindle Road (RT Grimm) 17011,,PA,3925
892,3925 East Trindle Road (RT Grim) 17011,,PA,3925
893,4230 Trindle Road (McDonalds) 17011,Camp Hill,PA,17011
894,4230 Trindle Road (McDonalds) 17011,Camp Hill,PA,17011
895,4242 Carlisle Pike (PNC Bank) 17011,Camp Hill,PA,17011
896,4401 Carlisle Pike (RYO) 17011,,PA,04401-000
897,4415 Carlisle Pike (Pizza Works) 17011,Camp Hill,PA,17011
898,4501 East Trindle Road (Sunoco) 17011,Camp Hill,PA,17011
899,4510 Marketplace Way (Giant) 17011,Camp Hill,PA,17011
900,4510 Marketplace Way (Giant) 17011,Camp Hill,PA,17011
901,4510 Marketplace Way (Giant) 17011,Camp Hill,PA,17011
902,4510 Marketplace Way (Giant) 17011,Camp Hill,PA,17011
903,4510 Marketplace Way (Giant) 17011,Camp Hill,PA,17011
904,4510 Marketplace Way (Giant) 17011,Camp Hill,PA,17011
905,4510 Marketplace Way (Giant) 17011,Camp Hill,PA,17011
906,4510 Marketplace Way (Giant) 17011,Camp Hill,PA,17011
907,4510 Marketplace Way (Giant) 17011,Camp Hill,PA,17011
908,4510 Marketplace Way (Giant) 17011,Camp Hill,PA,17011
909,4510 Marketplace Way (Giant) 17011,Camp Hill,PA,17011
910,4608 Carlisle Pike (Adam Auto Group) 17011,Camp Hill,PA,17011
911,4618 Carlisle Pike (Super Spray Car Wash) 17011,Camp Hill,PA,17011
912,4680 East Trindle Road (West Shore AAA) 17011,Camp Hill,PA,17011
913,4695 East Trindle Road (Trindle Bowl) 17011,Camp Hill,PA,17011
914,4700 Creekview Road (Creekview Park) 17011,Camp Hill,PA,17011
915,4705 Creekview Road (Creekview Park North) 17011,Camp Hill,PA,17011
916,4711 Carlisle Pike (Red Lobster) 17011,Camp Hill,PA,17011
917,4713 Calrisle Pike (Aroogas) 17011,Camp Hill,PA,17011
918,4721 Delbrook Road (His Heart Tabernacle) 17011,Camp Hill,PA,17011
919,4801 East Trindle Road (7-11) 17011,Camp Hill,PA,17011
920,4810 Carlisle Pike (Five Guys) 17011,Camp Hill,PA,17011
921,4830 Carlisle Pike (Rent A Center) 17011,Camp Hill,PA,17011
922,4830 Carlisle Pike (Planet Fitness) 17011,Camp Hill,PA,17011
923,4830 Carlisle Pike 17011,Hampden Twp,PA,17011
924,4833 Carlisle Pike (Community Aid) 17011,Camp Hill,PA,17011
925,4833 Carlisle Pike (Community Aid) 17011,Camp Hill,PA,17011
926,4833 Carlisle Pike (Community Aid) 17011,Camp Hill,PA,17011
927,4833 Carlisle Pike (Community Aid) 17011,Camp Hill,PA,17011
928,4833 Carlisle Pike (Community Aid) 17011,Camp Hill,PA,17011
929,4833 Carlisle Pike (Community Aid) 17011,Camp Hill,PA,17011
930,4833 Carlisle Pike (Community Aid) 17011,Camp Hill,PA,17011
931,4850 Carlisle Pike (Planet Fitness) 17011,Camp Hill,PA,17011
932,4850 Carlisle Pike (Planet Fitness) 17011,Camp Hill,PA,17011
933,4850 Carlisle Pike (Planet Fitness) 17011,Camp Hill,PA,17011
934,4860 Carlisle Pike (First National Bank) 17011,Camp Hill,PA,17011
935,4860 Carlisle Pike (Metro Bank) 17011,Camp Hill,PA,17011
936,4860 Carlisle Pike (Metro Bank) 17011,Camp Hill,PA,17011
937,4870 Carlisle Pike (Karns) 17011,Camp Hill,PA,17011
938,4870 Carlisle Pike (Karns) 17011,Camp Hill,PA,17011
939,4880 Carlisle Pike (Goodwill) 17011,Camp Hill,PA,17011
940,4900 Carlisle Pike (Hampden Optical) 17011,Camp Hill,PA,17011
941,4900 Woodland Drive (Microtel) 17011,Camp Hill,PA,17011
942,4905 East Trindle Road (Country Meadows) 17011,Camp Hill,PA,17011
943,4931 Carlisle Pike (Sass Salon) 17011,Camp Hill,PA,17011
944,4957 Carlisle Pike (Rite Aid) 17011,Camp Hill,PA,17011
945,4957 Carlisle Pike (Rite Aid) 17011,Camp Hill,PA,17011
946,4957 Carlisle Pike (Rite Aid) 17011,Camp Hill,PA,17011
947,5001 East Trindle Road (Chef Wong?ÇÖs) 17011,Camp Hill,PA,17011
948,5103 Carlisle Pike (Momentum Fitness) 17011,Camp Hill,PA,17011
949,5120 East Trindle Road (Best Line) 17011,Camp Hill,PA,17011
950,5120 East Trindle Road (Best Line) 17011,Camp Hill,PA,17011
951,5120 East Trindle Road (Bestline) 17011,Camp Hill,PA,17011
952,5120 East Trindle Road (Best Line) 17011,Camp Hill,PA,17011
953,5120 East Trindle Road (Best Line) 17011,Camp Hill,PA,17011
954,5130 East Trindle Road (A1 Sealcoating) 17011,Camp Hill,PA,17011
955,5201 Simpson Ferry Road (Sheetz) 17011,Camp Hill,PA,17011
956,5201 Simpson Ferry Road (Sheetz) 17011,Camp Hill,PA,17011
957,5201 Simpson Ferry Road (Sheetz) 17011,Camp Hill,PA,17011
958,5201 Simpson Ferry Road (Sheetz) 17011,Camp Hill,PA,17011
959,5201 Simpson Ferry Road (Sheetz) 17011,Camp Hill,PA,17011
960,5201 Simpson Ferry Road (Sheetz) 17011,Camp Hill,PA,17011
961,5201 Simpson Ferry Road (Sheetz) 17011,Camp Hill,PA,17011
962,5201 Simpson Ferry Road (Sheetz) 17011,Camp Hill,PA,17011
963,5201 Simpson Ferry Road (Sheetz) 17011,Camp Hill,PA,17011
964,5217 East Trindle Road (Jeffrey?ÇÖs Flowers) 17011,Camp Hill,PA,17011
965,5219 Simpson Ferry Road (M&T Bank) 17011,Camp Hill,PA,17011
966,5219 Simpson Ferry Road (M&T Bank) 17011,Camp Hill,PA,17011
967,5231 Simpson Ferry Road (Secure Construction Services) 17011,Camp Hill,PA,17011
968,5231 Simpson Ferry Road (Postal Connections) 17011,Camp Hill,PA,17011
969,5250 Carlisle Pike (Carrabbas Italian Grill) 17011,Camp Hill,PA,17011
970,5267 Simpson Ferry Road (Broco Supply) 17011,Camp Hill,PA,17011
971,5275 East Trindle Road (MDJ Silcox Office) 17011,Camp Hill,PA,17011
972,5277 Simpson Ferry Road (Rite Aid) 17011,Camp Hill,PA,17011
973,5277 Simpson Ferry Road (Rite Aid) 17011,Camp Hill,PA,17011
974,5277 Simpson Ferry Road (Rite Aid) 17011,Camp Hill,PA,17011
975,5277 Simpson Ferry Road (Rite Aid) 17011,Camp Hill,PA,17011
976,5277 Simpson Ferry Road (Rite Aid) 17011,Camp Hill,PA,17011
977,5301 Simpson Ferry Road (Giant) 17011,Camp Hill,PA,17011
978,5301 Simpson Ferry Road (Giant) 17011,Camp Hill,PA,17011
979,5301 Simpson Ferry Road (Wine & Spirits) 17011,Camp Hill,PA,17011
980,5301 Simpson Ferry Road (Giant) 17011,Camp Hill,PA,17011
981,5301 Simpson Ferry Road (Giant) 17011,Camp Hill,PA,17011
982,5301 Simpson Ferry Road (Wine and Spirits) 17011,Camp Hill,PA,17011
983,5301 Simpson Ferry Road (Wine and Spirits) 17011,Camp Hill,PA,17011
984,5301 Simpson Ferry Road (Giant) 17011,Camp Hill,PA,17011
985,5301 Simpson Ferry Road (Giant) 17011,Camp Hill,PA,17011
986,5301 Simpson Ferry Road (Giant) 17011,Camp Hill,PA,17011
987,5301 Simpson Ferry Road (Giant) 17011,Camp Hill,PA,17011
988,5301 Simpson Ferry Road (Giant) 17011,Camp Hill,PA,17011
989,5304 Carlisle Pike (Members 1st) 17011,Camp Hill,PA,17011
990,5325 East Trindle Road (Pink Hands of Hope) 17011,Camp Hill,PA,17011
991,5327 East Trindle Road (Johnny Joes) 17011,Camp Hill,PA,17011
992,5327 East Trindle Road (Johnny Joes) 17011,Camp Hill,PA,17011
993,5327 East Trindle Road (Johnny Joes) 17011,Camp Hill,PA,17011
994,5327 East Trindle Road (Johnny Joes) 17011,Camp Hill,PA,17011
995,5401 Carlisle Pike (Blarney?ÇÖs) 17011,Camp Hill,PA,17011
996,5401 Carlisle Pike (Blarney?ÇÖs) 17011,Camp Hill,PA,17011
997,5401 Carlisle Pike (Park Inn) 17011,Camp Hill,PA,17011
998,5401 Carlisle Pike (Park Inn) 17011,Camp Hill,PA,17011
